{"type": "FeatureCollection", "features": [{"type": "Feature", "geometry": {"type": "LineString", "coordinates": [[-94.65, 28.7], [-94.64496, 28.70504], [-94.63992, 28.71008], [-94.63487, 28.71513], [-94.62983, 28.72017], [-94.62479, 28.72521], [-94.61975, 28.73025], [-94.61471, 28.73529], [-94.60966, 28.74034], [-94.60462, 28.74538], [-94.59958, 28.75042], [-94.59454, 28.75546], [-94.5895, 28.7605], [-94.58445, 28.76555], [-94.57941, 28.77059], [-94.57437, 28.77563], [-94.56933, 28.78067], [-94.56429, 28.78571], [-94.55924, 28.79076], [-94.5542, 28.7958], [-94.54916, 28.80084], [-94.54412, 28.80588], [-94.53908, 28.81092], [-94.53403, 28.81597], [-94.52899, 28.82101], [-94.52395, 28.82605], [-94.51891, 28.83109], [-94.51387, 28.83613], [-94.50882, 28.84118], [-94.50378, 28.84622], [-94.49874, 28.85126], [-94.4937, 28.8563], [-94.48866, 28.86134], [-94.48361, 28.86639], [-94.47857, 28.87143], [-94.47353, 28.87647], [-94.46849, 28.88151], [-94.46345, 28.88655], [-94.4584, 28.8916], [-94.45336, 28.89664], [-94.44832, 28.90168], [-94.44328, 28.90672], [-94.43824, 28.91176], [-94.43319, 28.91681], [-94.42815, 28.92185], [-94.42311, 28.92689], [-94.41807, 28.93193], [-94.41303, 28.93697], [-94.40798, 28.94202], [-94.40294, 28.94706], [-94.3979, 28.9521], [-94.39286, 28.95714], [-94.38782, 28.96218], [-94.38277, 28.96723], [-94.37773, 28.97227], [-94.37269, 28.97731], [-94.36765, 28.98235], [-94.36261, 28.98739], [-94.35756, 28.99244], [-94.35252, 28.99748], [-94.34748, 29.00252], [-94.34244, 29.00756], [-94.33739, 29.01261], [-94.33235, 29.01765], [-94.32731, 29.02269], [-94.32227, 29.02773], [-94.31723, 29.03277], [-94.31218, 29.03782], [-94.30714, 29.04286], [-94.3021, 29.0479], [-94.29706, 29.05294], [-94.29202, 29.05798], [-94.28697, 29.06303], [-94.28193, 29.06807], [-94.27689, 29.07311], [-94.27185, 29.07815], [-94.26681, 29.08319], [-94.26176, 29.08824], [-94.25672, 29.09328], [-94.25168, 29.09832], [-94.24664, 29.10336], [-94.2416, 29.1084], [-94.23655, 29.11345], [-94.23151, 29.11849], [-94.22647, 29.12353], [-94.22143, 29.12857], [-94.21639, 29.13361], [-94.21134, 29.13866], [-94.2063, 29.1437], [-94.20126, 29.14874], [-94.19622, 29.15378], [-94.19118, 29.15882], [-94.18613, 29.16387], [-94.18109, 29.16891], [-94.17605, 29.17395], [-94.17101, 29.17899], [-94.16597, 29.18403], [-94.16092, 29.18908], [-94.15588, 29.19412], [-94.15084, 29.19916], [-94.1458, 29.2042], [-94.14076, 29.20924], [-94.13571, 29.21429], [-94.13067, 29.21933], [-94.12563, 29.22437], [-94.12059, 29.22941], [-94.11555, 29.23445], [-94.1105, 29.2395], [-94.10546, 29.24454], [-94.10042, 29.24958], [-94.09538, 29.25462], [-94.09034, 29.25966], [-94.08529, 29.26471], [-94.08025, 29.26975], [-94.07521, 29.27479], [-94.07017, 29.27983], [-94.06513, 29.28487], [-94.06008, 29.28992], [-94.05504, 29.29496], [-94.05, 29.3]]}, "properties": {"mmsi": "000000101", "name": "FAKE ATLAS", "vessel_type": "tanker", "n_points": 120, "max_gap_minutes": 85}}, {"type": "Feature", "geometry": {"type": "LineString", "coordinates": [[-94.59, 28.7], [-94.58496, 28.70504], [-94.57992, 28.71008], [-94.57487, 28.71513], [-94.56983, 28.72017], [-94.56479, 28.72521], [-94.55975, 28.73025], [-94.55471, 28.73529], [-94.54966, 28.74034], [-94.54462, 28.74538], [-94.53958, 28.75042], [-94.53454, 28.75546], [-94.5295, 28.7605], [-94.52445, 28.76555], [-94.51941, 28.77059], [-94.51437, 28.77563], [-94.50933, 28.78067], [-94.50429, 28.78571], [-94.49924, 28.79076], [-94.4942, 28.7958], [-94.48916, 28.80084], [-94.48412, 28.80588], [-94.47908, 28.81092], [-94.47403, 28.81597], [-94.46899, 28.82101], [-94.46395, 28.82605], [-94.45891, 28.83109], [-94.45387, 28.83613], [-94.44882, 28.84118], [-94.44378, 28.84622], [-94.43874, 28.85126], [-94.4337, 28.8563], [-94.42866, 28.86134], [-94.42361, 28.86639], [-94.41857, 28.87143], [-94.41353, 28.87647], [-94.40849, 28.88151], [-94.40345, 28.88655], [-94.3984, 28.8916], [-94.39336, 28.89664], [-94.38832, 28.90168], [-94.38328, 28.90672], [-94.37824, 28.91176], [-94.37319, 28.91681], [-94.36815, 28.92185], [-94.36311, 28.92689], [-94.35807, 28.93193], [-94.35303, 28.93697], [-94.34798, 28.94202], [-94.34294, 28.94706], [-94.3379, 28.9521], [-94.33286, 28.95714], [-94.32782, 28.96218], [-94.32277, 28.96723], [-94.31773, 28.97227], [-94.31269, 28.97731], [-94.30765, 28.98235], [-94.30261, 28.98739], [-94.29756, 28.99244], [-94.29252, 28.99748], [-94.28748, 29.00252], [-94.28244, 29.00756], [-94.27739, 29.01261], [-94.27235, 29.01765], [-94.26731, 29.02269], [-94.26227, 29.02773], [-94.25723, 29.03277], [-94.25218, 29.03782], [-94.24714, 29.04286], [-94.2421, 29.0479], [-94.23706, 29.05294], [-94.23202, 29.05798], [-94.22697, 29.06303], [-94.22193, 29.06807], [-94.21689, 29.07311], [-94.21185, 29.07815], [-94.20681, 29.08319], [-94.20176, 29.08824], [-94.19672, 29.09328], [-94.19168, 29.09832], [-94.18664, 29.10336], [-94.1816, 29.1084], [-94.17655, 29.11345], [-94.17151, 29.11849], [-94.16647, 29.12353], [-94.16143, 29.12857], [-94.15639, 29.13361], [-94.15134, 29.13866], [-94.1463, 29.1437], [-94.14126, 29.14874], [-94.13622, 29.15378], [-94.13118, 29.15882], [-94.12613, 29.16387], [-94.12109, 29.16891], [-94.11605, 29.17395], [-94.11101, 29.17899], [-94.10597, 29.18403], [-94.10092, 29.18908], [-94.09588, 29.19412], [-94.09084, 29.19916], [-94.0858, 29.2042], [-94.08076, 29.20924], [-94.07571, 29.21429], [-94.07067, 29.21933], [-94.06563, 29.22437], [-94.06059, 29.22941], [-94.05555, 29.23445], [-94.0505, 29.2395], [-94.04546, 29.24454], [-94.04042, 29.24958], [-94.03538, 29.25462], [-94.03034, 29.25966], [-94.02529, 29.26471], [-94.02025, 29.26975], [-94.01521, 29.27479], [-94.01017, 29.27983], [-94.00513, 29.28487], [-94.00008, 29.28992], [-93.99504, 29.29496], [-93.99, 29.3]]}, "properties": {"mmsi": "000000102", "name": "FAKE MERIDIAN", "vessel_type": "cargo", "n_points": 120, "max_gap_minutes": 0}}, {"type": "Feature", "geometry": {"type": "LineString", "coordinates": [[-94.73, 28.7], [-94.72496, 28.70504], [-94.71992, 28.71008], [-94.71487, 28.71513], [-94.70983, 28.72017], [-94.70479, 28.72521], [-94.69975, 28.73025], [-94.69471, 28.73529], [-94.68966, 28.74034], [-94.68462, 28.74538], [-94.67958, 28.75042], [-94.67454, 28.75546], [-94.6695, 28.7605], [-94.66445, 28.76555], [-94.65941, 28.77059], [-94.65437, 28.77563], [-94.64933, 28.78067], [-94.64429, 28.78571], [-94.63924, 28.79076], [-94.6342, 28.7958], [-94.62916, 28.80084], [-94.62412, 28.80588], [-94.61908, 28.81092], [-94.61403, 28.81597], [-94.60899, 28.82101], [-94.60395, 28.82605], [-94.59891, 28.83109], [-94.59387, 28.83613], [-94.58882, 28.84118], [-94.58378, 28.84622], [-94.57874, 28.85126], [-94.5737, 28.8563], [-94.56866, 28.86134], [-94.56361, 28.86639], [-94.55857, 28.87143], [-94.55353, 28.87647], [-94.54849, 28.88151], [-94.54345, 28.88655], [-94.5384, 28.8916], [-94.53336, 28.89664], [-94.52832, 28.90168], [-94.52328, 28.90672], [-94.51824, 28.91176], [-94.51319, 28.91681], [-94.50815, 28.92185], [-94.50311, 28.92689], [-94.49807, 28.93193], [-94.49303, 28.93697], [-94.48798, 28.94202], [-94.48294, 28.94706], [-94.4779, 28.9521], [-94.47286, 28.95714], [-94.46782, 28.96218], [-94.46277, 28.96723], [-94.45773, 28.97227], [-94.45269, 28.97731], [-94.44765, 28.98235], [-94.44261, 28.98739], [-94.43756, 28.99244], [-94.43252, 28.99748], [-94.42748, 29.00252], [-94.42244, 29.00756], [-94.41739, 29.01261], [-94.41235, 29.01765], [-94.40731, 29.02269], [-94.40227, 29.02773], [-94.39723, 29.03277], [-94.39218, 29.03782], [-94.38714, 29.04286], [-94.3821, 29.0479], [-94.37706, 29.05294], [-94.37202, 29.05798], [-94.36697, 29.06303], [-94.36193, 29.06807], [-94.35689, 29.07311], [-94.35185, 29.07815], [-94.34681, 29.08319], [-94.34176, 29.08824], [-94.33672, 29.09328], [-94.33168, 29.09832], [-94.32664, 29.10336], [-94.3216, 29.1084], [-94.31655, 29.11345], [-94.31151, 29.11849], [-94.30647, 29.12353], [-94.30143, 29.12857], [-94.29639, 29.13361], [-94.29134, 29.13866], [-94.2863, 29.1437], [-94.28126, 29.14874], [-94.27622, 29.15378], [-94.27118, 29.15882], [-94.26613, 29.16387], [-94.26109, 29.16891], [-94.25605, 29.17395], [-94.25101, 29.17899], [-94.24597, 29.18403], [-94.24092, 29.18908], [-94.23588, 29.19412], [-94.23084, 29.19916], [-94.2258, 29.2042], [-94.22076, 29.20924], [-94.21571, 29.21429], [-94.21067, 29.21933], [-94.20563, 29.22437], [-94.20059, 29.22941], [-94.19555, 29.23445], [-94.1905, 29.2395], [-94.18546, 29.24454], [-94.18042, 29.24958], [-94.17538, 29.25462], [-94.17034, 29.25966], [-94.16529, 29.26471], [-94.16025, 29.26975], [-94.15521, 29.27479], [-94.15017, 29.27983], [-94.14513, 29.28487], [-94.14008, 29.28992], [-94.13504, 29.29496], [-94.13, 29.3]]}, "properties": {"mmsi": "000000103", "name": "FAKE PELICAN", "vessel_type": "fishing", "n_points": 120, "max_gap_minutes": 0}}, {"type": "Feature", "geometry": {"type": "LineString", "coordinates": [[-94.54, 28.7], [-94.53496, 28.70504], [-94.52992, 28.71008], [-94.52487, 28.71513], [-94.51983, 28.72017], [-94.51479, 28.72521], [-94.50975, 28.73025], [-94.50471, 28.73529], [-94.49966, 28.74034], [-94.49462, 28.74538], [-94.48958, 28.75042], [-94.48454, 28.75546], [-94.4795, 28.7605], [-94.47445, 28.76555], [-94.46941, 28.77059], [-94.46437, 28.77563], [-94.45933, 28.78067], [-94.45429, 28.78571], [-94.44924, 28.79076], [-94.4442, 28.7958], [-94.43916, 28.80084], [-94.43412, 28.80588], [-94.42908, 28.81092], [-94.42403, 28.81597], [-94.41899, 28.82101], [-94.41395, 28.82605], [-94.40891, 28.83109], [-94.40387, 28.83613], [-94.39882, 28.84118], [-94.39378, 28.84622], [-94.38874, 28.85126], [-94.3837, 28.8563], [-94.37866, 28.86134], [-94.37361, 28.86639], [-94.36857, 28.87143], [-94.36353, 28.87647], [-94.35849, 28.88151], [-94.35345, 28.88655], [-94.3484, 28.8916], [-94.34336, 28.89664], [-94.33832, 28.90168], [-94.33328, 28.90672], [-94.32824, 28.91176], [-94.32319, 28.91681], [-94.31815, 28.92185], [-94.31311, 28.92689], [-94.30807, 28.93193], [-94.30303, 28.93697], [-94.29798, 28.94202], [-94.29294, 28.94706], [-94.2879, 28.9521], [-94.28286, 28.95714], [-94.27782, 28.96218], [-94.27277, 28.96723], [-94.26773, 28.97227], [-94.26269, 28.97731], [-94.25765, 28.98235], [-94.25261, 28.98739], [-94.24756, 28.99244], [-94.24252, 28.99748], [-94.23748, 29.00252], [-94.23244, 29.00756], [-94.22739, 29.01261], [-94.22235, 29.01765], [-94.21731, 29.02269], [-94.21227, 29.02773], [-94.20723, 29.03277], [-94.20218, 29.03782], [-94.19714, 29.04286], [-94.1921, 29.0479], [-94.18706, 29.05294], [-94.18202, 29.05798], [-94.17697, 29.06303], [-94.17193, 29.06807], [-94.16689, 29.07311], [-94.16185, 29.07815], [-94.15681, 29.08319], [-94.15176, 29.08824], [-94.14672, 29.09328], [-94.14168, 29.09832], [-94.13664, 29.10336], [-94.1316, 29.1084], [-94.12655, 29.11345], [-94.12151, 29.11849], [-94.11647, 29.12353], [-94.11143, 29.12857], [-94.10639, 29.13361], [-94.10134, 29.13866], [-94.0963, 29.1437], [-94.09126, 29.14874], [-94.08622, 29.15378], [-94.08118, 29.15882], [-94.07613, 29.16387], [-94.07109, 29.16891], [-94.06605, 29.17395], [-94.06101, 29.17899], [-94.05597, 29.18403], [-94.05092, 29.18908], [-94.04588, 29.19412], [-94.04084, 29.19916], [-94.0358, 29.2042], [-94.03076, 29.20924], [-94.02571, 29.21429], [-94.02067, 29.21933], [-94.01563, 29.22437], [-94.01059, 29.22941], [-94.00555, 29.23445], [-94.0005, 29.2395], [-93.99546, 29.24454], [-93.99042, 29.24958], [-93.98538, 29.25462], [-93.98034, 29.25966], [-93.97529, 29.26471], [-93.97025, 29.26975], [-93.96521, 29.27479], [-93.96017, 29.27983], [-93.95513, 29.28487], [-93.95008, 29.28992], [-93.94504, 29.29496], [-93.94, 29.3]]}, "properties": {"mmsi": "000000104", "name": "FAKE CORAL", "vessel_type": "cargo", "n_points": 120, "max_gap_minutes": 0}}]}