{"type": "FeatureCollection", "features": [{"type": "Feature", "geometry": {"type": "Polygon", "coordinates": [[[80.32, 13.2], [80.3195, 13.20445], [80.31802, 13.20868], [80.31564, 13.21247], [80.31247, 13.21564], [80.30868, 13.21802], [80.30445, 13.2195], [80.3, 13.22], [80.29555, 13.2195], [80.29132, 13.21802], [80.28753, 13.21564], [80.28436, 13.21247], [80.28198, 13.20868], [80.2805, 13.20445], [80.28, 13.2], [80.2805, 13.19555], [80.28198, 13.19132], [80.28436, 13.18753], [80.28753, 13.18436], [80.29132, 13.18198], [80.29555, 13.1805], [80.3, 13.18], [80.30445, 13.1805], [80.30868, 13.18198], [80.31247, 13.18436], [80.31564, 13.18753], [80.31802, 13.19132], [80.3195, 13.19555], [80.32, 13.2]]]}, "properties": {"id": "det-la-01", "classification": "lookalike", "confidence": 0.68, "area_km2": 15.0, "elongation": 1.3, "edge_gradient": 0.09, "contrast_db": -2.4, "shape_class": "blob", "centroid": [80.3, 13.2]}}, {"type": "Feature", "geometry": {"type": "Polygon", "coordinates": [[[80.536, 13.42], [80.5356, 13.42356], [80.53442, 13.42694], [80.53251, 13.42998], [80.52998, 13.43251], [80.52694, 13.43442], [80.52356, 13.4356], [80.52, 13.436], [80.51644, 13.4356], [80.51306, 13.43442], [80.51002, 13.43251], [80.50749, 13.42998], [80.50558, 13.42694], [80.5044, 13.42356], [80.504, 13.42], [80.5044, 13.41644], [80.50558, 13.41306], [80.50749, 13.41002], [80.51002, 13.40749], [80.51306, 13.40558], [80.51644, 13.4044], [80.52, 13.404], [80.52356, 13.4044], [80.52694, 13.40558], [80.52998, 13.40749], [80.53251, 13.41002], [80.53442, 13.41306], [80.5356, 13.41644], [80.536, 13.42]]]}, "properties": {"id": "det-la-02", "classification": "lookalike", "confidence": 0.74, "area_km2": 9.6, "elongation": 1.5, "edge_gradient": 0.12, "contrast_db": -3.0, "shape_class": "blob", "centroid": [80.52, 13.42]}}]}