{
 "type": "FeatureCollection",
 "features": [
  {
   "type": "Feature",
   "geometry": {
    "type": "MultiPolygon",
    "coordinates": [
     [
      [
       [
        71.93296,
        20.20589
       ],
       [
        71.93364,
        20.20589
       ],
       [
        71.93364,
        20.2052
       ],
       [
        71.93296,
        20.2052
       ],
       [
        71.93296,
        20.20589
       ]
      ]
     ],
     [
      [
       [
        71.9103,
        20.17293
       ],
       [
        71.91098,
        20.17293
       ],
       [
        71.91098,
        20.17156
       ],
       [
        71.9103,
        20.17156
       ],
       [
        71.9103,
        20.16881
       ],
       [
        71.90961,
        20.16881
       ],
       [
        71.90961,
        20.16812
       ],
       [
        71.90892,
        20.16812
       ],
       [
        71.90892,
        20.16675
       ],
       [
        71.90824,
        20.16675
       ],
       [
        71.90824,
        20.16469
       ],
       [
        71.90686,
        20.16469
       ],
       [
        71.90686,
        20.16263
       ],
       [
        71.90618,
        20.16263
       ],
       [
        71.90618,
        20.16126
       ],
       [
        71.90549,
        20.16126
       ],
       [
        71.90549,
        20.1592
       ],
       [
        71.9048,
        20.1592
       ],
       [
        71.9048,
        20.15782
       ],
       [
        71.90412,
        20.15782
       ],
       [
        71.90412,
        20.15988
       ],
       [
        71.90343,
        20.15988
       ],
       [
        71.90343,
        20.16194
       ],
       [
        71.90412,
        20.16194
       ],
       [
        71.90412,
        20.16263
       ],
       [
        71.9048,
        20.16263
       ],
       [
        71.9048,
        20.16332
       ],
       [
        71.90618,
        20.16332
       ],
       [
        71.90618,
        20.16538
       ],
       [
        71.90686,
        20.16538
       ],
       [
        71.90686,
        20.16606
       ],
       [
        71.90755,
        20.16606
       ],
       [
        71.90755,
        20.16881
       ],
       [
        71.90824,
        20.16881
       ],
       [
        71.90824,
        20.1695
       ],
       [
        71.90892,
        20.1695
       ],
       [
        71.90892,
        20.17087
       ],
       [
        71.90961,
        20.17087
       ],
       [
        71.90961,
        20.17224
       ],
       [
        71.9103,
        20.17224
       ],
       [
        71.9103,
        20.17293
       ]
      ]
     ],
     [
      [
       [
        71.91098,
        20.17293
       ],
       [
        71.91098,
        20.1743
       ],
       [
        71.91167,
        20.1743
       ],
       [
        71.91167,
        20.17568
       ],
       [
        71.91304,
        20.17568
       ],
       [
        71.91304,
        20.17362
       ],
       [
        71.91236,
        20.17362
       ],
       [
        71.91236,
        20.17293
       ],
       [
        71.91098,
        20.17293
       ]
      ]
     ],
     [
      [
       [
        71.91304,
        20.17568
       ],
       [
        71.91304,
        20.17636
       ],
       [
        71.91373,
        20.17636
       ],
       [
        71.91373,
        20.17842
       ],
       [
        71.91442,
        20.17842
       ],
       [
        71.91442,
        20.1798
       ],
       [
        71.9151,
        20.1798
       ],
       [
        71.9151,
        20.18117
       ],
       [
        71.91579,
        20.18117
       ],
       [
        71.91579,
        20.18186
       ],
       [
        71.91648,
        20.18186
       ],
       [
        71.91648,
        20.18323
       ],
       [
        71.91716,
        20.18323
       ],
       [
        71.91716,
        20.1846
       ],
       [
        71.91785,
        20.1846
       ],
       [
        71.91785,
        20.18598
       ],
       [
        71.91854,
        20.18598
       ],
       [
        71.91854,
        20.18872
       ],
       [
        71.91922,
        20.18872
       ],
       [
        71.91922,
        20.18941
       ],
       [
        71.9206,
        20.18941
       ],
       [
        71.9206,
        20.18666
       ],
       [
        71.91991,
        20.18666
       ],
       [
        71.91991,
        20.1846
       ],
       [
        71.91922,
        20.1846
       ],
       [
        71.91922,
        20.18392
       ],
       [
        71.91854,
        20.18392
       ],
       [
        71.91854,
        20.18254
       ],
       [
        71.91785,
        20.18254
       ],
       [
        71.91785,
        20.18186
       ],
       [
        71.91716,
        20.18186
       ],
       [
        71.91716,
        20.18117
       ],
       [
        71.91648,
        20.18117
       ],
       [
        71.91648,
        20.1798
       ],
       [
        71.91579,
        20.1798
       ],
       [
        71.91579,
        20.17911
       ],
       [
        71.9151,
        20.17911
       ],
       [
        71.9151,
        20.17774
       ],
       [
        71.91442,
        20.17774
       ],
       [
        71.91442,
        20.17568
       ],
       [
        71.91304,
        20.17568
       ]
      ]
     ],
     [
      [
       [
        71.91854,
        20.18872
       ],
       [
        71.91785,
        20.18872
       ],
       [
        71.91785,
        20.1901
       ],
       [
        71.91854,
        20.1901
       ],
       [
        71.91854,
        20.18872
       ]
      ]
     ],
     [
      [
       [
        71.9206,
        20.18941
       ],
       [
        71.9206,
        20.19284
       ],
       [
        71.92197,
        20.19284
       ],
       [
        71.92197,
        20.19353
       ],
       [
        71.92266,
        20.19353
       ],
       [
        71.92266,
        20.19422
       ],
       [
        71.92334,
        20.19422
       ],
       [
        71.92334,
        20.1949
       ],
       [
        71.92472,
        20.1949
       ],
       [
        71.92472,
        20.19422
       ],
       [
        71.92403,
        20.19422
       ],
       [
        71.92403,
        20.19353
       ],
       [
        71.92334,
        20.19353
       ],
       [
        71.92334,
        20.19147
       ],
       [
        71.92266,
        20.19147
       ],
       [
        71.92266,
        20.1901
       ],
       [
        71.92128,
        20.1901
       ],
       [
        71.92128,
        20.18941
       ],
       [
        71.9206,
        20.18941
       ]
      ]
     ],
     [
      [
       [
        71.91922,
        20.19078
       ],
       [
        71.91991,
        20.19078
       ],
       [
        71.91991,
        20.1901
       ],
       [
        71.91922,
        20.1901
       ],
       [
        71.91922,
        20.19078
       ]
      ]
     ],
     [
      [
       [
        71.91167,
        20.18048
       ],
       [
        71.91304,
        20.18048
       ],
       [
        71.91304,
        20.1798
       ],
       [
        71.91167,
        20.1798
       ],
       [
        71.91167,
        20.18048
       ]
      ]
     ],
     [
      [
       [
        71.91304,
        20.18048
       ],
       [
        71.91304,
        20.18186
       ],
       [
        71.91373,
        20.18186
       ],
       [
        71.91373,
        20.18323
       ],
       [
        71.9151,
        20.18323
       ],
       [
        71.9151,
        20.18254
       ],
       [
        71.91442,
        20.18254
       ],
       [
        71.91442,
        20.18117
       ],
       [
        71.91373,
        20.18117
       ],
       [
        71.91373,
        20.18048
       ],
       [
        71.91304,
        20.18048
       ]
      ]
     ],
     [
      [
       [
        71.9151,
        20.18323
       ],
       [
        71.9151,
        20.1846
       ],
       [
        71.91579,
        20.1846
       ],
       [
        71.91579,
        20.18323
       ],
       [
        71.9151,
        20.18323
       ]
      ]
     ],
     [
      [
       [
        71.90137,
        20.15439
       ],
       [
        71.90206,
        20.15439
       ],
       [
        71.90206,
        20.15096
       ],
       [
        71.90137,
        20.15096
       ],
       [
        71.90137,
        20.14753
       ],
       [
        71.90206,
        20.14753
       ],
       [
        71.90206,
        20.14684
       ],
       [
        71.90343,
        20.14684
       ],
       [
        71.90343,
        20.14753
       ],
       [
        71.9048,
        20.14753
       ],
       [
        71.9048,
        20.14821
       ],
       [
        71.90549,
        20.14821
       ],
       [
        71.90549,
        20.14753
       ],
       [
        71.90686,
        20.14753
       ],
       [
        71.90686,
        20.14821
       ],
       [
        71.90824,
        20.14821
       ],
       [
        71.90824,
        20.1489
       ],
       [
        71.90961,
        20.1489
       ],
       [
        71.90961,
        20.14958
       ],
       [
        71.91098,
        20.14958
       ],
       [
        71.91098,
        20.14821
       ],
       [
        71.90961,
        20.14821
       ],
       [
        71.90961,
        20.14615
       ],
       [
        71.90892,
        20.14615
       ],
       [
        71.90892,
        20.14547
       ],
       [
        71.90824,
        20.14547
       ],
       [
        71.90824,
        20.14409
       ],
       [
        71.90686,
        20.14409
       ],
       [
        71.90686,
        20.14478
       ],
       [
        71.90618,
        20.14478
       ],
       [
        71.90618,
        20.14409
       ],
       [
        71.90343,
        20.14409
       ],
       [
        71.90343,
        20.14341
       ],
       [
        71.90274,
        20.14341
       ],
       [
        71.90274,
        20.14409
       ],
       [
        71.90206,
        20.14409
       ],
       [
        71.90206,
        20.14478
       ],
       [
        71.90137,
        20.14478
       ],
       [
        71.90137,
        20.14409
       ],
       [
        71.9,
        20.14409
       ],
       [
        71.9,
        20.14341
       ],
       [
        71.89588,
        20.14341
       ],
       [
        71.89588,
        20.14409
       ],
       [
        71.89519,
        20.14409
       ],
       [
        71.89519,
        20.14547
       ],
       [
        71.8945,
        20.14547
       ],
       [
        71.8945,
        20.14684
       ],
       [
        71.89382,
        20.14684
       ],
       [
        71.89382,
        20.14958
       ],
       [
        71.89519,
        20.14958
       ],
       [
        71.89519,
        20.14821
       ],
       [
        71.89588,
        20.14821
       ],
       [
        71.89588,
        20.1489
       ],
       [
        71.89725,
        20.1489
       ],
       [
        71.89725,
        20.14821
       ],
       [
        71.89862,
        20.14821
       ],
       [
        71.89862,
        20.14958
       ],
       [
        71.9,
        20.14958
       ],
       [
        71.9,
        20.15096
       ],
       [
        71.90068,
        20.15096
       ],
       [
        71.90068,
        20.15164
       ],
       [
        71.90137,
        20.15164
       ],
       [
        71.90137,
        20.15233
       ],
       [
        71.90068,
        20.15233
       ],
       [
        71.90068,
        20.1537
       ],
       [
        71.90137,
        20.1537
       ],
       [
        71.90137,
        20.15439
       ]
      ]
     ],
     [
      [
       [
        71.90137,
        20.16263
       ],
       [
        71.90206,
        20.16263
       ],
       [
        71.90206,
        20.16194
       ],
       [
        71.90137,
        20.16194
       ],
       [
        71.90137,
        20.16263
       ]
      ]
     ]
    ]
   },
   "properties": {
    "id": 3477622,
    "slick_timestamp": "2024-02-23T01:11:14",
    "s1_scene_id": "S1A_IW_GRDH_1SDV_20240223T011114_20240223T011139_052679_065FA4_546D",
    "length": 7970.87313918,
    "area": 1582419.732231021,
    "perimeter": 23900.81337179417,
    "machine_confidence": 0.8384841084480286,
    "polsby_popper": 0.0348101738571315,
    "fill_factor": 0.12046371031406351,
    "linearity": 1153.410530540533,
    "source": "SkyTruth Cerulean, public API (api.cerulean.skytruth.org)",
    "note": "Reference polygon from an operational detector. NOT ground truth and NOT a UDGAM detection \u2014 Cerulean state plainly that SAR alone cannot definitively identify oil. Source attribution deliberately omitted (Master Plan Part 16)."
   }
  },
  {
   "type": "Feature",
   "geometry": {
    "type": "LineString",
    "coordinates": [
     [
      71.92524,
      20.19589
     ],
     [
      71.92168,
      20.19171
     ],
     [
      71.9196,
      20.189
     ],
     [
      71.91796,
      20.1854
     ],
     [
      71.91387,
      20.17973
     ],
     [
      71.91288,
      20.17636
     ],
     [
      71.91192,
      20.17429
     ],
     [
      71.90937,
      20.16948
     ],
     [
      71.90446,
      20.16091
     ],
     [
      71.90327,
      20.14983
     ],
     [
      71.89842,
      20.14766
     ],
     [
      71.89782,
      20.14778
     ],
     [
      71.89401,
      20.1495
     ]
    ]
   },
   "properties": {
    "role": "centerline",
    "index": 0,
    "area": 3975695.6391590256,
    "length": 6773.458122588039
   }
  }
 ]
}
