{
 "type": "FeatureCollection",
 "features": [
  {
   "type": "Feature",
   "geometry": {
    "type": "Polygon",
    "coordinates": [
     [
      [
       71.92977,
       20.20307
      ],
      [
       71.9286,
       20.20253
      ],
      [
       71.92905,
       20.20226
      ],
      [
       71.92878,
       20.20073
      ],
      [
       71.92824,
       20.20037
      ],
      [
       71.92752,
       20.20064
      ],
      [
       71.92752,
       20.20037
      ],
      [
       71.92815,
       20.20001
      ],
      [
       71.92815,
       20.19956
      ],
      [
       71.92743,
       20.19839
      ],
      [
       71.92644,
       20.19759
      ],
      [
       71.92492,
       20.1975
      ],
      [
       71.92438,
       20.19687
      ],
      [
       71.92501,
       20.19624
      ],
      [
       71.92474,
       20.19525
      ],
      [
       71.9242,
       20.19489
      ],
      [
       71.92375,
       20.19507
      ],
      [
       71.92267,
       20.19435
      ],
      [
       71.92123,
       20.19489
      ],
      [
       71.92114,
       20.19381
      ],
      [
       71.92033,
       20.19354
      ],
      [
       71.92033,
       20.19318
      ],
      [
       71.91989,
       20.19291
      ],
      [
       71.92024,
       20.19157
      ],
      [
       71.91971,
       20.19121
      ],
      [
       71.9189,
       20.19121
      ],
      [
       71.91827,
       20.19031
      ],
      [
       71.91719,
       20.19049
      ],
      [
       71.918,
       20.19004
      ],
      [
       71.918,
       20.18887
      ],
      [
       71.91674,
       20.18788
      ],
      [
       71.9162,
       20.18788
      ],
      [
       71.91593,
       20.18815
      ],
      [
       71.91593,
       20.18887
      ],
      [
       71.91647,
       20.18941
      ],
      [
       71.91629,
       20.18986
      ],
      [
       71.91566,
       20.18977
      ],
      [
       71.9153,
       20.18905
      ],
      [
       71.91459,
       20.18887
      ],
      [
       71.91494,
       20.18824
      ],
      [
       71.9162,
       20.18761
      ],
      [
       71.9162,
       20.18654
      ],
      [
       71.91575,
       20.18618
      ],
      [
       71.9153,
       20.18501
      ],
      [
       71.9145,
       20.18465
      ],
      [
       71.91459,
       20.18402
      ],
      [
       71.91387,
       20.18348
      ],
      [
       71.91333,
       20.18151
      ],
      [
       71.9118,
       20.18025
      ],
      [
       71.91117,
       20.18034
      ],
      [
       71.91081,
       20.17944
      ],
      [
       71.90964,
       20.17935
      ],
      [
       71.90875,
       20.17989
      ],
      [
       71.90866,
       20.17962
      ],
      [
       71.90929,
       20.17917
      ],
      [
       71.90973,
       20.17935
      ],
      [
       71.91027,
       20.17899
      ],
      [
       71.91027,
       20.17863
      ],
      [
       71.90973,
       20.17818
      ],
      [
       71.90982,
       20.17746
      ],
      [
       71.91099,
       20.17809
      ],
      [
       71.91225,
       20.17728
      ],
      [
       71.91225,
       20.1754
      ],
      [
       71.91198,
       20.17513
      ],
      [
       71.91189,
       20.17405
      ],
      [
       71.9109,
       20.17351
      ],
      [
       71.91018,
       20.17414
      ],
      [
       71.90973,
       20.17414
      ],
      [
       71.90946,
       20.17477
      ],
      [
       71.90991,
       20.17504
      ],
      [
       71.91018,
       20.17576
      ],
      [
       71.90937,
       20.17567
      ],
      [
       71.90893,
       20.17657
      ],
      [
       71.9083,
       20.17612
      ],
      [
       71.90767,
       20.17639
      ],
      [
       71.90785,
       20.17558
      ],
      [
       71.90686,
       20.1745
      ],
      [
       71.90767,
       20.17486
      ],
      [
       71.90911,
       20.17396
      ],
      [
       71.90991,
       20.17405
      ],
      [
       71.91054,
       20.17351
      ],
      [
       71.91072,
       20.17261
      ],
      [
       71.90982,
       20.17216
      ],
      [
       71.90902,
       20.17288
      ],
      [
       71.90884,
       20.17225
      ],
      [
       71.90937,
       20.17189
      ],
      [
       71.90937,
       20.17153
      ],
      [
       71.90812,
       20.17082
      ],
      [
       71.90659,
       20.17171
      ],
      [
       71.90686,
       20.17055
      ],
      [
       71.90632,
       20.17019
      ],
      [
       71.90596,
       20.17028
      ],
      [
       71.90632,
       20.1692
      ],
      [
       71.90578,
       20.16884
      ],
      [
       71.90524,
       20.16902
      ],
      [
       71.90497,
       20.16848
      ],
      [
       71.90434,
       20.16857
      ],
      [
       71.90255,
       20.16803
      ],
      [
       71.90174,
       20.16893
      ],
      [
       71.90156,
       20.16857
      ],
      [
       71.90219,
       20.16812
      ],
      [
       71.90192,
       20.16722
      ],
      [
       71.90228,
       20.1665
      ],
      [
       71.90174,
       20.16615
      ],
      [
       71.90057,
       20.16408
      ],
      [
       71.89976,
       20.16381
      ],
      [
       71.89985,
       20.16291
      ],
      [
       71.89949,
       20.16255
      ],
      [
       71.89994,
       20.16228
      ],
      [
       71.89994,
       20.16102
      ],
      [
       71.89967,
       20.16022
      ],
      [
       71.90012,
       20.16058
      ],
      [
       71.90003,
       20.16111
      ],
      [
       71.90084,
       20.16255
      ],
      [
       71.90138,
       20.16255
      ],
      [
       71.90183,
       20.16174
      ],
      [
       71.90219,
       20.16255
      ],
      [
       71.90327,
       20.16237
      ],
      [
       71.90345,
       20.16264
      ],
      [
       71.903,
       20.163
      ],
      [
       71.90219,
       20.163
      ],
      [
       71.90129,
       20.16363
      ],
      [
       71.90147,
       20.16453
      ],
      [
       71.90201,
       20.16498
      ],
      [
       71.90192,
       20.16543
      ],
      [
       71.90255,
       20.16606
      ],
      [
       71.90336,
       20.16588
      ],
      [
       71.90372,
       20.16632
      ],
      [
       71.90309,
       20.16677
      ],
      [
       71.90309,
       20.16713
      ],
      [
       71.90345,
       20.16749
      ],
      [
       71.90416,
       20.16758
      ],
      [
       71.90479,
       20.16713
      ],
      [
       71.90488,
       20.1665
      ],
      [
       71.90542,
       20.16695
      ],
      [
       71.90587,
       20.16695
      ],
      [
       71.90569,
       20.16785
      ],
      [
       71.90632,
       20.16812
      ],
      [
       71.90695,
       20.16983
      ],
      [
       71.90776,
       20.17037
      ],
      [
       71.90839,
       20.17001
      ],
      [
       71.90812,
       20.1683
      ],
      [
       71.90713,
       20.1674
      ],
      [
       71.9074,
       20.16659
      ],
      [
       71.90686,
       20.16623
      ],
      [
       71.90632,
       20.16641
      ],
      [
       71.90605,
       20.16399
      ],
      [
       71.90551,
       20.16363
      ],
      [
       71.90497,
       20.16372
      ],
      [
       71.90497,
       20.16309
      ],
      [
       71.90443,
       20.16264
      ],
      [
       71.90416,
       20.1612
      ],
      [
       71.90372,
       20.16093
      ],
      [
       71.90381,
       20.16031
      ],
      [
       71.90291,
       20.15959
      ],
      [
       71.903,
       20.15923
      ],
      [
       71.90372,
       20.15977
      ],
      [
       71.90425,
       20.15941
      ],
      [
       71.90425,
       20.15761
      ],
      [
       71.90354,
       20.1568
      ],
      [
       71.90327,
       20.1559
      ],
      [
       71.90237,
       20.15501
      ],
      [
       71.90174,
       20.15501
      ],
      [
       71.90174,
       20.15429
      ],
      [
       71.90093,
       20.15375
      ],
      [
       71.89994,
       20.15402
      ],
      [
       71.89967,
       20.15483
      ],
      [
       71.90021,
       20.15519
      ],
      [
       71.90111,
       20.15519
      ],
      [
       71.9003,
       20.15572
      ],
      [
       71.89967,
       20.15572
      ],
      [
       71.8994,
       20.15635
      ],
      [
       71.89868,
       20.15563
      ],
      [
       71.8977,
       20.15554
      ],
      [
       71.8977,
       20.1551
      ],
      [
       71.89868,
       20.15546
      ],
      [
       71.89922,
       20.15537
      ],
      [
       71.89949,
       20.15474
      ],
      [
       71.89895,
       20.15384
      ],
      [
       71.89824,
       20.15384
      ],
      [
       71.89698,
       20.15276
      ],
      [
       71.89743,
       20.15177
      ],
      [
       71.89895,
       20.15204
      ],
      [
       71.89877,
       20.15339
      ],
      [
       71.89931,
       20.15375
      ],
      [
       71.89994,
       20.15348
      ],
      [
       71.90048,
       20.15258
      ],
      [
       71.90021,
       20.15195
      ],
      [
       71.89922,
       20.15186
      ],
      [
       71.8994,
       20.15123
      ],
      [
       71.89842,
       20.15069
      ],
      [
       71.89877,
       20.14962
      ],
      [
       71.89815,
       20.14908
      ],
      [
       71.89752,
       20.14899
      ],
      [
       71.89644,
       20.14944
      ],
      [
       71.89608,
       20.1498
      ],
      [
       71.89626,
       20.15069
      ],
      [
       71.89527,
       20.15042
      ],
      [
       71.89491,
       20.15123
      ],
      [
       71.895,
       20.15222
      ],
      [
       71.89455,
       20.15231
      ],
      [
       71.8941,
       20.15213
      ],
      [
       71.89347,
       20.15016
      ],
      [
       71.89303,
       20.14971
      ],
      [
       71.89321,
       20.14899
      ],
      [
       71.89249,
       20.14845
      ],
      [
       71.89159,
       20.14827
      ],
      [
       71.89312,
       20.14827
      ],
      [
       71.89365,
       20.14773
      ],
      [
       71.89338,
       20.14665
      ],
      [
       71.89392,
       20.14629
      ],
      [
       71.89392,
       20.14584
      ],
      [
       71.89455,
       20.14512
      ],
      [
       71.89635,
       20.14414
      ],
      [
       71.89626,
       20.14351
      ],
      [
       71.89752,
       20.1436
      ],
      [
       71.89815,
       20.14198
      ],
      [
       71.89815,
       20.14288
      ],
      [
       71.89788,
       20.14315
      ],
      [
       71.89815,
       20.14396
      ],
      [
       71.90102,
       20.14378
      ],
      [
       71.90183,
       20.14405
      ],
      [
       71.90363,
       20.14369
      ],
      [
       71.90416,
       20.14315
      ],
      [
       71.9039,
       20.14414
      ],
      [
       71.90542,
       20.14477
      ],
      [
       71.90614,
       20.14459
      ],
      [
       71.90641,
       20.14432
      ],
      [
       71.90632,
       20.14387
      ],
      [
       71.90722,
       20.14351
      ],
      [
       71.90722,
       20.14315
      ],
      [
       71.90659,
       20.1427
      ],
      [
       71.90695,
       20.14252
      ],
      [
       71.90794,
       20.14405
      ],
      [
       71.90991,
       20.14441
      ],
      [
       71.90982,
       20.14512
      ],
      [
       71.91117,
       20.14611
      ],
      [
       71.91054,
       20.14656
      ],
      [
       71.91081,
       20.14773
      ],
      [
       71.91135,
       20.14809
      ],
      [
       71.91198,
       20.14755
      ],
      [
       71.91261,
       20.14836
      ],
      [
       71.91306,
       20.14845
      ],
      [
       71.91243,
       20.1498
      ],
      [
       71.91405,
       20.15141
      ],
      [
       71.9153,
       20.15222
      ],
      [
       71.9162,
       20.15177
      ],
      [
       71.91719,
       20.15177
      ],
      [
       71.91746,
       20.1533
      ],
      [
       71.91692,
       20.15393
      ],
      [
       71.91638,
       20.15393
      ],
      [
       71.91584,
       20.15483
      ],
      [
       71.91584,
       20.15393
      ],
      [
       71.91503,
       20.15348
      ],
      [
       71.91467,
       20.15366
      ],
      [
       71.91494,
       20.15285
      ],
      [
       71.91423,
       20.15231
      ],
      [
       71.91333,
       20.15249
      ],
      [
       71.91333,
       20.15177
      ],
      [
       71.91126,
       20.15024
      ],
      [
       71.91,
       20.1498
      ],
      [
       71.90946,
       20.15016
      ],
      [
       71.90946,
       20.15051
      ],
      [
       71.90893,
       20.15042
      ],
      [
       71.9083,
       20.15078
      ],
      [
       71.90839,
       20.15042
      ],
      [
       71.90875,
       20.15051
      ],
      [
       71.90946,
       20.15007
      ],
      [
       71.90946,
       20.14971
      ],
      [
       71.90893,
       20.14935
      ],
      [
       71.90857,
       20.14944
      ],
      [
       71.9083,
       20.1489
      ],
      [
       71.90749,
       20.14908
      ],
      [
       71.9065,
       20.14872
      ],
      [
       71.90578,
       20.14926
      ],
      [
       71.90551,
       20.14863
      ],
      [
       71.90461,
       20.14863
      ],
      [
       71.9047,
       20.14782
      ],
      [
       71.9039,
       20.14728
      ],
      [
       71.90291,
       20.14755
      ],
      [
       71.90192,
       20.14737
      ],
      [
       71.90165,
       20.148
      ],
      [
       71.90219,
       20.14845
      ],
      [
       71.90183,
       20.14836
      ],
      [
       71.90129,
       20.14872
      ],
      [
       71.90129,
       20.14926
      ],
      [
       71.90282,
       20.15042
      ],
      [
       71.90219,
       20.15114
      ],
      [
       71.9021,
       20.15195
      ],
      [
       71.90237,
       20.15258
      ],
      [
       71.90291,
       20.15267
      ],
      [
       71.90264,
       20.15339
      ],
      [
       71.90345,
       20.15384
      ],
      [
       71.90443,
       20.15393
      ],
      [
       71.90363,
       20.15438
      ],
      [
       71.90363,
       20.15474
      ],
      [
       71.90407,
       20.15501
      ],
      [
       71.90381,
       20.15599
      ],
      [
       71.90461,
       20.15653
      ],
      [
       71.90452,
       20.15707
      ],
      [
       71.90497,
       20.15761
      ],
      [
       71.90506,
       20.1595
      ],
      [
       71.90596,
       20.16076
      ],
      [
       71.90578,
       20.16147
      ],
      [
       71.90641,
       20.16327
      ],
      [
       71.90695,
       20.16363
      ],
      [
       71.9074,
       20.16354
      ],
      [
       71.90722,
       20.16444
      ],
      [
       71.90803,
       20.16534
      ],
      [
       71.90794,
       20.16588
      ],
      [
       71.90848,
       20.16695
      ],
      [
       71.90937,
       20.16785
      ],
      [
       71.91,
       20.16803
      ],
      [
       71.91054,
       20.16776
      ],
      [
       71.91099,
       20.16812
      ],
      [
       71.91009,
       20.16848
      ],
      [
       71.90982,
       20.16965
      ],
      [
       71.91027,
       20.16992
      ],
      [
       71.9109,
       20.17136
      ],
      [
       71.91198,
       20.17136
      ],
      [
       71.91171,
       20.17207
      ],
      [
       71.91225,
       20.17279
      ],
      [
       71.91234,
       20.17369
      ],
      [
       71.91306,
       20.17441
      ],
      [
       71.91396,
       20.17432
      ],
      [
       71.91333,
       20.17486
      ],
      [
       71.91333,
       20.17531
      ],
      [
       71.9145,
       20.17576
      ],
      [
       71.91441,
       20.1771
      ],
      [
       71.91476,
       20.17773
      ],
      [
       71.91566,
       20.17836
      ],
      [
       71.91593,
       20.17899
      ],
      [
       71.91629,
       20.17908
      ],
      [
       71.91692,
       20.17872
      ],
      [
       71.91674,
       20.18007
      ],
      [
       71.91764,
       20.18079
      ],
      [
       71.91764,
       20.18133
      ],
      [
       71.91881,
       20.18214
      ],
      [
       71.9189,
       20.18384
      ],
      [
       71.91935,
       20.18492
      ],
      [
       71.92006,
       20.18537
      ],
      [
       71.91998,
       20.186
      ],
      [
       71.92033,
       20.18663
      ],
      [
       71.92006,
       20.18744
      ],
      [
       71.92114,
       20.18905
      ],
      [
       71.9224,
       20.18932
      ],
      [
       71.92249,
       20.19148
      ],
      [
       71.92303,
       20.19184
      ],
      [
       71.92366,
       20.1913
      ],
      [
       71.92393,
       20.19148
      ],
      [
       71.92357,
       20.19193
      ],
      [
       71.92357,
       20.19247
      ],
      [
       71.92492,
       20.19381
      ],
      [
       71.92519,
       20.1948
      ],
      [
       71.92554,
       20.19516
      ],
      [
       71.92626,
       20.19516
      ],
      [
       71.92581,
       20.19615
      ],
      [
       71.92743,
       20.19687
      ],
      [
       71.92698,
       20.19723
      ],
      [
       71.92698,
       20.19768
      ],
      [
       71.92743,
       20.19813
      ],
      [
       71.92806,
       20.19804
      ],
      [
       71.92815,
       20.19866
      ],
      [
       71.92869,
       20.19911
      ],
      [
       71.92887,
       20.2001
      ],
      [
       71.92941,
       20.20055
      ],
      [
       71.92977,
       20.20307
      ]
     ]
    ]
   },
   "properties": {
    "id": "det-01",
    "classification": "oil",
    "confidence": 0.588,
    "area_km2": 3.119,
    "elongation": 3.35,
    "edge_gradient": 17.1309,
    "contrast_db": -4.05,
    "shape_class": "linear",
    "discharge_class": "unknown",
    "centroid": [
     71.90863,
     20.16469
    ],
    "ship_detections": [
     {
      "lon": 71.83555,
      "lat": 20.19082,
      "px_area": 15,
      "peak_db": 8.74
     }
    ],
    "vh_contrast_db": -0.317,
    "vh_mean_depth_db": 6.888,
    "solidity": 0.28,
    "mean_depth_db": 6.387
   }
  },
  {
   "type": "Feature",
   "geometry": {
    "type": "Polygon",
    "coordinates": [
     [
      [
       71.91117,
       20.21816
      ],
      [
       71.9109,
       20.21834
      ],
      [
       71.91072,
       20.21762
      ],
      [
       71.90991,
       20.21735
      ],
      [
       71.90929,
       20.21672
      ],
      [
       71.90866,
       20.21744
      ],
      [
       71.90776,
       20.21762
      ],
      [
       71.90794,
       20.21681
      ],
      [
       71.90857,
       20.21672
      ],
      [
       71.90884,
       20.21609
      ],
      [
       71.90767,
       20.21537
      ],
      [
       71.90686,
       20.21591
      ],
      [
       71.90623,
       20.21519
      ],
      [
       71.90713,
       20.21555
      ],
      [
       71.90776,
       20.21501
      ],
      [
       71.90821,
       20.21501
      ],
      [
       71.90848,
       20.21438
      ],
      [
       71.90767,
       20.21403
      ],
      [
       71.90857,
       20.21331
      ],
      [
       71.90911,
       20.21322
      ],
      [
       71.90893,
       20.21385
      ],
      [
       71.9092,
       20.21412
      ],
      [
       71.90866,
       20.21447
      ],
      [
       71.90893,
       20.21528
      ],
      [
       71.90875,
       20.21591
      ],
      [
       71.90991,
       20.21672
      ],
      [
       71.91117,
       20.21627
      ],
      [
       71.91144,
       20.21699
      ],
      [
       71.9109,
       20.21735
      ],
      [
       71.91117,
       20.21816
      ]
     ]
    ]
   },
   "properties": {
    "id": "det-02",
    "classification": "lookalike",
    "confidence": 0.468,
    "area_km2": 0.066,
    "elongation": 1.32,
    "edge_gradient": 15.3639,
    "contrast_db": -2.61,
    "shape_class": "blob",
    "discharge_class": "acute",
    "centroid": [
     71.90906,
     20.21598
    ],
    "ship_detections": [
     {
      "lon": 71.83555,
      "lat": 20.19082,
      "px_area": 15,
      "peak_db": 8.74
     }
    ],
    "vh_contrast_db": -0.928,
    "vh_mean_depth_db": 7.895,
    "solidity": 0.353,
    "mean_depth_db": 4.247
   }
  }
 ]
}