{"type": "FeatureCollection", "features": [{"type": "Feature", "geometry": {"type": "LineString", "coordinates": [[70.66, 20.76], [70.66, 20.76], [70.66, 20.76], [70.66, 20.76], [70.66, 20.76], [70.66, 20.76], [70.66, 20.76], [70.66, 20.76], [70.66, 20.76], [70.66, 20.76], [70.66, 20.76], [70.67, 20.73], [70.66, 20.72], [70.66, 20.72], [70.66, 20.72], [70.66, 20.72], [70.74, 20.66], [70.87, 20.61], [71.06, 20.55], [71.18, 20.5], [71.24, 20.48], [71.36, 20.44], [71.42, 20.41], [71.6, 20.36], [71.72, 20.32], [71.8, 20.3], [71.93, 20.27]]}, "properties": {"mmsi": "419012000", "name": "AMBUJA SHIKHAR", "vessel_type": "cargo", "n_points": 27, "n_points_full": 32, "max_gap_minutes": 120.0}}, {"type": "Feature", "geometry": {"type": "LineString", "coordinates": [[70.69, 20.41], [70.84, 20.46], [71.1, 20.51], [71.14, 20.52], [71.32, 20.56], [71.42, 20.71], [71.54, 20.83], [71.54, 20.83], [71.54, 20.83], [71.54, 20.82], [71.54, 20.82], [71.54, 20.82], [71.54, 20.82], [71.54, 20.83], [71.54, 20.83], [71.54, 20.83], [71.54, 20.83], [71.54, 20.83], [71.54, 20.83], [71.54, 20.82], [71.54, 20.82], [71.54, 20.82], [71.54, 20.82], [71.54, 20.82], [71.54, 20.82]]}, "properties": {"mmsi": "219216000", "name": "MAERSK BOSTON", "vessel_type": "cargo", "n_points": 25, "n_points_full": 30, "max_gap_minutes": 60.0}}, {"type": "Feature", "geometry": {"type": "LineString", "coordinates": [[71.92, 20.29], [71.8, 20.32], [71.58, 20.39], [71.57, 20.39], [71.41, 20.45], [71.22, 20.5], [71.03, 20.56], [71.03, 20.56], [70.8, 20.64], [70.69, 20.67], [70.66, 20.68]]}, "properties": {"mmsi": "419476000", "name": "AMBUJA SHAKTI", "vessel_type": "cargo", "n_points": 11, "n_points_full": 11, "max_gap_minutes": 60.0}}, {"type": "Feature", "geometry": {"type": "LineString", "coordinates": [[70.59, 20.71], [70.73, 20.66], [70.77, 20.64], [70.9, 20.59], [71.14, 20.51], [71.16, 20.5], [71.32, 20.46], [71.46, 20.41], [71.57, 20.37]]}, "properties": {"mmsi": "419475000", "name": "AMBUJA KEERTI", "vessel_type": "cargo", "n_points": 9, "n_points_full": 12, "max_gap_minutes": 60.0}}, {"type": "Feature", "geometry": {"type": "LineString", "coordinates": [[71.74, 20.3], [71.59, 20.35], [71.48, 20.4], [71.33, 20.46], [71.18, 20.52], [71.13, 20.53], [70.91, 20.59], [70.82, 20.62], [70.8, 20.63], [70.66, 20.72], [70.66, 20.72], [70.66, 20.72], [70.66, 20.72], [70.66, 20.72], [70.66, 20.72], [70.66, 20.72], [70.66, 20.72], [70.66, 20.72], [70.66, 20.72], [70.66, 20.72], [70.66, 20.72]]}, "properties": {"mmsi": "419014000", "name": "AMBUJA GAURAVA", "vessel_type": "cargo", "n_points": 21, "n_points_full": 26, "max_gap_minutes": 60.0}}, {"type": "Feature", "geometry": {"type": "LineString", "coordinates": [[70.55, 20.74], [70.61, 20.72], [70.67, 20.69], [70.72, 20.67], [70.82, 20.62], [70.87, 20.6], [70.93, 20.57], [71.0, 20.55], [71.1, 20.51], [71.18, 20.48], [71.26, 20.45], [71.3, 20.44], [71.36, 20.41], [71.45, 20.36], [71.53, 20.32], [71.6, 20.27], [71.63, 20.23], [71.69, 20.19], [71.77, 20.14], [71.85, 20.1], [71.89, 20.1]]}, "properties": {"mmsi": "419427000", "name": "M V MM FAIR", "vessel_type": "other", "n_points": 21, "n_points_full": 21, "max_gap_minutes": 60.0}}, {"type": "Feature", "geometry": {"type": "LineString", "coordinates": [[71.51, 20.92], [71.51, 20.92], [71.51, 20.92], [71.51, 20.92], [71.51, 20.92], [71.51, 20.92], [71.51, 20.92], [71.46, 20.83], [71.33, 20.73], [71.04, 20.51], [70.86, 20.46], [70.67, 20.49]]}, "properties": {"mmsi": "538005624", "name": "WIDE ALPHA", "vessel_type": "cargo", "n_points": 12, "n_points_full": 17, "max_gap_minutes": 60.0}}, {"type": "Feature", "geometry": {"type": "LineString", "coordinates": [[70.64, 20.51], [70.69, 20.5], [71.0, 20.51], [71.19, 20.58], [71.33, 20.68], [71.41, 20.76], [71.51, 20.91], [71.51, 20.92], [71.51, 20.92], [71.51, 20.92], [71.51, 20.92], [71.51, 20.92], [71.51, 20.92], [71.51, 20.92], [71.51, 20.92], [71.51, 20.92], [71.51, 20.92], [71.51, 20.92], [71.5, 20.91], [71.47, 20.8], [71.41, 20.71], [71.21, 20.48], [71.05, 20.26]]}, "properties": {"mmsi": "432664000", "name": "RHEA LEADER", "vessel_type": "cargo", "n_points": 23, "n_points_full": 23, "max_gap_minutes": 120.0}}, {"type": "Feature", "geometry": {"type": "LineString", "coordinates": [[71.59, 20.34], [71.59, 20.37], [71.56, 20.55], [71.57, 20.56], [71.57, 20.59], [71.53, 20.76], [71.5, 20.87], [71.5, 20.91], [71.51, 20.92], [71.51, 20.92], [71.51, 20.92], [71.51, 20.92], [71.51, 20.92], [71.51, 20.92], [71.51, 20.92], [71.51, 20.92], [71.51, 20.92], [71.51, 20.92], [71.51, 20.92], [71.51, 20.92], [71.51, 20.92], [71.51, 20.92], [71.51, 20.92], [71.51, 20.92], [71.51, 20.92], [71.51, 20.92], [71.5, 20.9], [71.46, 20.71], [71.35, 20.67], [71.25, 20.62], [71.08, 20.54], [70.81, 20.43], [70.68, 20.39], [70.66, 20.4]]}, "properties": {"mmsi": "636014222", "name": "ROTTERDAM", "vessel_type": "cargo", "n_points": 34, "n_points_full": 36, "max_gap_minutes": 60.0}}, {"type": "Feature", "geometry": {"type": "LineString", "coordinates": [[71.59, 20.71], [71.36, 20.43], [71.32, 20.35], [71.11, 20.17], [70.75, 20.19], [70.73, 20.2]]}, "properties": {"mmsi": "352001705", "name": "BOW CHEETAH", "vessel_type": "other", "n_points": 6, "n_points_full": 7, "max_gap_minutes": 60.0}}, {"type": "Feature", "geometry": {"type": "LineString", "coordinates": [[71.36, 20.06], [71.34, 20.36], [71.37, 20.51], [71.44, 20.64], [71.43, 20.63], [71.42, 20.62], [71.41, 20.62], [71.4, 20.63], [71.44, 20.66], [71.5, 20.78], [71.49, 20.8], [71.5, 20.9], [71.51, 20.92], [71.51, 20.92], [71.51, 20.92], [71.51, 20.92], [71.51, 20.92], [71.51, 20.92], [71.51, 20.92], [71.51, 20.92], [71.51, 20.92], [71.51, 20.92], [71.51, 20.92], [71.51, 20.92], [71.51, 20.92], [71.49, 20.87], [71.35, 20.67], [71.1, 20.55], [70.83, 20.49], [70.79, 20.5]]}, "properties": {"mmsi": "636019673", "name": "GSL NICOLETTA", "vessel_type": "cargo", "n_points": 30, "n_points_full": 30, "max_gap_minutes": 60.0}}, {"type": "Feature", "geometry": {"type": "LineString", "coordinates": [[71.66, 20.49], [71.64, 20.48], [71.52, 20.47], [71.48, 20.47], [71.4, 20.48], [71.35, 20.49], [71.34, 20.49], [71.27, 20.52], [71.21, 20.53], [71.16, 20.54], [71.07, 20.55], [70.96, 20.56], [70.86, 20.59], [70.79, 20.58]]}, "properties": {"mmsi": "419001055", "name": "SAVYA", "vessel_type": "other", "n_points": 14, "n_points_full": 15, "max_gap_minutes": 120.0}}, {"type": "Feature", "geometry": {"type": "LineString", "coordinates": [[70.67, 20.73], [70.67, 20.73], [70.67, 20.73], [70.67, 20.73], [70.67, 20.73], [70.67, 20.73], [70.67, 20.73], [70.67, 20.73], [70.67, 20.73], [70.67, 20.73], [70.67, 20.73], [70.67, 20.73], [70.67, 20.73], [70.67, 20.73], [70.66, 20.73], [70.66, 20.73], [70.67, 20.73], [70.67, 20.73], [70.66, 20.76], [70.66, 20.76], [70.66, 20.76], [70.66, 20.76], [70.66, 20.76], [70.66, 20.76], [70.66, 20.76], [70.66, 20.76], [70.66, 20.76], [70.66, 20.76], [70.66, 20.76], [70.66, 20.76], [70.66, 20.76], [70.66, 20.76], [70.66, 20.76], [70.67, 20.73], [70.67, 20.73], [70.75, 20.64], [70.93, 20.57], [70.94, 20.57], [71.09, 20.5], [71.3, 20.37], [71.42, 20.29], [71.44, 20.27], [71.6, 20.15], [71.73, 20.03], [71.75, 20.02]]}, "properties": {"mmsi": "419067900", "name": "AMBUJA LAKSHMI", "vessel_type": "cargo", "n_points": 45, "n_points_full": 50, "max_gap_minutes": 120.0}}, {"type": "Feature", "geometry": {"type": "LineString", "coordinates": [[71.52, 20.92], [71.5, 20.89], [71.21, 20.62], [71.02, 20.52], [70.7, 20.51], [70.69, 20.51]]}, "properties": {"mmsi": "419001669", "name": "BW OAK", "vessel_type": "other", "n_points": 6, "n_points_full": 11, "max_gap_minutes": 60.0}}, {"type": "Feature", "geometry": {"type": "LineString", "coordinates": [[71.88, 20.31], [71.69, 20.38], [71.59, 20.41], [71.44, 20.48], [71.25, 20.56], [71.23, 20.57], [71.03, 20.59], [70.9, 20.61], [70.7, 20.68], [70.66, 20.76], [70.66, 20.76], [70.66, 20.76], [70.66, 20.76], [70.66, 20.76], [70.66, 20.76], [70.66, 20.76], [70.66, 20.76], [70.66, 20.76], [70.66, 20.76], [70.66, 20.76], [70.66, 20.76], [70.66, 20.76], [70.66, 20.76]]}, "properties": {"mmsi": "419013000", "name": "AMBUJA VAIBHAVA", "vessel_type": "cargo", "n_points": 23, "n_points_full": 26, "max_gap_minutes": 1500.0}}, {"type": "Feature", "geometry": {"type": "LineString", "coordinates": [[71.76, 20.55], [71.52, 20.55], [71.25, 20.55], [70.98, 20.56]]}, "properties": {"mmsi": "215718000", "name": "RAAHI", "vessel_type": "other", "n_points": 4, "n_points_full": 4, "max_gap_minutes": 60.0}}, {"type": "Feature", "geometry": {"type": "LineString", "coordinates": [[71.0, 19.98], [71.1, 20.15], [71.22, 20.35], [71.42, 20.4], [71.43, 20.39], [71.45, 20.39], [71.52, 20.41], [71.53, 20.41], [71.61, 20.43], [71.62, 20.44], [71.68, 20.44], [71.69, 20.44], [71.7, 20.4], [71.65, 20.49], [71.63, 20.52], [71.53, 20.7], [71.5, 20.9]]}, "properties": {"mmsi": "372747000", "name": "CYGNUS LEADER", "vessel_type": "cargo", "n_points": 17, "n_points_full": 22, "max_gap_minutes": 60.0}}, {"type": "Feature", "geometry": {"type": "LineString", "coordinates": [[71.81, 20.93], [71.67, 20.84], [71.55, 20.67], [71.54, 20.66], [71.51, 20.32], [71.51, 20.3], [71.52, 20.09]]}, "properties": {"mmsi": "636020958", "name": "HOPE 1", "vessel_type": "cargo", "n_points": 7, "n_points_full": 7, "max_gap_minutes": 60.0}}, {"type": "Feature", "geometry": {"type": "LineString", "coordinates": [[71.94, 20.62], [71.85, 20.59], [71.48, 20.39], [71.12, 20.12], [71.08, 20.09]]}, "properties": {"mmsi": "241289000", "name": "MARAN GAS SPARTA", "vessel_type": "other", "n_points": 5, "n_points_full": 5, "max_gap_minutes": 60.0}}, {"type": "Feature", "geometry": {"type": "LineString", "coordinates": [[71.73, 20.49], [71.36, 20.34], [71.28, 20.3], [71.12, 20.12]]}, "properties": {"mmsi": "636021030", "name": "MU LAN", "vessel_type": "other", "n_points": 4, "n_points_full": 4, "max_gap_minutes": 60.0}}, {"type": "Feature", "geometry": {"type": "LineString", "coordinates": [[71.76, 20.01], [71.66, 20.01], [71.51, 20.06], [71.52, 20.09], [71.52, 20.23], [71.52, 20.33], [71.52, 20.56], [71.51, 20.58], [71.51, 20.71], [71.52, 20.71], [71.5, 20.84], [71.5, 20.89], [71.52, 20.92], [71.52, 20.92], [71.52, 20.92], [71.52, 20.92], [71.52, 20.92], [71.52, 20.92], [71.52, 20.92], [71.52, 20.92], [71.52, 20.92], [71.52, 20.92], [71.52, 20.92], [71.52, 20.92], [71.52, 20.92]]}, "properties": {"mmsi": "511100268", "name": "ARIHANT", "vessel_type": "other", "n_points": 25, "n_points_full": 30, "max_gap_minutes": 60.0}}]}