{"type": "FeatureCollection", "features": [{"type": "Feature", "geometry": {"type": "Polygon", "coordinates": [[[-94.36162, 29.11634], [-94.36316, 29.11691], [-94.36482, 29.11886], [-94.36655, 29.12214], [-94.36834, 29.1267], [-94.37015, 29.13246], [-94.37196, 29.13932], [-94.37373, 29.14716], [-94.37542, 29.15586], [-94.37702, 29.16526], [-94.3785, 29.1752], [-94.37982, 29.18551], [-94.38097, 29.19602], [-94.38193, 29.20654], [-94.38268, 29.21689], [-94.3832, 29.2269], [-94.3835, 29.2364], [-94.38355, 29.24522], [-94.38338, 29.25322], [-94.38296, 29.26025], [-94.38232, 29.2662], [-94.38147, 29.27096], [-94.38041, 29.27445], [-94.37917, 29.27662], [-94.37777, 29.27742], [-94.37622, 29.27684], [-94.37457, 29.2749], [-94.37284, 29.27162], [-94.37105, 29.26706], [-94.36923, 29.2613], [-94.36743, 29.25444], [-94.36566, 29.24659], [-94.36396, 29.23789], [-94.36236, 29.22849], [-94.36089, 29.21855], [-94.35957, 29.20824], [-94.35842, 29.19774], [-94.35746, 29.18722], [-94.35671, 29.17686], [-94.35619, 29.16685], [-94.35589, 29.15735], [-94.35583, 29.14853], [-94.35601, 29.14053], [-94.35643, 29.1335], [-94.35706, 29.12756], [-94.35792, 29.1228], [-94.35898, 29.1193], [-94.36022, 29.11714], [-94.36162, 29.11634]]]}, "properties": {"id": "det-01", "classification": "oil", "confidence": 0.87, "area_km2": 31.1, "elongation": 8.2, "edge_gradient": 0.34, "contrast_db": -6.2, "shape_class": "linear", "discharge_class": "chronic", "ship_detections": [], "centroid": [-94.36969, 29.19688]}}]}