{
 "type": "FeatureCollection",
 "features": [
  {
   "type": "Feature",
   "geometry": {
    "type": "MultiPolygon",
    "coordinates": [
     [
      [
       [
        -123.93682,
        37.86295
       ],
       [
        -123.93614,
        37.86295
       ],
       [
        -123.93614,
        37.86227
       ],
       [
        -123.93545,
        37.86227
       ],
       [
        -123.93545,
        37.86158
       ],
       [
        -123.93476,
        37.86158
       ],
       [
        -123.93476,
        37.86089
       ],
       [
        -123.93408,
        37.86089
       ],
       [
        -123.93408,
        37.86158
       ],
       [
        -123.9327,
        37.86158
       ],
       [
        -123.9327,
        37.86089
       ],
       [
        -123.93339,
        37.86089
       ],
       [
        -123.93339,
        37.85952
       ],
       [
        -123.9327,
        37.85952
       ],
       [
        -123.9327,
        37.85883
       ],
       [
        -123.93202,
        37.85883
       ],
       [
        -123.93202,
        37.85815
       ],
       [
        -123.93133,
        37.85815
       ],
       [
        -123.93133,
        37.85746
       ],
       [
        -123.93064,
        37.85746
       ],
       [
        -123.93064,
        37.85609
       ],
       [
        -123.92927,
        37.85609
       ],
       [
        -123.92927,
        37.85471
       ],
       [
        -123.92858,
        37.85471
       ],
       [
        -123.92858,
        37.85403
       ],
       [
        -123.9279,
        37.85403
       ],
       [
        -123.9279,
        37.85334
       ],
       [
        -123.92652,
        37.85334
       ],
       [
        -123.92652,
        37.85265
       ],
       [
        -123.92584,
        37.85265
       ],
       [
        -123.92584,
        37.85196
       ],
       [
        -123.92446,
        37.85196
       ],
       [
        -123.92446,
        37.85059
       ],
       [
        -123.92378,
        37.85059
       ],
       [
        -123.92378,
        37.84922
       ],
       [
        -123.92309,
        37.84922
       ],
       [
        -123.92309,
        37.84853
       ],
       [
        -123.9224,
        37.84853
       ],
       [
        -123.9224,
        37.84784
       ],
       [
        -123.92172,
        37.84784
       ],
       [
        -123.92172,
        37.84716
       ],
       [
        -123.92103,
        37.84716
       ],
       [
        -123.92103,
        37.84647
       ],
       [
        -123.92034,
        37.84647
       ],
       [
        -123.92034,
        37.84579
       ],
       [
        -123.91966,
        37.84579
       ],
       [
        -123.91966,
        37.8451
       ],
       [
        -123.91897,
        37.8451
       ],
       [
        -123.91897,
        37.84441
       ],
       [
        -123.91828,
        37.84441
       ],
       [
        -123.91828,
        37.84373
       ],
       [
        -123.91691,
        37.84373
       ],
       [
        -123.91691,
        37.84235
       ],
       [
        -123.91622,
        37.84235
       ],
       [
        -123.91622,
        37.84167
       ],
       [
        -123.91554,
        37.84167
       ],
       [
        -123.91554,
        37.84098
       ],
       [
        -123.91485,
        37.84098
       ],
       [
        -123.91485,
        37.84029
       ],
       [
        -123.91416,
        37.84029
       ],
       [
        -123.91416,
        37.83961
       ],
       [
        -123.91348,
        37.83961
       ],
       [
        -123.91348,
        37.83823
       ],
       [
        -123.9121,
        37.83823
       ],
       [
        -123.9121,
        37.83686
       ],
       [
        -123.91142,
        37.83686
       ],
       [
        -123.91142,
        37.83617
       ],
       [
        -123.91004,
        37.83617
       ],
       [
        -123.91004,
        37.83549
       ],
       [
        -123.90936,
        37.83549
       ],
       [
        -123.90936,
        37.8348
       ],
       [
        -123.90867,
        37.8348
       ],
       [
        -123.90867,
        37.83411
       ],
       [
        -123.90798,
        37.83411
       ],
       [
        -123.90798,
        37.83274
       ],
       [
        -123.9073,
        37.83274
       ],
       [
        -123.9073,
        37.83137
       ],
       [
        -123.90661,
        37.83137
       ],
       [
        -123.90661,
        37.83068
       ],
       [
        -123.90592,
        37.83068
       ],
       [
        -123.90592,
        37.82999
       ],
       [
        -123.90386,
        37.82999
       ],
       [
        -123.90386,
        37.82793
       ],
       [
        -123.90318,
        37.82793
       ],
       [
        -123.90318,
        37.82725
       ],
       [
        -123.9018,
        37.82725
       ],
       [
        -123.9018,
        37.82656
       ],
       [
        -123.90112,
        37.82656
       ],
       [
        -123.90112,
        37.82587
       ],
       [
        -123.90043,
        37.82587
       ],
       [
        -123.90043,
        37.8245
       ],
       [
        -123.89974,
        37.8245
       ],
       [
        -123.89974,
        37.82381
       ],
       [
        -123.89906,
        37.82381
       ],
       [
        -123.89906,
        37.82313
       ],
       [
        -123.89768,
        37.82313
       ],
       [
        -123.89768,
        37.82244
       ],
       [
        -123.897,
        37.82244
       ],
       [
        -123.897,
        37.82175
       ],
       [
        -123.89562,
        37.82175
       ],
       [
        -123.89562,
        37.81969
       ],
       [
        -123.89494,
        37.81969
       ],
       [
        -123.89494,
        37.81832
       ],
       [
        -123.89288,
        37.81832
       ],
       [
        -123.89288,
        37.81763
       ],
       [
        -123.89219,
        37.81763
       ],
       [
        -123.89219,
        37.81626
       ],
       [
        -123.8915,
        37.81626
       ],
       [
        -123.8915,
        37.81557
       ],
       [
        -123.89082,
        37.81557
       ],
       [
        -123.89082,
        37.81489
       ],
       [
        -123.89013,
        37.81489
       ],
       [
        -123.89013,
        37.81351
       ],
       [
        -123.88944,
        37.81351
       ],
       [
        -123.88944,
        37.81283
       ],
       [
        -123.88876,
        37.81283
       ],
       [
        -123.88876,
        37.81214
       ],
       [
        -123.88738,
        37.81214
       ],
       [
        -123.88738,
        37.81077
       ],
       [
        -123.88601,
        37.81077
       ],
       [
        -123.88601,
        37.81008
       ],
       [
        -123.88532,
        37.81008
       ],
       [
        -123.88532,
        37.80871
       ],
       [
        -123.88464,
        37.80871
       ],
       [
        -123.88464,
        37.80802
       ],
       [
        -123.88326,
        37.80802
       ],
       [
        -123.88326,
        37.80733
       ],
       [
        -123.88258,
        37.80733
       ],
       [
        -123.88258,
        37.80527
       ],
       [
        -123.8812,
        37.80527
       ],
       [
        -123.8812,
        37.80459
       ],
       [
        -123.88052,
        37.80459
       ],
       [
        -123.88052,
        37.8039
       ],
       [
        -123.87983,
        37.8039
       ],
       [
        -123.87983,
        37.80321
       ],
       [
        -123.87846,
        37.80321
       ],
       [
        -123.87846,
        37.80115
       ],
       [
        -123.87777,
        37.80115
       ],
       [
        -123.87777,
        37.80047
       ],
       [
        -123.8764,
        37.80047
       ],
       [
        -123.8764,
        37.79909
       ],
       [
        -123.87502,
        37.79909
       ],
       [
        -123.87502,
        37.79772
       ],
       [
        -123.87434,
        37.79772
       ],
       [
        -123.87434,
        37.79703
       ],
       [
        -123.87365,
        37.79703
       ],
       [
        -123.87365,
        37.79566
       ],
       [
        -123.87228,
        37.79566
       ],
       [
        -123.87228,
        37.79429
       ],
       [
        -123.87159,
        37.79429
       ],
       [
        -123.87159,
        37.7936
       ],
       [
        -123.87022,
        37.7936
       ],
       [
        -123.87022,
        37.79291
       ],
       [
        -123.86953,
        37.79291
       ],
       [
        -123.86953,
        37.79085
       ],
       [
        -123.86884,
        37.79085
       ],
       [
        -123.86884,
        37.79017
       ],
       [
        -123.86816,
        37.79017
       ],
       [
        -123.86816,
        37.78948
       ],
       [
        -123.86747,
        37.78948
       ],
       [
        -123.86747,
        37.78811
       ],
       [
        -123.8661,
        37.78811
       ],
       [
        -123.8661,
        37.78742
       ],
       [
        -123.86541,
        37.78742
       ],
       [
        -123.86541,
        37.78605
       ],
       [
        -123.86473,
        37.78605
       ],
       [
        -123.86473,
        37.78536
       ],
       [
        -123.86404,
        37.78536
       ],
       [
        -123.86404,
        37.78467
       ],
       [
        -123.86335,
        37.78467
       ],
       [
        -123.86335,
        37.78399
       ],
       [
        -123.86267,
        37.78399
       ],
       [
        -123.86267,
        37.7833
       ],
       [
        -123.86198,
        37.7833
       ],
       [
        -123.86198,
        37.78193
       ],
       [
        -123.86061,
        37.78193
       ],
       [
        -123.86061,
        37.78055
       ],
       [
        -123.85923,
        37.78055
       ],
       [
        -123.85923,
        37.78124
       ],
       [
        -123.85855,
        37.78124
       ],
       [
        -123.85855,
        37.77849
       ],
       [
        -123.85717,
        37.77849
       ],
       [
        -123.85717,
        37.77712
       ],
       [
        -123.85649,
        37.77712
       ],
       [
        -123.85649,
        37.77643
       ],
       [
        -123.85511,
        37.77643
       ],
       [
        -123.85511,
        37.77506
       ],
       [
        -123.85443,
        37.77506
       ],
       [
        -123.85443,
        37.77369
       ],
       [
        -123.85305,
        37.77369
       ],
       [
        -123.85305,
        37.77231
       ],
       [
        -123.85237,
        37.77231
       ],
       [
        -123.85237,
        37.77163
       ],
       [
        -123.85168,
        37.77163
       ],
       [
        -123.85168,
        37.77094
       ],
       [
        -123.85099,
        37.77094
       ],
       [
        -123.85099,
        37.77025
       ],
       [
        -123.85031,
        37.77025
       ],
       [
        -123.85031,
        37.76888
       ],
       [
        -123.84962,
        37.76888
       ],
       [
        -123.84962,
        37.76819
       ],
       [
        -123.84893,
        37.76819
       ],
       [
        -123.84893,
        37.76682
       ],
       [
        -123.84825,
        37.76682
       ],
       [
        -123.84825,
        37.76613
       ],
       [
        -123.84687,
        37.76613
       ],
       [
        -123.84687,
        37.76545
       ],
       [
        -123.84619,
        37.76545
       ],
       [
        -123.84619,
        37.76476
       ],
       [
        -123.8455,
        37.76476
       ],
       [
        -123.8455,
        37.76339
       ],
       [
        -123.84413,
        37.76339
       ],
       [
        -123.84413,
        37.76201
       ],
       [
        -123.84275,
        37.76201
       ],
       [
        -123.84275,
        37.76133
       ],
       [
        -123.84207,
        37.76133
       ],
       [
        -123.84207,
        37.75995
       ],
       [
        -123.84138,
        37.75995
       ],
       [
        -123.84138,
        37.75858
       ],
       [
        -123.84069,
        37.75858
       ],
       [
        -123.84069,
        37.75789
       ],
       [
        -123.84001,
        37.75789
       ],
       [
        -123.84001,
        37.75652
       ],
       [
        -123.83863,
        37.75652
       ],
       [
        -123.83863,
        37.75583
       ],
       [
        -123.83795,
        37.75583
       ],
       [
        -123.83795,
        37.75515
       ],
       [
        -123.83657,
        37.75515
       ],
       [
        -123.83657,
        37.75446
       ],
       [
        -123.83589,
        37.75446
       ],
       [
        -123.83589,
        37.75309
       ],
       [
        -123.8352,
        37.75309
       ],
       [
        -123.8352,
        37.7524
       ],
       [
        -123.83383,
        37.7524
       ],
       [
        -123.83383,
        37.75103
       ],
       [
        -123.83245,
        37.75103
       ],
       [
        -123.83245,
        37.74965
       ],
       [
        -123.83108,
        37.74965
       ],
       [
        -123.83108,
        37.74897
       ],
       [
        -123.83039,
        37.74897
       ],
       [
        -123.83039,
        37.74759
       ],
       [
        -123.82971,
        37.74759
       ],
       [
        -123.82971,
        37.74691
       ],
       [
        -123.82902,
        37.74691
       ],
       [
        -123.82902,
        37.74622
       ],
       [
        -123.82833,
        37.74622
       ],
       [
        -123.82833,
        37.74553
       ],
       [
        -123.82696,
        37.74553
       ],
       [
        -123.82696,
        37.74347
       ],
       [
        -123.82559,
        37.74347
       ],
       [
        -123.82559,
        37.74279
       ],
       [
        -123.8249,
        37.74279
       ],
       [
        -123.8249,
        37.7421
       ],
       [
        -123.82421,
        37.7421
       ],
       [
        -123.82421,
        37.74073
       ],
       [
        -123.82284,
        37.74073
       ],
       [
        -123.82284,
        37.73936
       ],
       [
        -123.82215,
        37.73936
       ],
       [
        -123.82215,
        37.73798
       ],
       [
        -123.82147,
        37.73798
       ],
       [
        -123.82147,
        37.7373
       ],
       [
        -123.82215,
        37.7373
       ],
       [
        -123.82215,
        37.73592
       ],
       [
        -123.82353,
        37.73592
       ],
       [
        -123.82353,
        37.73661
       ],
       [
        -123.8249,
        37.73661
       ],
       [
        -123.8249,
        37.73798
       ],
       [
        -123.82559,
        37.73798
       ],
       [
        -123.82559,
        37.73867
       ],
       [
        -123.82627,
        37.73867
       ],
       [
        -123.82627,
        37.73936
       ],
       [
        -123.82696,
        37.73936
       ],
       [
        -123.82696,
        37.74004
       ],
       [
        -123.82765,
        37.74004
       ],
       [
        -123.82765,
        37.74073
       ],
       [
        -123.82833,
        37.74073
       ],
       [
        -123.82833,
        37.74142
       ],
       [
        -123.82902,
        37.74142
       ],
       [
        -123.82902,
        37.7421
       ],
       [
        -123.82971,
        37.7421
       ],
       [
        -123.82971,
        37.74279
       ],
       [
        -123.83039,
        37.74279
       ],
       [
        -123.83039,
        37.74347
       ],
       [
        -123.83108,
        37.74347
       ],
       [
        -123.83108,
        37.74485
       ],
       [
        -123.83177,
        37.74485
       ],
       [
        -123.83177,
        37.74553
       ],
       [
        -123.83245,
        37.74553
       ],
       [
        -123.83245,
        37.74622
       ],
       [
        -123.83314,
        37.74622
       ],
       [
        -123.83314,
        37.74759
       ],
       [
        -123.83451,
        37.74759
       ],
       [
        -123.83451,
        37.74828
       ],
       [
        -123.8352,
        37.74828
       ],
       [
        -123.8352,
        37.74897
       ],
       [
        -123.83589,
        37.74897
       ],
       [
        -123.83589,
        37.75171
       ],
       [
        -123.83726,
        37.75171
       ],
       [
        -123.83726,
        37.7524
       ],
       [
        -123.83795,
        37.7524
       ],
       [
        -123.83795,
        37.75377
       ],
       [
        -123.83863,
        37.75377
       ],
       [
        -123.83863,
        37.75446
       ],
       [
        -123.84001,
        37.75446
       ],
       [
        -123.84001,
        37.75515
       ],
       [
        -123.84069,
        37.75515
       ],
       [
        -123.84069,
        37.75652
       ],
       [
        -123.84275,
        37.75652
       ],
       [
        -123.84275,
        37.75721
       ],
       [
        -123.84413,
        37.75721
       ],
       [
        -123.84413,
        37.75789
       ],
       [
        -123.84481,
        37.75789
       ],
       [
        -123.84481,
        37.75927
       ],
       [
        -123.84619,
        37.75927
       ],
       [
        -123.84619,
        37.76133
       ],
       [
        -123.84687,
        37.76133
       ],
       [
        -123.84687,
        37.76201
       ],
       [
        -123.84825,
        37.76201
       ],
       [
        -123.84825,
        37.76339
       ],
       [
        -123.84893,
        37.76339
       ],
       [
        -123.84893,
        37.76407
       ],
       [
        -123.84962,
        37.76407
       ],
       [
        -123.84962,
        37.76545
       ],
       [
        -123.85099,
        37.76545
       ],
       [
        -123.85099,
        37.76682
       ],
       [
        -123.85168,
        37.76682
       ],
       [
        -123.85168,
        37.76751
       ],
       [
        -123.85237,
        37.76751
       ],
       [
        -123.85237,
        37.76888
       ],
       [
        -123.85374,
        37.76888
       ],
       [
        -123.85374,
        37.76957
       ],
       [
        -123.85443,
        37.76957
       ],
       [
        -123.85443,
        37.77094
       ],
       [
        -123.85511,
        37.77094
       ],
       [
        -123.85511,
        37.77163
       ],
       [
        -123.8558,
        37.77163
       ],
       [
        -123.8558,
        37.77231
       ],
       [
        -123.85649,
        37.77231
       ],
       [
        -123.85649,
        37.773
       ],
       [
        -123.85717,
        37.773
       ],
       [
        -123.85717,
        37.77369
       ],
       [
        -123.85786,
        37.77369
       ],
       [
        -123.85786,
        37.77506
       ],
       [
        -123.85855,
        37.77506
       ],
       [
        -123.85855,
        37.77575
       ],
       [
        -123.85923,
        37.77575
       ],
       [
        -123.85923,
        37.77643
       ],
       [
        -123.86061,
        37.77643
       ],
       [
        -123.86061,
        37.77849
       ],
       [
        -123.86198,
        37.77849
       ],
       [
        -123.86198,
        37.78055
       ],
       [
        -123.86335,
        37.78055
       ],
       [
        -123.86335,
        37.78124
       ],
       [
        -123.86473,
        37.78124
       ],
       [
        -123.86473,
        37.78193
       ],
       [
        -123.86541,
        37.78193
       ],
       [
        -123.86541,
        37.7833
       ],
       [
        -123.86678,
        37.7833
       ],
       [
        -123.86678,
        37.78399
       ],
       [
        -123.86747,
        37.78399
       ],
       [
        -123.86747,
        37.78536
       ],
       [
        -123.86816,
        37.78536
       ],
       [
        -123.86816,
        37.78605
       ],
       [
        -123.86953,
        37.78605
       ],
       [
        -123.86953,
        37.78742
       ],
       [
        -123.87022,
        37.78742
       ],
       [
        -123.87022,
        37.78879
       ],
       [
        -123.8709,
        37.78879
       ],
       [
        -123.8709,
        37.78948
       ],
       [
        -123.87159,
        37.78948
       ],
       [
        -123.87159,
        37.79085
       ],
       [
        -123.87228,
        37.79085
       ],
       [
        -123.87228,
        37.79154
       ],
       [
        -123.87296,
        37.79154
       ],
       [
        -123.87296,
        37.79223
       ],
       [
        -123.87365,
        37.79223
       ],
       [
        -123.87365,
        37.79291
       ],
       [
        -123.87434,
        37.79291
       ],
       [
        -123.87434,
        37.79429
       ],
       [
        -123.87571,
        37.79429
       ],
       [
        -123.87571,
        37.79497
       ],
       [
        -123.8764,
        37.79497
       ],
       [
        -123.8764,
        37.79635
       ],
       [
        -123.87708,
        37.79635
       ],
       [
        -123.87708,
        37.79703
       ],
       [
        -123.87777,
        37.79703
       ],
       [
        -123.87777,
        37.79772
       ],
       [
        -123.87914,
        37.79772
       ],
       [
        -123.87914,
        37.79841
       ],
       [
        -123.87846,
        37.79841
       ],
       [
        -123.87846,
        37.79909
       ],
       [
        -123.87983,
        37.79909
       ],
       [
        -123.87983,
        37.80047
       ],
       [
        -123.88052,
        37.80047
       ],
       [
        -123.88052,
        37.80115
       ],
       [
        -123.8812,
        37.80115
       ],
       [
        -123.8812,
        37.80253
       ],
       [
        -123.88189,
        37.80253
       ],
       [
        -123.88189,
        37.80321
       ],
       [
        -123.88258,
        37.80321
       ],
       [
        -123.88258,
        37.8039
       ],
       [
        -123.88326,
        37.8039
       ],
       [
        -123.88326,
        37.80459
       ],
       [
        -123.88464,
        37.80459
       ],
       [
        -123.88464,
        37.80596
       ],
       [
        -123.88601,
        37.80596
       ],
       [
        -123.88601,
        37.80665
       ],
       [
        -123.88738,
        37.80665
       ],
       [
        -123.88738,
        37.80802
       ],
       [
        -123.88807,
        37.80802
       ],
       [
        -123.88807,
        37.80871
       ],
       [
        -123.88876,
        37.80871
       ],
       [
        -123.88876,
        37.81008
       ],
       [
        -123.88944,
        37.81008
       ],
       [
        -123.88944,
        37.81077
       ],
       [
        -123.89082,
        37.81077
       ],
       [
        -123.89082,
        37.81283
       ],
       [
        -123.8915,
        37.81283
       ],
       [
        -123.8915,
        37.81489
       ],
       [
        -123.89356,
        37.81489
       ],
       [
        -123.89356,
        37.81626
       ],
       [
        -123.89494,
        37.81626
       ],
       [
        -123.89494,
        37.81763
       ],
       [
        -123.89631,
        37.81763
       ],
       [
        -123.89631,
        37.81901
       ],
       [
        -123.897,
        37.81901
       ],
       [
        -123.897,
        37.81969
       ],
       [
        -123.89768,
        37.81969
       ],
       [
        -123.89768,
        37.82038
       ],
       [
        -123.89837,
        37.82038
       ],
       [
        -123.89837,
        37.82107
       ],
       [
        -123.89906,
        37.82107
       ],
       [
        -123.89906,
        37.82175
       ],
       [
        -123.89974,
        37.82175
       ],
       [
        -123.89974,
        37.82313
       ],
       [
        -123.90112,
        37.82313
       ],
       [
        -123.90112,
        37.82381
       ],
       [
        -123.9018,
        37.82381
       ],
       [
        -123.9018,
        37.82519
       ],
       [
        -123.90249,
        37.82519
       ],
       [
        -123.90249,
        37.82587
       ],
       [
        -123.90318,
        37.82587
       ],
       [
        -123.90318,
        37.82656
       ],
       [
        -123.90386,
        37.82656
       ],
       [
        -123.90386,
        37.82725
       ],
       [
        -123.90524,
        37.82725
       ],
       [
        -123.90524,
        37.82793
       ],
       [
        -123.90592,
        37.82793
       ],
       [
        -123.90592,
        37.82862
       ],
       [
        -123.90661,
        37.82862
       ],
       [
        -123.90661,
        37.82931
       ],
       [
        -123.9073,
        37.82931
       ],
       [
        -123.9073,
        37.82999
       ],
       [
        -123.90798,
        37.82999
       ],
       [
        -123.90798,
        37.83068
       ],
       [
        -123.90867,
        37.83068
       ],
       [
        -123.90867,
        37.83137
       ],
       [
        -123.90936,
        37.83137
       ],
       [
        -123.90936,
        37.83274
       ],
       [
        -123.91073,
        37.83274
       ],
       [
        -123.91073,
        37.83343
       ],
       [
        -123.91142,
        37.83343
       ],
       [
        -123.91142,
        37.83411
       ],
       [
        -123.9121,
        37.83411
       ],
       [
        -123.9121,
        37.83549
       ],
       [
        -123.91279,
        37.83549
       ],
       [
        -123.91279,
        37.83617
       ],
       [
        -123.91348,
        37.83617
       ],
       [
        -123.91348,
        37.83686
       ],
       [
        -123.91485,
        37.83686
       ],
       [
        -123.91485,
        37.83823
       ],
       [
        -123.91691,
        37.83823
       ],
       [
        -123.91691,
        37.83961
       ],
       [
        -123.91828,
        37.83961
       ],
       [
        -123.91828,
        37.84029
       ],
       [
        -123.91897,
        37.84029
       ],
       [
        -123.91897,
        37.84235
       ],
       [
        -123.92034,
        37.84235
       ],
       [
        -123.92034,
        37.84304
       ],
       [
        -123.91966,
        37.84304
       ],
       [
        -123.91966,
        37.84373
       ],
       [
        -123.92034,
        37.84373
       ],
       [
        -123.92034,
        37.8451
       ],
       [
        -123.92172,
        37.8451
       ],
       [
        -123.92172,
        37.84579
       ],
       [
        -123.92309,
        37.84579
       ],
       [
        -123.92309,
        37.84716
       ],
       [
        -123.92378,
        37.84716
       ],
       [
        -123.92378,
        37.84784
       ],
       [
        -123.92446,
        37.84784
       ],
       [
        -123.92446,
        37.84853
       ],
       [
        -123.92515,
        37.84853
       ],
       [
        -123.92515,
        37.84922
       ],
       [
        -123.92584,
        37.84922
       ],
       [
        -123.92584,
        37.8499
       ],
       [
        -123.92652,
        37.8499
       ],
       [
        -123.92652,
        37.85059
       ],
       [
        -123.92721,
        37.85059
       ],
       [
        -123.92721,
        37.85128
       ],
       [
        -123.9279,
        37.85128
       ],
       [
        -123.9279,
        37.85196
       ],
       [
        -123.92927,
        37.85196
       ],
       [
        -123.92927,
        37.85334
       ],
       [
        -123.92996,
        37.85334
       ],
       [
        -123.92996,
        37.85471
       ],
       [
        -123.93064,
        37.85471
       ],
       [
        -123.93064,
        37.8554
       ],
       [
        -123.93133,
        37.8554
       ],
       [
        -123.93133,
        37.85609
       ],
       [
        -123.93202,
        37.85609
       ],
       [
        -123.93202,
        37.85677
       ],
       [
        -123.9327,
        37.85677
       ],
       [
        -123.9327,
        37.85815
       ],
       [
        -123.93408,
        37.85815
       ],
       [
        -123.93408,
        37.85883
       ],
       [
        -123.93476,
        37.85883
       ],
       [
        -123.93476,
        37.86021
       ],
       [
        -123.93545,
        37.86021
       ],
       [
        -123.93545,
        37.86089
       ],
       [
        -123.93614,
        37.86089
       ],
       [
        -123.93614,
        37.86158
       ],
       [
        -123.93682,
        37.86158
       ],
       [
        -123.93682,
        37.86295
       ]
      ]
     ],
     [
      [
       [
        -123.86953,
        37.7833
       ],
       [
        -123.86884,
        37.7833
       ],
       [
        -123.86884,
        37.78261
       ],
       [
        -123.86953,
        37.78261
       ],
       [
        -123.86953,
        37.7833
       ]
      ]
     ],
     [
      [
       [
        -123.87159,
        37.80253
       ],
       [
        -123.8709,
        37.80253
       ],
       [
        -123.8709,
        37.80184
       ],
       [
        -123.87159,
        37.80184
       ],
       [
        -123.87159,
        37.80253
       ]
      ]
     ],
     [
      [
       [
        -123.87296,
        37.79841
       ],
       [
        -123.87228,
        37.79841
       ],
       [
        -123.87228,
        37.79772
       ],
       [
        -123.87296,
        37.79772
       ],
       [
        -123.87296,
        37.79841
       ]
      ]
     ],
     [
      [
       [
        -123.98969,
        37.85196
       ],
       [
        -123.98901,
        37.85196
       ],
       [
        -123.98901,
        37.85128
       ],
       [
        -123.98969,
        37.85128
       ],
       [
        -123.98969,
        37.85196
       ]
      ]
     ],
     [
      [
       [
        -123.99107,
        37.85128
       ],
       [
        -123.99038,
        37.85128
       ],
       [
        -123.99038,
        37.85059
       ],
       [
        -123.99107,
        37.85059
       ],
       [
        -123.99107,
        37.85128
       ]
      ]
     ]
    ]
   },
   "properties": {
    "id": 3687325,
    "slick_timestamp": "2023-03-17T14:24:42",
    "s1_scene_id": "S1A_IW_GRDH_1SDV_20230317T142442_20230317T142507_047685_05BA4D_AFD8",
    "length": 19632.76682411,
    "area": 3853300.3265631795,
    "perimeter": 50551.70023211061,
    "machine_confidence": 0.9291113615036011,
    "polsby_popper": 0.01894834088772311,
    "fill_factor": 0.045809965948045754,
    "linearity": 5279.088814751254,
    "source": "SkyTruth Cerulean, public API (api.cerulean.skytruth.org)",
    "note": "Reference polygon from an operational detector. NOT ground truth and NOT a UDGAM detection \u2014 Cerulean state plainly that SAR alone cannot definitively identify oil. Source attribution deliberately omitted (Master Plan Part 16)."
   }
  },
  {
   "type": "Feature",
   "geometry": {
    "type": "LineString",
    "coordinates": [
     [
      -123.82241,
      37.73619
     ],
     [
      -123.82309,
      37.737
     ],
     [
      -123.82478,
      37.73986
     ],
     [
      -123.83183,
      37.74765
     ],
     [
      -123.83403,
      37.74986
     ],
     [
      -123.83759,
      37.75405
     ],
     [
      -123.84266,
      37.75848
     ],
     [
      -123.84743,
      37.76416
     ],
     [
      -123.84948,
      37.76633
     ],
     [
      -123.85481,
      37.77304
     ],
     [
      -123.86068,
      37.77989
     ],
     [
      -123.86654,
      37.78417
     ],
     [
      -123.86773,
      37.78657
     ],
     [
      -123.87368,
      37.79603
     ],
     [
      -123.87549,
      37.7999
     ],
     [
      -123.88569,
      37.80771
     ],
     [
      -123.88932,
      37.81166
     ],
     [
      -123.89349,
      37.81687
     ],
     [
      -123.89501,
      37.81843
     ],
     [
      -123.89691,
      37.82092
     ],
     [
      -123.90045,
      37.82414
     ],
     [
      -123.90516,
      37.82922
     ],
     [
      -123.90761,
      37.83152
     ],
     [
      -123.91157,
      37.83567
     ],
     [
      -123.91621,
      37.83994
     ],
     [
      -123.91727,
      37.8411
     ],
     [
      -123.9184,
      37.84272
     ],
     [
      -123.9223,
      37.84677
     ],
     [
      -123.92583,
      37.85118
     ],
     [
      -123.92795,
      37.85278
     ],
     [
      -123.93278,
      37.85862
     ],
     [
      -123.93406,
      37.86061
     ],
     [
      -123.93577,
      37.86183
     ],
     [
      -123.93652,
      37.86266
     ]
    ]
   },
   "properties": {
    "role": "centerline",
    "index": 0,
    "area": 5980501.630686843,
    "length": 17369.370386825678
   }
  }
 ]
}
