{
 "type": "FeatureCollection",
 "ship_detections": [],
 "features": [
  {
   "type": "Feature",
   "geometry": {
    "type": "Polygon",
    "coordinates": [
     [
      [
       -123.93396,
       37.86035
      ],
      [
       -123.93414,
       37.86008
      ],
      [
       -123.93387,
       37.85981
      ],
      [
       -123.93387,
       37.85909
      ],
      [
       -123.93315,
       37.859
      ],
      [
       -123.93207,
       37.85757
      ],
      [
       -123.93207,
       37.85694
      ],
      [
       -123.93099,
       37.85631
      ],
      [
       -123.93108,
       37.85532
      ],
      [
       -123.93036,
       37.85523
      ],
      [
       -123.93,
       37.85469
      ],
      [
       -123.92956,
       37.85469
      ],
      [
       -123.92929,
       37.85397
      ],
      [
       -123.92812,
       37.85325
      ],
      [
       -123.92803,
       37.85227
      ],
      [
       -123.92713,
       37.85137
      ],
      [
       -123.92731,
       37.85065
      ],
      [
       -123.92641,
       37.8502
      ],
      [
       -123.92614,
       37.84957
      ],
      [
       -123.92569,
       37.8493
      ],
      [
       -123.92569,
       37.84885
      ],
      [
       -123.92623,
       37.84831
      ],
      [
       -123.92569,
       37.84804
      ],
      [
       -123.92578,
       37.84876
      ],
      [
       -123.92524,
       37.84912
      ],
      [
       -123.92417,
       37.84885
      ],
      [
       -123.9239,
       37.84858
      ],
      [
       -123.92399,
       37.84786
      ],
      [
       -123.92479,
       37.84706
      ],
      [
       -123.92336,
       37.84742
      ],
      [
       -123.92309,
       37.84715
      ],
      [
       -123.92318,
       37.84661
      ],
      [
       -123.92273,
       37.8467
      ],
      [
       -123.92219,
       37.84634
      ],
      [
       -123.92219,
       37.84589
      ],
      [
       -123.92282,
       37.84535
      ],
      [
       -123.92219,
       37.84526
      ],
      [
       -123.92183,
       37.84445
      ],
      [
       -123.92111,
       37.84427
      ],
      [
       -123.92048,
       37.84472
      ],
      [
       -123.91985,
       37.84427
      ],
      [
       -123.91985,
       37.84382
      ],
      [
       -123.92039,
       37.84346
      ],
      [
       -123.9203,
       37.84301
      ],
      [
       -123.91958,
       37.84265
      ],
      [
       -123.91958,
       37.84229
      ],
      [
       -123.92021,
       37.84158
      ],
      [
       -123.92003,
       37.84131
      ],
      [
       -123.91958,
       37.84167
      ],
      [
       -123.91896,
       37.84167
      ],
      [
       -123.91869,
       37.84104
      ],
      [
       -123.91905,
       37.84023
      ],
      [
       -123.92012,
       37.83987
      ],
      [
       -123.9203,
       37.83906
      ],
      [
       -123.91958,
       37.83969
      ],
      [
       -123.91887,
       37.83969
      ],
      [
       -123.91887,
       37.84014
      ],
      [
       -123.91833,
       37.8405
      ],
      [
       -123.91725,
       37.84005
      ],
      [
       -123.91752,
       37.83933
      ],
      [
       -123.9186,
       37.83924
      ],
      [
       -123.91878,
       37.83852
      ],
      [
       -123.91985,
       37.83771
      ],
      [
       -123.91905,
       37.83798
      ],
      [
       -123.91851,
       37.8378
      ],
      [
       -123.91806,
       37.83816
      ],
      [
       -123.91689,
       37.83834
      ],
      [
       -123.91698,
       37.83906
      ],
      [
       -123.91617,
       37.83933
      ],
      [
       -123.91572,
       37.83888
      ],
      [
       -123.91581,
       37.83798
      ],
      [
       -123.91518,
       37.83816
      ],
      [
       -123.91419,
       37.83762
      ],
      [
       -123.91428,
       37.83673
      ],
      [
       -123.91509,
       37.83583
      ],
      [
       -123.91563,
       37.83583
      ],
      [
       -123.91617,
       37.83637
      ],
      [
       -123.91617,
       37.83673
      ],
      [
       -123.91662,
       37.83655
      ],
      [
       -123.91671,
       37.8361
      ],
      [
       -123.91599,
       37.83574
      ],
      [
       -123.91608,
       37.83511
      ],
      [
       -123.91572,
       37.83448
      ],
      [
       -123.91464,
       37.83466
      ],
      [
       -123.91482,
       37.83538
      ],
      [
       -123.91392,
       37.83673
      ],
      [
       -123.91312,
       37.83664
      ],
      [
       -123.91285,
       37.8361
      ],
      [
       -123.91222,
       37.83601
      ],
      [
       -123.91177,
       37.83556
      ],
      [
       -123.91177,
       37.83457
      ],
      [
       -123.91132,
       37.8343
      ],
      [
       -123.91123,
       37.8334
      ],
      [
       -123.9106,
       37.8334
      ],
      [
       -123.91024,
       37.83304
      ],
      [
       -123.91024,
       37.83241
      ],
      [
       -123.91051,
       37.83214
      ],
      [
       -123.91132,
       37.83232
      ],
      [
       -123.9115,
       37.83196
      ],
      [
       -123.91042,
       37.8316
      ],
      [
       -123.90934,
       37.83223
      ],
      [
       -123.90889,
       37.83205
      ],
      [
       -123.90836,
       37.83116
      ],
      [
       -123.90764,
       37.83089
      ],
      [
       -123.90746,
       37.83026
      ],
      [
       -123.90701,
       37.83017
      ],
      [
       -123.90647,
       37.82936
      ],
      [
       -123.90521,
       37.82846
      ],
      [
       -123.9053,
       37.82774
      ],
      [
       -123.90467,
       37.82783
      ],
      [
       -123.9044,
       37.82702
      ],
      [
       -123.90341,
       37.82684
      ],
      [
       -123.9027,
       37.82595
      ],
      [
       -123.90243,
       37.82487
      ],
      [
       -123.90279,
       37.82451
      ],
      [
       -123.90377,
       37.82442
      ],
      [
       -123.90359,
       37.82352
      ],
      [
       -123.9027,
       37.8228
      ],
      [
       -123.9027,
       37.82244
      ],
      [
       -123.90234,
       37.82262
      ],
      [
       -123.90279,
       37.82289
      ],
      [
       -123.90314,
       37.82415
      ],
      [
       -123.90261,
       37.82451
      ],
      [
       -123.90162,
       37.82451
      ],
      [
       -123.90117,
       37.82361
      ],
      [
       -123.90018,
       37.82271
      ],
      [
       -123.90018,
       37.82226
      ],
      [
       -123.89946,
       37.82172
      ],
      [
       -123.89811,
       37.82145
      ],
      [
       -123.89659,
       37.81966
      ],
      [
       -123.89668,
       37.81894
      ],
      [
       -123.8956,
       37.81849
      ],
      [
       -123.89605,
       37.81723
      ],
      [
       -123.8956,
       37.81777
      ],
      [
       -123.89497,
       37.81777
      ],
      [
       -123.89407,
       37.81669
      ],
      [
       -123.89353,
       37.8166
      ],
      [
       -123.89254,
       37.81579
      ],
      [
       -123.89254,
       37.81544
      ],
      [
       -123.89344,
       37.8149
      ],
      [
       -123.89299,
       37.81445
      ],
      [
       -123.89254,
       37.8149
      ],
      [
       -123.89183,
       37.8149
      ],
      [
       -123.89156,
       37.81463
      ],
      [
       -123.89165,
       37.81382
      ],
      [
       -123.89111,
       37.81346
      ],
      [
       -123.89138,
       37.81283
      ],
      [
       -123.89084,
       37.81265
      ],
      [
       -123.89057,
       37.81202
      ],
      [
       -123.88904,
       37.81094
      ],
      [
       -123.88814,
       37.80978
      ],
      [
       -123.88814,
       37.80897
      ],
      [
       -123.88617,
       37.8078
      ],
      [
       -123.88572,
       37.80717
      ],
      [
       -123.88572,
       37.80672
      ],
      [
       -123.8868,
       37.80582
      ],
      [
       -123.88733,
       37.80475
      ],
      [
       -123.8868,
       37.80484
      ],
      [
       -123.88599,
       37.80618
      ],
      [
       -123.88545,
       37.80654
      ],
      [
       -123.8841,
       37.80564
      ],
      [
       -123.88392,
       37.80466
      ],
      [
       -123.88356,
       37.80457
      ],
      [
       -123.88329,
       37.80403
      ],
      [
       -123.88203,
       37.80412
      ],
      [
       -123.88132,
       37.80358
      ],
      [
       -123.88096,
       37.80295
      ],
      [
       -123.88114,
       37.80115
      ],
      [
       -123.88051,
       37.80115
      ],
      [
       -123.88006,
       37.8007
      ],
      [
       -123.87997,
       37.79998
      ],
      [
       -123.87916,
       37.79971
      ],
      [
       -123.87907,
       37.799
      ],
      [
       -123.87862,
       37.79909
      ],
      [
       -123.87808,
       37.79873
      ],
      [
       -123.87808,
       37.79828
      ],
      [
       -123.87907,
       37.79738
      ],
      [
       -123.87781,
       37.79765
      ],
      [
       -123.87727,
       37.79729
      ],
      [
       -123.87727,
       37.79684
      ],
      [
       -123.87646,
       37.79639
      ],
      [
       -123.87575,
       37.79639
      ],
      [
       -123.87512,
       37.79558
      ],
      [
       -123.8753,
       37.79504
      ],
      [
       -123.87386,
       37.79361
      ],
      [
       -123.87377,
       37.79307
      ],
      [
       -123.87305,
       37.79226
      ],
      [
       -123.87305,
       37.79181
      ],
      [
       -123.87251,
       37.79163
      ],
      [
       -123.8717,
       37.79091
      ],
      [
       -123.8717,
       37.79055
      ],
      [
       -123.87116,
       37.79046
      ],
      [
       -123.87081,
       37.78983
      ],
      [
       -123.86964,
       37.78902
      ],
      [
       -123.86946,
       37.78831
      ],
      [
       -123.87009,
       37.78786
      ],
      [
       -123.86838,
       37.78714
      ],
      [
       -123.86838,
       37.78678
      ],
      [
       -123.86919,
       37.78624
      ],
      [
       -123.86874,
       37.78597
      ],
      [
       -123.86811,
       37.78615
      ],
      [
       -123.8673,
       37.7857
      ],
      [
       -123.86748,
       37.78507
      ],
      [
       -123.86685,
       37.78435
      ],
      [
       -123.86694,
       37.78363
      ],
      [
       -123.8656,
       37.7839
      ],
      [
       -123.86434,
       37.78265
      ],
      [
       -123.86443,
       37.78184
      ],
      [
       -123.86389,
       37.78103
      ],
      [
       -123.8629,
       37.78094
      ],
      [
       -123.86227,
       37.77986
      ],
      [
       -123.86164,
       37.78004
      ],
      [
       -123.86101,
       37.77959
      ],
      [
       -123.86137,
       37.77842
      ],
      [
       -123.85994,
       37.77771
      ],
      [
       -123.85994,
       37.77645
      ],
      [
       -123.85841,
       37.77618
      ],
      [
       -123.85778,
       37.77474
      ],
      [
       -123.85697,
       37.7742
      ],
      [
       -123.85724,
       37.77348
      ],
      [
       -123.85796,
       37.77339
      ],
      [
       -123.85796,
       37.7725
      ],
      [
       -123.85769,
       37.77312
      ],
      [
       -123.85706,
       37.77357
      ],
      [
       -123.85625,
       37.77294
      ],
      [
       -123.85625,
       37.77259
      ],
      [
       -123.85517,
       37.77232
      ],
      [
       -123.85482,
       37.7716
      ],
      [
       -123.85365,
       37.77079
      ],
      [
       -123.85374,
       37.76971
      ],
      [
       -123.85302,
       37.76944
      ],
      [
       -123.85293,
       37.76881
      ],
      [
       -123.85239,
       37.76881
      ],
      [
       -123.85158,
       37.76773
      ],
      [
       -123.8505,
       37.76729
      ],
      [
       -123.8505,
       37.76684
      ],
      [
       -123.85095,
       37.76639
      ],
      [
       -123.85041,
       37.76621
      ],
      [
       -123.85005,
       37.76549
      ],
      [
       -123.84925,
       37.7654
      ],
      [
       -123.8488,
       37.76414
      ],
      [
       -123.84835,
       37.76423
      ],
      [
       -123.84763,
       37.76387
      ],
      [
       -123.84736,
       37.76324
      ],
      [
       -123.84682,
       37.76288
      ],
      [
       -123.847,
       37.7619
      ],
      [
       -123.8452,
       37.76055
      ],
      [
       -123.8452,
       37.75983
      ],
      [
       -123.84565,
       37.7592
      ],
      [
       -123.84448,
       37.75911
      ],
      [
       -123.8435,
       37.75812
      ],
      [
       -123.8435,
       37.75704
      ],
      [
       -123.8426,
       37.75704
      ],
      [
       -123.84143,
       37.75633
      ],
      [
       -123.84044,
       37.75651
      ],
      [
       -123.84008,
       37.75615
      ],
      [
       -123.84008,
       37.75552
      ],
      [
       -123.83892,
       37.75489
      ],
      [
       -123.8391,
       37.75435
      ],
      [
       -123.8373,
       37.75327
      ],
      [
       -123.8373,
       37.75264
      ],
      [
       -123.83676,
       37.75201
      ],
      [
       -123.83604,
       37.75174
      ],
      [
       -123.83613,
       37.7513
      ],
      [
       -123.83559,
       37.75148
      ],
      [
       -123.83505,
       37.75112
      ],
      [
       -123.8346,
       37.74986
      ],
      [
       -123.83523,
       37.74932
      ],
      [
       -123.83433,
       37.74896
      ],
      [
       -123.83406,
       37.74815
      ],
      [
       -123.83308,
       37.74761
      ],
      [
       -123.83308,
       37.7468
      ],
      [
       -123.83227,
       37.74627
      ],
      [
       -123.83254,
       37.74555
      ],
      [
       -123.832,
       37.74555
      ],
      [
       -123.83173,
       37.74528
      ],
      [
       -123.83182,
       37.74483
      ],
      [
       -123.83038,
       37.74384
      ],
      [
       -123.83074,
       37.74303
      ],
      [
       -123.82966,
       37.74276
      ],
      [
       -123.82867,
       37.74159
      ],
      [
       -123.82912,
       37.74052
      ],
      [
       -123.82849,
       37.7407
      ],
      [
       -123.82805,
       37.74043
      ],
      [
       -123.82742,
       37.7407
      ],
      [
       -123.8267,
       37.74025
      ],
      [
       -123.82652,
       37.73908
      ],
      [
       -123.82706,
       37.73872
      ],
      [
       -123.82742,
       37.73881
      ],
      [
       -123.82751,
       37.73854
      ],
      [
       -123.8258,
       37.73863
      ],
      [
       -123.82526,
       37.73773
      ],
      [
       -123.82418,
       37.73737
      ],
      [
       -123.82418,
       37.73674
      ],
      [
       -123.8223,
       37.73549
      ],
      [
       -123.82104,
       37.73566
      ],
      [
       -123.82104,
       37.73737
      ],
      [
       -123.82014,
       37.73782
      ],
      [
       -123.82068,
       37.73827
      ],
      [
       -123.82032,
       37.73908
      ],
      [
       -123.82122,
       37.73908
      ],
      [
       -123.82328,
       37.74061
      ],
      [
       -123.82311,
       37.74123
      ],
      [
       -123.82373,
       37.74168
      ],
      [
       -123.82373,
       37.74213
      ],
      [
       -123.82328,
       37.74258
      ],
      [
       -123.82409,
       37.74231
      ],
      [
       -123.82499,
       37.74267
      ],
      [
       -123.82535,
       37.7433
      ],
      [
       -123.82589,
       37.7433
      ],
      [
       -123.82661,
       37.7451
      ],
      [
       -123.82733,
       37.74555
      ],
      [
       -123.82733,
       37.74618
      ],
      [
       -123.82814,
       37.74644
      ],
      [
       -123.82894,
       37.74725
      ],
      [
       -123.82894,
       37.7477
      ],
      [
       -123.82975,
       37.74806
      ],
      [
       -123.82966,
       37.74869
      ],
      [
       -123.8302,
       37.74905
      ],
      [
       -123.83002,
       37.74977
      ],
      [
       -123.83065,
       37.74977
      ],
      [
       -123.83155,
       37.75067
      ],
      [
       -123.83263,
       37.75085
      ],
      [
       -123.83344,
       37.7521
      ],
      [
       -123.83388,
       37.75201
      ],
      [
       -123.83442,
       37.75237
      ],
      [
       -123.83469,
       37.75372
      ],
      [
       -123.83523,
       37.75417
      ],
      [
       -123.83649,
       37.75435
      ],
      [
       -123.83694,
       37.7548
      ],
      [
       -123.83694,
       37.75525
      ],
      [
       -123.83856,
       37.75624
      ],
      [
       -123.83874,
       37.75731
      ],
      [
       -123.8391,
       37.75776
      ],
      [
       -123.83981,
       37.75776
      ],
      [
       -123.8408,
       37.75857
      ],
      [
       -123.84053,
       37.7592
      ],
      [
       -123.84089,
       37.75983
      ],
      [
       -123.8417,
       37.76037
      ],
      [
       -123.84152,
       37.76127
      ],
      [
       -123.84179,
       37.76172
      ],
      [
       -123.84251,
       37.7619
      ],
      [
       -123.84287,
       37.76243
      ],
      [
       -123.84377,
       37.76252
      ],
      [
       -123.84404,
       37.76315
      ],
      [
       -123.84475,
       37.76369
      ],
      [
       -123.84475,
       37.76477
      ],
      [
       -123.84574,
       37.76468
      ],
      [
       -123.84628,
       37.76531
      ],
      [
       -123.84628,
       37.76576
      ],
      [
       -123.84772,
       37.76648
      ],
      [
       -123.84736,
       37.76738
      ],
      [
       -123.8479,
       37.76729
      ],
      [
       -123.84844,
       37.76764
      ],
      [
       -123.84853,
       37.76818
      ],
      [
       -123.84907,
       37.76854
      ],
      [
       -123.84898,
       37.76944
      ],
      [
       -123.84987,
       37.76962
      ],
      [
       -123.85059,
       37.77016
      ],
      [
       -123.85104,
       37.77106
      ],
      [
       -123.85194,
       37.77178
      ],
      [
       -123.85167,
       37.77259
      ],
      [
       -123.85356,
       37.77357
      ],
      [
       -123.85383,
       37.77438
      ],
      [
       -123.85275,
       37.77483
      ],
      [
       -123.85365,
       37.77483
      ],
      [
       -123.8541,
       37.77573
      ],
      [
       -123.85535,
       37.77564
      ],
      [
       -123.85571,
       37.776
      ],
      [
       -123.85562,
       37.77708
      ],
      [
       -123.85643,
       37.77753
      ],
      [
       -123.85616,
       37.77816
      ],
      [
       -123.85643,
       37.77833
      ],
      [
       -123.85688,
       37.77789
      ],
      [
       -123.85742,
       37.77789
      ],
      [
       -123.8585,
       37.7795
      ],
      [
       -123.85886,
       37.77932
      ],
      [
       -123.8594,
       37.77968
      ],
      [
       -123.85913,
       37.78148
      ],
      [
       -123.85958,
       37.78157
      ],
      [
       -123.85994,
       37.78211
      ],
      [
       -123.86065,
       37.78148
      ],
      [
       -123.86119,
       37.78184
      ],
      [
       -123.86146,
       37.78256
      ],
      [
       -123.86074,
       37.78381
      ],
      [
       -123.86101,
       37.78399
      ],
      [
       -123.86146,
       37.78319
      ],
      [
       -123.86218,
       37.78328
      ],
      [
       -123.86254,
       37.7839
      ],
      [
       -123.86371,
       37.78444
      ],
      [
       -123.86389,
       37.78552
      ],
      [
       -123.8656,
       37.78633
      ],
      [
       -123.8656,
       37.78669
      ],
      [
       -123.86515,
       37.78705
      ],
      [
       -123.86551,
       37.78732
      ],
      [
       -123.86542,
       37.78813
      ],
      [
       -123.8664,
       37.78849
      ],
      [
       -123.86631,
       37.78956
      ],
      [
       -123.86676,
       37.78938
      ],
      [
       -123.86811,
       37.78992
      ],
      [
       -123.86847,
       37.79073
      ],
      [
       -123.86928,
       37.79127
      ],
      [
       -123.86955,
       37.79262
      ],
      [
       -123.87054,
       37.79298
      ],
      [
       -123.87036,
       37.79379
      ],
      [
       -123.87108,
       37.79361
      ],
      [
       -123.87134,
       37.79388
      ],
      [
       -123.87116,
       37.79441
      ],
      [
       -123.87188,
       37.79531
      ],
      [
       -123.87278,
       37.79585
      ],
      [
       -123.87278,
       37.79657
      ],
      [
       -123.87341,
       37.7972
      ],
      [
       -123.87395,
       37.7972
      ],
      [
       -123.87476,
       37.7981
      ],
      [
       -123.87449,
       37.79873
      ],
      [
       -123.8735,
       37.79909
      ],
      [
       -123.87548,
       37.79927
      ],
      [
       -123.87575,
       37.80007
      ],
      [
       -123.8753,
       37.80061
      ],
      [
       -123.87611,
       37.80034
      ],
      [
       -123.87664,
       37.8007
      ],
      [
       -123.87664,
       37.80115
      ],
      [
       -123.8762,
       37.80169
      ],
      [
       -123.87476,
       37.80241
      ],
      [
       -123.87422,
       37.80223
      ],
      [
       -123.87431,
       37.80259
      ],
      [
       -123.87467,
       37.80268
      ],
      [
       -123.87494,
       37.80232
      ],
      [
       -123.87691,
       37.80151
      ],
      [
       -123.87754,
       37.80151
      ],
      [
       -123.87817,
       37.80223
      ],
      [
       -123.87808,
       37.80268
      ],
      [
       -123.87862,
       37.80286
      ],
      [
       -123.87898,
       37.80358
      ],
      [
       -123.87943,
       37.80358
      ],
      [
       -123.87997,
       37.80448
      ],
      [
       -123.88042,
       37.80439
      ],
      [
       -123.88105,
       37.80484
      ],
      [
       -123.88105,
       37.80555
      ],
      [
       -123.88194,
       37.80546
      ],
      [
       -123.88221,
       37.80609
      ],
      [
       -123.88132,
       37.80645
      ],
      [
       -123.88212,
       37.80663
      ],
      [
       -123.88311,
       37.8078
      ],
      [
       -123.88356,
       37.80771
      ],
      [
       -123.88428,
       37.80816
      ],
      [
       -123.88428,
       37.8087
      ],
      [
       -123.88347,
       37.80933
      ],
      [
       -123.88455,
       37.80915
      ],
      [
       -123.88617,
       37.81076
      ],
      [
       -123.8868,
       37.81076
      ],
      [
       -123.88814,
       37.81283
      ],
      [
       -123.88796,
       37.81373
      ],
      [
       -123.88859,
       37.81337
      ],
      [
       -123.88931,
       37.81346
      ],
      [
       -123.88967,
       37.81445
      ],
      [
       -123.89066,
       37.81499
      ],
      [
       -123.89129,
       37.8157
      ],
      [
       -123.89129,
       37.81615
      ],
      [
       -123.89039,
       37.8166
      ],
      [
       -123.89147,
       37.8166
      ],
      [
       -123.89263,
       37.81768
      ],
      [
       -123.89371,
       37.81813
      ],
      [
       -123.89371,
       37.81912
      ],
      [
       -123.89425,
       37.81912
      ],
      [
       -123.8947,
       37.81948
      ],
      [
       -123.8947,
       37.81984
      ],
      [
       -123.8956,
       37.82083
      ],
      [
       -123.89578,
       37.8219
      ],
      [
       -123.89668,
       37.82181
      ],
      [
       -123.8982,
       37.82316
      ],
      [
       -123.89865,
       37.82424
      ],
      [
       -123.89982,
       37.82487
      ],
      [
       -123.9,
       37.82595
      ],
      [
       -123.90054,
       37.82595
      ],
      [
       -123.90099,
       37.82648
      ],
      [
       -123.90063,
       37.82747
      ],
      [
       -123.90081,
       37.82774
      ],
      [
       -123.90135,
       37.82702
      ],
      [
       -123.90216,
       37.82729
      ],
      [
       -123.90198,
       37.8281
      ],
      [
       -123.90072,
       37.82918
      ],
      [
       -123.90072,
       37.82981
      ],
      [
       -123.90252,
       37.8281
      ],
      [
       -123.90332,
       37.8281
      ],
      [
       -123.90359,
       37.82882
      ],
      [
       -123.90314,
       37.82936
      ],
      [
       -123.90314,
       37.82981
      ],
      [
       -123.9044,
       37.82972
      ],
      [
       -123.90521,
       37.83035
      ],
      [
       -123.90512,
       37.83134
      ],
      [
       -123.90611,
       37.83134
      ],
      [
       -123.90674,
       37.83178
      ],
      [
       -123.90674,
       37.83214
      ],
      [
       -123.90566,
       37.83322
      ],
      [
       -123.90485,
       37.8334
      ],
      [
       -123.90458,
       37.83376
      ],
      [
       -123.90755,
       37.83295
      ],
      [
       -123.908,
       37.83349
      ],
      [
       -123.908,
       37.83421
      ],
      [
       -123.90674,
       37.83511
      ],
      [
       -123.90728,
       37.8352
      ],
      [
       -123.90773,
       37.83457
      ],
      [
       -123.90836,
       37.83457
      ],
      [
       -123.90889,
       37.83511
      ],
      [
       -123.90871,
       37.83583
      ],
      [
       -123.90925,
       37.83574
      ],
      [
       -123.90997,
       37.83628
      ],
      [
       -123.91087,
       37.83637
      ],
      [
       -123.91123,
       37.83673
      ],
      [
       -123.91114,
       37.83762
      ],
      [
       -123.91195,
       37.83789
      ],
      [
       -123.91267,
       37.83888
      ],
      [
       -123.91383,
       37.83951
      ],
      [
       -123.91357,
       37.84014
      ],
      [
       -123.9124,
       37.84059
      ],
      [
       -123.91105,
       37.84014
      ],
      [
       -123.91114,
       37.84095
      ],
      [
       -123.91051,
       37.84131
      ],
      [
       -123.90988,
       37.84238
      ],
      [
       -123.91159,
       37.84256
      ],
      [
       -123.91231,
       37.84337
      ],
      [
       -123.91312,
       37.84292
      ],
      [
       -123.91312,
       37.84256
      ],
      [
       -123.91383,
       37.84176
      ],
      [
       -123.91473,
       37.84149
      ],
      [
       -123.915,
       37.84221
      ],
      [
       -123.91446,
       37.8431
      ],
      [
       -123.91527,
       37.84274
      ],
      [
       -123.91671,
       37.84355
      ],
      [
       -123.91644,
       37.84418
      ],
      [
       -123.91581,
       37.84436
      ],
      [
       -123.9159,
       37.84499
      ],
      [
       -123.91653,
       37.8449
      ],
      [
       -123.91653,
       37.84445
      ],
      [
       -123.91734,
       37.84391
      ],
      [
       -123.91815,
       37.84436
      ],
      [
       -123.91842,
       37.84517
      ],
      [
       -123.91949,
       37.84589
      ],
      [
       -123.91949,
       37.84625
      ],
      [
       -123.91869,
       37.84706
      ],
      [
       -123.91913,
       37.84724
      ],
      [
       -123.91985,
       37.84652
      ],
      [
       -123.92093,
       37.84715
      ],
      [
       -123.92183,
       37.84831
      ],
      [
       -123.92174,
       37.84885
      ],
      [
       -123.92246,
       37.84885
      ],
      [
       -123.92273,
       37.84957
      ],
      [
       -123.92336,
       37.84993
      ],
      [
       -123.92345,
       37.85047
      ],
      [
       -123.92399,
       37.85065
      ],
      [
       -123.92515,
       37.852
      ],
      [
       -123.92578,
       37.85209
      ],
      [
       -123.92641,
       37.85316
      ],
      [
       -123.92722,
       37.85352
      ],
      [
       -123.9283,
       37.85505
      ],
      [
       -123.92956,
       37.85595
      ],
      [
       -123.93,
       37.85667
      ],
      [
       -123.93,
       37.8573
      ],
      [
       -123.93081,
       37.85766
      ],
      [
       -123.93063,
       37.85828
      ],
      [
       -123.93207,
       37.8582
      ],
      [
       -123.93234,
       37.85846
      ],
      [
       -123.93216,
       37.85954
      ],
      [
       -123.93324,
       37.85963
      ],
      [
       -123.93396,
       37.86035
      ]
     ]
    ]
   },
   "properties": {
    "id": "det-01",
    "classification": "oil",
    "confidence": 0.676,
    "area_km2": 4.202,
    "elongation": 19.02,
    "edge_gradient": 17.7072,
    "contrast_db": -5.11,
    "shape_class": "linear",
    "discharge_class": "chronic",
    "centroid": [
     -123.87328,
     37.794
    ],
    "vh_contrast_db": -0.026,
    "vh_mean_depth_db": 1.181,
    "solidity": 0.321,
    "mean_depth_db": 7.561
   }
  },
  {
   "type": "Feature",
   "geometry": {
    "type": "Polygon",
    "coordinates": [
     [
      [
       -123.96136,
       37.85864
      ],
      [
       -123.96163,
       37.85882
      ],
      [
       -123.9627,
       37.85775
      ],
      [
       -123.96315,
       37.85802
      ],
      [
       -123.96549,
       37.85811
      ],
      [
       -123.96594,
       37.85748
      ],
      [
       -123.96675,
       37.85712
      ],
      [
       -123.96719,
       37.85739
      ],
      [
       -123.96845,
       37.85658
      ],
      [
       -123.96809,
       37.8564
      ],
      [
       -123.96719,
       37.85703
      ],
      [
       -123.96621,
       37.85667
      ],
      [
       -123.96549,
       37.85694
      ],
      [
       -123.96513,
       37.85784
      ],
      [
       -123.96459,
       37.85793
      ],
      [
       -123.96324,
       37.85721
      ],
      [
       -123.96324,
       37.85685
      ],
      [
       -123.96405,
       37.85631
      ],
      [
       -123.96396,
       37.85586
      ],
      [
       -123.96342,
       37.85532
      ],
      [
       -123.9627,
       37.85532
      ],
      [
       -123.96261,
       37.85604
      ],
      [
       -123.96324,
       37.85649
      ],
      [
       -123.96324,
       37.85685
      ],
      [
       -123.96136,
       37.85864
      ]
     ]
    ]
   },
   "properties": {
    "id": "det-02",
    "classification": "lookalike",
    "confidence": 0.45,
    "area_km2": 0.048,
    "elongation": 3.03,
    "edge_gradient": 18.0517,
    "contrast_db": -4.07,
    "shape_class": "linear",
    "discharge_class": "unknown",
    "centroid": [
     -123.9643,
     37.85709
    ],
    "vh_contrast_db": 0.264,
    "vh_mean_depth_db": 1.039,
    "solidity": 0.342,
    "mean_depth_db": 6.379
   }
  }
 ]
}