{"type": "FeatureCollection", "features": [{"type": "Feature", "geometry": {"type": "LineString", "coordinates": [[-123.91182, 37.80312], [-123.91305, 37.80565], [-123.91433, 37.80874], [-123.91568, 37.81167], [-123.91723, 37.81464], [-123.91882, 37.81766], [-123.92018, 37.82068], [-123.92161, 37.82411], [-123.92297, 37.82706], [-123.9245, 37.82998], [-123.92593, 37.83277], [-123.92723, 37.83567], [-123.92924, 37.84026], [-123.93247, 37.84678], [-123.9336, 37.84965], [-123.93497, 37.85258], [-123.93667, 37.85581], [-123.93802, 37.85858], [-123.93924, 37.86149], [-123.94051, 37.8644], [-123.94182, 37.86732], [-123.94363, 37.87106], [-123.94561, 37.87473], [-123.94691, 37.87725], [-123.94824, 37.88061], [-123.94948, 37.88346], [-123.95099, 37.88628], [-123.95301, 37.89051], [-123.95421, 37.89344], [-123.95569, 37.89677], [-123.95726, 37.8997], [-123.95878, 37.90261], [-123.96004, 37.90517], [-123.96133, 37.90818], [-123.96318, 37.91241], [-123.96476, 37.91533], [-123.96637, 37.91832], [-123.96784, 37.92123], [-123.96911, 37.92423], [-123.97042, 37.92721], [-123.97185, 37.93008], [-123.9744, 37.93497], [-123.97554, 37.93755], [-123.97679, 37.94053], [-123.9789, 37.94523], [-123.98053, 37.94814], [-123.98205, 37.95102], [-123.98336, 37.95406], [-123.98491, 37.95763], [-123.98644, 37.96056], [-123.98865, 37.96487], [-123.99088, 37.97006], [-123.99239, 37.97293], [-123.99419, 37.97626], [-123.99617, 37.9805], [-123.99779, 37.98391], [-123.99956, 37.98727], [-124.00096, 37.99015], [-124.00238, 37.99314], [-124.0039, 37.99616], [-124.00539, 37.99911], [-124.0069, 38.00196], [-124.0097, 38.00831], [-124.01102, 38.01132], [-124.0122, 38.01427], [-124.01345, 38.01721], [-124.01486, 38.02017], [-124.01633, 38.02309], [-124.01774, 38.02613], [-124.01898, 38.02904], [-124.0203, 38.03201], [-124.02172, 38.03503], [-124.02293, 38.03791], [-124.02411, 38.04181], [-124.02528, 38.04517], [-124.0265, 38.04814], [-124.02796, 38.0516], [-124.02947, 38.05543], [-124.03047, 38.05851], [-124.03183, 38.06149], [-124.03331, 38.06436], [-124.03479, 38.06735], [-124.03609, 38.07037], [-124.03738, 38.0733], [-124.03888, 38.07622], [-124.04027, 38.07876], [-124.04178, 38.08158], [-124.04289, 38.08415], [-124.04398, 38.08669], [-124.04544, 38.0896], [-124.04715, 38.09292], [-124.04824, 38.09592], [-124.04937, 38.099], [-124.05074, 38.10181], [-124.05242, 38.10523], [-124.05399, 38.10855], [-124.05573, 38.11289], [-124.05704, 38.11586], [-124.05977, 38.12138], [-124.06107, 38.12398], [-124.06253, 38.12759], [-124.06417, 38.13162], [-124.06543, 38.13476], [-124.06679, 38.13771], [-124.06834, 38.14067], [-124.06987, 38.14381], [-124.07111, 38.14684], [-124.07237, 38.15004], [-124.07378, 38.15316], [-124.07533, 38.15621], [-124.07666, 38.15927], [-124.0779, 38.16249], [-124.07919, 38.16555], [-124.08072, 38.1686], [-124.08227, 38.1718], [-124.0835, 38.17493], [-124.08465, 38.17809], [-124.08601, 38.18126], [-124.08743, 38.18433], [-124.08882, 38.18788], [-124.09004, 38.19097], [-124.09156, 38.19398], [-124.09297, 38.197], [-124.09424, 38.19998], [-124.0954, 38.20302], [-124.09669, 38.20612], [-124.09803, 38.20905], [-124.09952, 38.21198], [-124.10099, 38.21496], [-124.10208, 38.21759], [-124.10335, 38.22063], [-124.10483, 38.2236], [-124.1063, 38.22652], [-124.10771, 38.22959], [-124.10906, 38.23269], [-124.11027, 38.2358], [-124.11165, 38.23876], [-124.11255, 38.24041], [-124.11414, 38.24347], [-124.11534, 38.24646], [-124.11644, 38.24907], [-124.11818, 38.25248], [-124.11996, 38.2563], [-124.1213, 38.25937], [-124.12256, 38.26199], [-124.12437, 38.26557], [-124.12576, 38.26863], [-124.12761, 38.27305], [-124.12905, 38.27623], [-124.13292, 38.28449], [-124.13396, 38.2876], [-124.13508, 38.29076], [-124.13637, 38.29383], [-124.13769, 38.29686], [-124.13895, 38.29993], [-124.14017, 38.30355], [-124.14134, 38.30658], [-124.1427, 38.30969], [-124.14408, 38.31278], [-124.14533, 38.31626], [-124.14654, 38.31928], [-124.14798, 38.32235], [-124.14944, 38.32542], [-124.15075, 38.32892], [-124.15211, 38.33244], [-124.15358, 38.33546], [-124.15498, 38.33856], [-124.15647, 38.34251], [-124.15766, 38.34549], [-124.1591, 38.34848], [-124.16096, 38.35281], [-124.16206, 38.3559], [-124.16336, 38.35895], [-124.16482, 38.36191], [-124.16603, 38.36494]]}, "properties": {"mmsi": "636016487", "name": "HORIZON", "vessel_type": "cargo", "n_points": 175, "n_points_full": 175, "max_gap_minutes": 3.2}}, {"type": "Feature", "geometry": {"type": "LineString", "coordinates": [[-124.25664, 38.36439], [-124.25208, 38.36068], [-124.24828, 38.35749], [-124.24445, 38.35425], [-124.2407, 38.35115], [-124.2369, 38.34807], [-124.2333, 38.3451], [-124.22951, 38.3419], [-124.22519, 38.33831], [-124.2216, 38.33535], [-124.21727, 38.33178], [-124.21327, 38.3285], [-124.20945, 38.32538], [-124.20486, 38.32165], [-124.20128, 38.31867], [-124.19764, 38.3156], [-124.19393, 38.31249], [-124.19015, 38.30936], [-124.18589, 38.30591], [-124.18174, 38.30245], [-124.17769, 38.29909], [-124.17373, 38.29585], [-124.16995, 38.29274], [-124.16648, 38.28986], [-124.16291, 38.28687], [-124.15924, 38.28378], [-124.15542, 38.28066], [-124.15186, 38.27772], [-124.14785, 38.27439], [-124.14405, 38.27124], [-124.14027, 38.26809], [-124.13642, 38.26488], [-124.13232, 38.26149], [-124.1285, 38.25835], [-124.12475, 38.25514], [-124.12088, 38.25194], [-124.11714, 38.24883], [-124.11331, 38.24569], [-124.10954, 38.2425], [-124.10574, 38.23935], [-124.1019, 38.23624], [-124.09811, 38.23304], [-124.09432, 38.22985], [-124.09043, 38.22667], [-124.08676, 38.22358], [-124.08291, 38.22035], [-124.07919, 38.2171], [-124.07552, 38.21385], [-124.07173, 38.2107], [-124.06713, 38.20695], [-124.06352, 38.20383], [-124.06185, 38.20236], [-124.05809, 38.19914], [-124.05422, 38.19597], [-124.05046, 38.1929], [-124.04671, 38.18971], [-124.04302, 38.18645], [-124.03952, 38.18346], [-124.03578, 38.18038], [-124.03194, 38.17717], [-124.02821, 38.17405], [-124.02467, 38.17105], [-124.02105, 38.168], [-124.01726, 38.1648], [-124.01353, 38.16163], [-124.00969, 38.15845], [-124.00618, 38.15557], [-124.00221, 38.15229], [-123.99847, 38.14913], [-123.99466, 38.14598], [-123.99091, 38.14288], [-123.98742, 38.13998], [-123.98399, 38.13718], [-123.98004, 38.13393], [-123.97635, 38.13085], [-123.97247, 38.12769], [-123.96855, 38.12445], [-123.96493, 38.12152], [-123.9607, 38.11815], [-123.95671, 38.11504], [-123.95276, 38.112], [-123.94882, 38.10888], [-123.94477, 38.10566], [-123.94084, 38.10254], [-123.93699, 38.09943], [-123.93304, 38.09632], [-123.92873, 38.09292], [-123.92466, 38.08966], [-123.92089, 38.08663], [-123.91705, 38.08357], [-123.91312, 38.08047], [-123.90922, 38.07734], [-123.90532, 38.07421], [-123.90137, 38.07112], [-123.89743, 38.068], [-123.89348, 38.06477], [-123.8896, 38.06161], [-123.88539, 38.05823], [-123.88146, 38.0551], [-123.87748, 38.05194], [-123.87359, 38.04876], [-123.86974, 38.04558], [-123.86574, 38.04242], [-123.862, 38.03943], [-123.85821, 38.03628], [-123.85413, 38.03298], [-123.85096, 38.03047], [-123.84696, 38.02729], [-123.84311, 38.02418], [-123.8392, 38.02103], [-123.83536, 38.0179], [-123.8317, 38.01493], [-123.82776, 38.01182], [-123.82385, 38.00868], [-123.81999, 38.00558], [-123.81573, 38.00212], [-123.81181, 37.99896], [-123.80806, 37.99597], [-123.80403, 37.99278], [-123.80011, 37.98967], [-123.79652, 37.98676], [-123.79256, 37.9836], [-123.78873, 37.98054], [-123.78479, 37.97749], [-123.78123, 37.97467], [-123.77732, 37.97157], [-123.77337, 37.9684], [-123.76915, 37.96507], [-123.76521, 37.96198], [-123.76123, 37.95882], [-123.75744, 37.95578], [-123.75345, 37.95259], [-123.74953, 37.94945], [-123.74557, 37.94631], [-123.74156, 37.94316], [-123.73766, 37.94008], [-123.73375, 37.93691], [-123.72986, 37.93373], [-123.72595, 37.93059], [-123.72206, 37.92745], [-123.71817, 37.92429], [-123.71425, 37.92112], [-123.7103, 37.91795], [-123.70652, 37.91486], [-123.70264, 37.91165], [-123.69873, 37.90849], [-123.69487, 37.90536], [-123.69089, 37.9021], [-123.68715, 37.899], [-123.68309, 37.89573], [-123.67922, 37.89254]]}, "properties": {"mmsi": "338221000", "name": "OVERSEAS BOSTON", "vessel_type": "tanker", "n_points": 151, "n_points_full": 151, "max_gap_minutes": 1.3}}, {"type": "Feature", "geometry": {"type": "LineString", "coordinates": [[-124.07845, 38.3655], [-124.07673, 38.36203], [-124.07489, 38.35847], [-124.07304, 38.35499], [-124.07118, 38.35144], [-124.06941, 38.34799], [-124.06764, 38.34442], [-124.06592, 38.34101], [-124.064, 38.33754], [-124.06207, 38.33397], [-124.06038, 38.33054], [-124.05813, 38.32589], [-124.05641, 38.32247], [-124.0548, 38.31938], [-124.053, 38.31594], [-124.05115, 38.31237], [-124.04941, 38.30891], [-124.04769, 38.30539], [-124.04591, 38.3019], [-124.04405, 38.29837], [-124.04225, 38.29493], [-124.04046, 38.29137], [-124.03877, 38.28797], [-124.03694, 38.28438], [-124.03542, 38.28139], [-124.03363, 38.27796], [-124.03158, 38.27391], [-124.02993, 38.27048], [-124.02816, 38.26687], [-124.0264, 38.26338], [-124.02461, 38.25986], [-124.0224, 38.25544], [-124.02064, 38.25202], [-124.01884, 38.24852], [-124.01708, 38.24507], [-124.01534, 38.24165], [-124.01361, 38.23818], [-124.01185, 38.23474], [-124.01008, 38.23123], [-124.00833, 38.22778], [-124.00659, 38.22433], [-124.00481, 38.22093], [-124.00304, 38.21744], [-124.00138, 38.21405], [-123.99968, 38.21059], [-123.99792, 38.20716], [-123.99614, 38.20372], [-123.99433, 38.20019], [-123.99266, 38.19685], [-123.99088, 38.19337], [-123.98917, 38.18998], [-123.98747, 38.18653], [-123.9857, 38.18314], [-123.98384, 38.17972], [-123.98209, 38.17633], [-123.98049, 38.17297], [-123.9786, 38.16902], [-123.97689, 38.16569], [-123.97507, 38.16239], [-123.97318, 38.15896], [-123.9715, 38.15562], [-123.96984, 38.15223], [-123.96806, 38.14885], [-123.96628, 38.14545], [-123.96445, 38.14161], [-123.96284, 38.13822], [-123.96143, 38.13524], [-123.96005, 38.13237], [-123.95841, 38.12897], [-123.9568, 38.12555], [-123.95519, 38.12214], [-123.95354, 38.11866], [-123.95193, 38.11529], [-123.9503, 38.11185], [-123.94844, 38.10795], [-123.94684, 38.10452], [-123.94523, 38.10106], [-123.94366, 38.0977], [-123.9423, 38.09472], [-123.94076, 38.09131], [-123.93943, 38.08843], [-123.93788, 38.08503], [-123.93634, 38.08163], [-123.93479, 38.07823], [-123.93325, 38.07482], [-123.93166, 38.07142], [-123.93005, 38.06803], [-123.92848, 38.06458], [-123.92701, 38.0612], [-123.92543, 38.05772], [-123.92393, 38.05442], [-123.92259, 38.05152], [-123.92101, 38.04813], [-123.91949, 38.04473], [-123.91796, 38.04133], [-123.91639, 38.03794], [-123.91485, 38.0346], [-123.91351, 38.03163], [-123.91199, 38.02822], [-123.91042, 38.02482], [-123.90884, 38.02143], [-123.90726, 38.01799], [-123.90577, 38.01462], [-123.90428, 38.01116], [-123.90282, 38.00779], [-123.90134, 38.00439], [-123.89983, 38.00104], [-123.89833, 37.99758], [-123.89694, 37.99416], [-123.89552, 37.99078], [-123.89396, 37.9873], [-123.89238, 37.98403], [-123.89086, 37.98071], [-123.88957, 37.97775], [-123.88785, 37.97382], [-123.88605, 37.96996], [-123.88434, 37.96669], [-123.88262, 37.96337], [-123.88116, 37.9605], [-123.87951, 37.95714], [-123.87783, 37.9538], [-123.87612, 37.95045], [-123.87437, 37.94712], [-123.87261, 37.94382], [-123.87087, 37.94048], [-123.86921, 37.93713], [-123.86761, 37.93376], [-123.86594, 37.93035], [-123.86427, 37.92708], [-123.86253, 37.92371], [-123.86088, 37.92038], [-123.85932, 37.91712], [-123.85769, 37.91372], [-123.85604, 37.91038], [-123.8544, 37.90703], [-123.85274, 37.90364], [-123.85088, 37.89984], [-123.84925, 37.89652], [-123.8477, 37.89318], [-123.84616, 37.8898], [-123.84459, 37.8865], [-123.84292, 37.88304], [-123.84136, 37.87977], [-123.83999, 37.87678], [-123.83843, 37.8734], [-123.8369, 37.87022], [-123.83529, 37.86683], [-123.83368, 37.86352], [-123.83184, 37.85972], [-123.8302, 37.85589], [-123.82881, 37.85248], [-123.82742, 37.84915], [-123.82596, 37.84586], [-123.82452, 37.84238], [-123.82315, 37.83904], [-123.82157, 37.83517], [-123.82019, 37.8317], [-123.81882, 37.82834], [-123.81739, 37.82491], [-123.81598, 37.82142], [-123.81465, 37.81802], [-123.81304, 37.81408], [-123.81159, 37.81067], [-123.81017, 37.80723], [-123.80876, 37.80373]]}, "properties": {"mmsi": "210007000", "name": "AURORA SB", "vessel_type": "cargo", "n_points": 165, "n_points_full": 165, "max_gap_minutes": 1.5}}]}