{
 "type": "FeatureCollection",
 "features": [
  {
   "type": "Feature",
   "geometry": {
    "type": "MultiPolygon",
    "coordinates": [
     [
      [
       [
        -79.6269,
        30.28376
       ],
       [
        -79.62553,
        30.28376
       ],
       [
        -79.62553,
        30.28307
       ],
       [
        -79.62484,
        30.28307
       ],
       [
        -79.62484,
        30.2817
       ],
       [
        -79.62416,
        30.2817
       ],
       [
        -79.62416,
        30.28033
       ],
       [
        -79.62347,
        30.28033
       ],
       [
        -79.62347,
        30.27621
       ],
       [
        -79.62278,
        30.27621
       ],
       [
        -79.62278,
        30.27483
       ],
       [
        -79.62347,
        30.27483
       ],
       [
        -79.62347,
        30.27277
       ],
       [
        -79.62278,
        30.27277
       ],
       [
        -79.62278,
        30.27003
       ],
       [
        -79.62347,
        30.27003
       ],
       [
        -79.62347,
        30.26865
       ],
       [
        -79.62278,
        30.26865
       ],
       [
        -79.62278,
        30.26453
       ],
       [
        -79.6221,
        30.26453
       ],
       [
        -79.6221,
        30.26247
       ],
       [
        -79.62278,
        30.26247
       ],
       [
        -79.62278,
        30.2611
       ],
       [
        -79.6221,
        30.2611
       ],
       [
        -79.6221,
        30.25698
       ],
       [
        -79.62141,
        30.25698
       ],
       [
        -79.62141,
        30.25561
       ],
       [
        -79.6221,
        30.25561
       ],
       [
        -79.6221,
        30.25286
       ],
       [
        -79.62141,
        30.25286
       ],
       [
        -79.62141,
        30.25011
       ],
       [
        -79.6221,
        30.25011
       ],
       [
        -79.6221,
        30.24874
       ],
       [
        -79.62141,
        30.24874
       ],
       [
        -79.62141,
        30.24805
       ],
       [
        -79.6221,
        30.24805
       ],
       [
        -79.6221,
        30.24531
       ],
       [
        -79.62141,
        30.24531
       ],
       [
        -79.62141,
        30.24393
       ],
       [
        -79.62278,
        30.24393
       ],
       [
        -79.62278,
        30.24599
       ],
       [
        -79.62347,
        30.24599
       ],
       [
        -79.62347,
        30.24874
       ],
       [
        -79.62416,
        30.24874
       ],
       [
        -79.62416,
        30.25217
       ],
       [
        -79.62484,
        30.25217
       ],
       [
        -79.62484,
        30.25286
       ],
       [
        -79.62416,
        30.25286
       ],
       [
        -79.62416,
        30.25973
       ],
       [
        -79.62484,
        30.25973
       ],
       [
        -79.62484,
        30.26041
       ],
       [
        -79.62553,
        30.26041
       ],
       [
        -79.62553,
        30.2611
       ],
       [
        -79.62484,
        30.2611
       ],
       [
        -79.62484,
        30.26179
       ],
       [
        -79.62416,
        30.26179
       ],
       [
        -79.62416,
        30.26385
       ],
       [
        -79.62553,
        30.26385
       ],
       [
        -79.62553,
        30.26865
       ],
       [
        -79.62622,
        30.26865
       ],
       [
        -79.62622,
        30.27483
       ],
       [
        -79.62553,
        30.27483
       ],
       [
        -79.62553,
        30.27552
       ],
       [
        -79.62622,
        30.27552
       ],
       [
        -79.62622,
        30.27758
       ],
       [
        -79.62553,
        30.27758
       ],
       [
        -79.62553,
        30.27895
       ],
       [
        -79.62622,
        30.27895
       ],
       [
        -79.62622,
        30.28101
       ],
       [
        -79.6269,
        30.28101
       ],
       [
        -79.6269,
        30.28376
       ]
      ]
     ],
     [
      [
       [
        -79.63102,
        30.35998
       ],
       [
        -79.62965,
        30.35998
       ],
       [
        -79.62965,
        30.35723
       ],
       [
        -79.62896,
        30.35723
       ],
       [
        -79.62896,
        30.35654
       ],
       [
        -79.62965,
        30.35654
       ],
       [
        -79.62965,
        30.35517
       ],
       [
        -79.62896,
        30.35517
       ],
       [
        -79.62896,
        30.35448
       ],
       [
        -79.62965,
        30.35448
       ],
       [
        -79.62965,
        30.35174
       ],
       [
        -79.62896,
        30.35174
       ],
       [
        -79.62896,
        30.35105
       ],
       [
        -79.62759,
        30.35105
       ],
       [
        -79.62759,
        30.34968
       ],
       [
        -79.62828,
        30.34968
       ],
       [
        -79.62828,
        30.34693
       ],
       [
        -79.62759,
        30.34693
       ],
       [
        -79.62759,
        30.34281
       ],
       [
        -79.6269,
        30.34281
       ],
       [
        -79.6269,
        30.34144
       ],
       [
        -79.62759,
        30.34144
       ],
       [
        -79.62759,
        30.33938
       ],
       [
        -79.6269,
        30.33938
       ],
       [
        -79.6269,
        30.33732
       ],
       [
        -79.62622,
        30.33732
       ],
       [
        -79.62622,
        30.33594
       ],
       [
        -79.6269,
        30.33594
       ],
       [
        -79.6269,
        30.33526
       ],
       [
        -79.62622,
        30.33526
       ],
       [
        -79.62622,
        30.33388
       ],
       [
        -79.62759,
        30.33388
       ],
       [
        -79.62759,
        30.33114
       ],
       [
        -79.6269,
        30.33114
       ],
       [
        -79.6269,
        30.32702
       ],
       [
        -79.62622,
        30.32702
       ],
       [
        -79.62622,
        30.32633
       ],
       [
        -79.6269,
        30.32633
       ],
       [
        -79.6269,
        30.3229
       ],
       [
        -79.62622,
        30.3229
       ],
       [
        -79.62622,
        30.32152
       ],
       [
        -79.6269,
        30.32152
       ],
       [
        -79.6269,
        30.32015
       ],
       [
        -79.62622,
        30.32015
       ],
       [
        -79.62622,
        30.3174
       ],
       [
        -79.6269,
        30.3174
       ],
       [
        -79.6269,
        30.31603
       ],
       [
        -79.62622,
        30.31603
       ],
       [
        -79.62622,
        30.31397
       ],
       [
        -79.6269,
        30.31397
       ],
       [
        -79.6269,
        30.31191
       ],
       [
        -79.62622,
        30.31191
       ],
       [
        -79.62622,
        30.30916
       ],
       [
        -79.6269,
        30.30916
       ],
       [
        -79.6269,
        30.30779
       ],
       [
        -79.62622,
        30.30779
       ],
       [
        -79.62622,
        30.30642
       ],
       [
        -79.6269,
        30.30642
       ],
       [
        -79.6269,
        30.30298
       ],
       [
        -79.62622,
        30.30298
       ],
       [
        -79.62622,
        30.30092
       ],
       [
        -79.6269,
        30.30092
       ],
       [
        -79.6269,
        30.29955
       ],
       [
        -79.62622,
        30.29955
       ],
       [
        -79.62622,
        30.29818
       ],
       [
        -79.6269,
        30.29818
       ],
       [
        -79.6269,
        30.29543
       ],
       [
        -79.62622,
        30.29543
       ],
       [
        -79.62622,
        30.29131
       ],
       [
        -79.62553,
        30.29131
       ],
       [
        -79.62553,
        30.28856
       ],
       [
        -79.62416,
        30.28856
       ],
       [
        -79.62416,
        30.2865
       ],
       [
        -79.62484,
        30.2865
       ],
       [
        -79.62484,
        30.28582
       ],
       [
        -79.62553,
        30.28582
       ],
       [
        -79.62553,
        30.28513
       ],
       [
        -79.62484,
        30.28513
       ],
       [
        -79.62484,
        30.28445
       ],
       [
        -79.62622,
        30.28445
       ],
       [
        -79.62622,
        30.28513
       ],
       [
        -79.62759,
        30.28513
       ],
       [
        -79.62759,
        30.2865
       ],
       [
        -79.6269,
        30.2865
       ],
       [
        -79.6269,
        30.28719
       ],
       [
        -79.62759,
        30.28719
       ],
       [
        -79.62759,
        30.29543
       ],
       [
        -79.62828,
        30.29543
       ],
       [
        -79.62828,
        30.30161
       ],
       [
        -79.62759,
        30.30161
       ],
       [
        -79.62759,
        30.3023
       ],
       [
        -79.62828,
        30.3023
       ],
       [
        -79.62828,
        30.30504
       ],
       [
        -79.62759,
        30.30504
       ],
       [
        -79.62759,
        30.30779
       ],
       [
        -79.62828,
        30.30779
       ],
       [
        -79.62828,
        30.30848
       ],
       [
        -79.62759,
        30.30848
       ],
       [
        -79.62759,
        30.30916
       ],
       [
        -79.62828,
        30.30916
       ],
       [
        -79.62828,
        30.30985
       ],
       [
        -79.62759,
        30.30985
       ],
       [
        -79.62759,
        30.31191
       ],
       [
        -79.62828,
        30.31191
       ],
       [
        -79.62828,
        30.31328
       ],
       [
        -79.62759,
        30.31328
       ],
       [
        -79.62759,
        30.31466
       ],
       [
        -79.62828,
        30.31466
       ],
       [
        -79.62828,
        30.3174
       ],
       [
        -79.62759,
        30.3174
       ],
       [
        -79.62759,
        30.31878
       ],
       [
        -79.62828,
        30.31878
       ],
       [
        -79.62828,
        30.32015
       ],
       [
        -79.62759,
        30.32015
       ],
       [
        -79.62759,
        30.3229
       ],
       [
        -79.62828,
        30.3229
       ],
       [
        -79.62828,
        30.32564
       ],
       [
        -79.62759,
        30.32564
       ],
       [
        -79.62759,
        30.32702
       ],
       [
        -79.62828,
        30.32702
       ],
       [
        -79.62828,
        30.32908
       ],
       [
        -79.62896,
        30.32908
       ],
       [
        -79.62896,
        30.33526
       ],
       [
        -79.62965,
        30.33526
       ],
       [
        -79.62965,
        30.33594
       ],
       [
        -79.62896,
        30.33594
       ],
       [
        -79.62896,
        30.34075
       ],
       [
        -79.62965,
        30.34075
       ],
       [
        -79.62965,
        30.34212
       ],
       [
        -79.63033,
        30.34212
       ],
       [
        -79.63033,
        30.34281
       ],
       [
        -79.63102,
        30.34281
       ],
       [
        -79.63102,
        30.34418
       ],
       [
        -79.62896,
        30.34418
       ],
       [
        -79.62896,
        30.34487
       ],
       [
        -79.62965,
        30.34487
       ],
       [
        -79.62965,
        30.34556
       ],
       [
        -79.63033,
        30.34556
       ],
       [
        -79.63033,
        30.34624
       ],
       [
        -79.63102,
        30.34624
       ],
       [
        -79.63102,
        30.34762
       ],
       [
        -79.62896,
        30.34762
       ],
       [
        -79.62896,
        30.34968
       ],
       [
        -79.63033,
        30.34968
       ],
       [
        -79.63033,
        30.35036
       ],
       [
        -79.63102,
        30.35036
       ],
       [
        -79.63102,
        30.35517
       ],
       [
        -79.63033,
        30.35517
       ],
       [
        -79.63033,
        30.35792
       ],
       [
        -79.63102,
        30.35792
       ],
       [
        -79.63102,
        30.35998
       ]
      ]
     ],
     [
      [
       [
        -79.63171,
        30.37508
       ],
       [
        -79.63102,
        30.37508
       ],
       [
        -79.63102,
        30.3744
       ],
       [
        -79.63033,
        30.3744
       ],
       [
        -79.63033,
        30.37302
       ],
       [
        -79.62965,
        30.37302
       ],
       [
        -79.62965,
        30.37028
       ],
       [
        -79.62896,
        30.37028
       ],
       [
        -79.62896,
        30.3689
       ],
       [
        -79.62965,
        30.3689
       ],
       [
        -79.62965,
        30.36684
       ],
       [
        -79.63102,
        30.36684
       ],
       [
        -79.63102,
        30.37028
       ],
       [
        -79.63171,
        30.37028
       ],
       [
        -79.63171,
        30.37234
       ],
       [
        -79.63102,
        30.37234
       ],
       [
        -79.63102,
        30.37371
       ],
       [
        -79.63171,
        30.37371
       ],
       [
        -79.63171,
        30.37508
       ]
      ]
     ],
     [
      [
       [
        -79.62965,
        30.36684
       ],
       [
        -79.62896,
        30.36684
       ],
       [
        -79.62896,
        30.36341
       ],
       [
        -79.62965,
        30.36341
       ],
       [
        -79.62965,
        30.36684
       ]
      ]
     ],
     [
      [
       [
        -79.63239,
        30.39156
       ],
       [
        -79.63171,
        30.39156
       ],
       [
        -79.63171,
        30.39019
       ],
       [
        -79.63102,
        30.39019
       ],
       [
        -79.63102,
        30.38676
       ],
       [
        -79.62965,
        30.38676
       ],
       [
        -79.62965,
        30.38401
       ],
       [
        -79.63033,
        30.38401
       ],
       [
        -79.63033,
        30.38195
       ],
       [
        -79.62965,
        30.38195
       ],
       [
        -79.62965,
        30.37989
       ],
       [
        -79.63033,
        30.37989
       ],
       [
        -79.63033,
        30.38058
       ],
       [
        -79.63102,
        30.38058
       ],
       [
        -79.63102,
        30.38607
       ],
       [
        -79.63171,
        30.38607
       ],
       [
        -79.63171,
        30.3895
       ],
       [
        -79.63239,
        30.3895
       ],
       [
        -79.63239,
        30.39156
       ]
      ]
     ],
     [
      [
       [
        -79.63171,
        30.3792
       ],
       [
        -79.63033,
        30.3792
       ],
       [
        -79.63033,
        30.37852
       ],
       [
        -79.62965,
        30.37852
       ],
       [
        -79.62965,
        30.37714
       ],
       [
        -79.63102,
        30.37714
       ],
       [
        -79.63102,
        30.37852
       ],
       [
        -79.63171,
        30.37852
       ],
       [
        -79.63171,
        30.3792
       ]
      ]
     ],
     [
      [
       [
        -79.63651,
        30.41079
       ],
       [
        -79.63583,
        30.41079
       ],
       [
        -79.63583,
        30.4101
       ],
       [
        -79.63514,
        30.4101
       ],
       [
        -79.63514,
        30.40873
       ],
       [
        -79.63445,
        30.40873
       ],
       [
        -79.63445,
        30.40529
       ],
       [
        -79.63514,
        30.40529
       ],
       [
        -79.63514,
        30.40804
       ],
       [
        -79.63651,
        30.40804
       ],
       [
        -79.63651,
        30.41079
       ]
      ]
     ],
     [
      [
       [
        -79.63445,
        30.40529
       ],
       [
        -79.63377,
        30.40529
       ],
       [
        -79.63377,
        30.40117
       ],
       [
        -79.63308,
        30.40117
       ],
       [
        -79.63308,
        30.39706
       ],
       [
        -79.63239,
        30.39706
       ],
       [
        -79.63239,
        30.39362
       ],
       [
        -79.63308,
        30.39362
       ],
       [
        -79.63308,
        30.39637
       ],
       [
        -79.63377,
        30.39637
       ],
       [
        -79.63377,
        30.39911
       ],
       [
        -79.63445,
        30.39911
       ],
       [
        -79.63445,
        30.40529
       ]
      ]
     ],
     [
      [
       [
        -79.63239,
        30.39362
       ],
       [
        -79.63171,
        30.39362
       ],
       [
        -79.63171,
        30.39225
       ],
       [
        -79.63239,
        30.39225
       ],
       [
        -79.63239,
        30.39362
       ]
      ]
     ],
     [
      [
       [
        -79.63514,
        30.4101
       ],
       [
        -79.63514,
        30.41147
       ],
       [
        -79.63583,
        30.41147
       ],
       [
        -79.63583,
        30.41216
       ],
       [
        -79.63651,
        30.41216
       ],
       [
        -79.63651,
        30.41147
       ],
       [
        -79.6372,
        30.41147
       ],
       [
        -79.6372,
        30.41697
       ],
       [
        -79.63651,
        30.41697
       ],
       [
        -79.63651,
        30.41834
       ],
       [
        -79.63583,
        30.41834
       ],
       [
        -79.63583,
        30.41903
       ],
       [
        -79.63514,
        30.41903
       ],
       [
        -79.63514,
        30.41697
       ],
       [
        -79.63445,
        30.41697
       ],
       [
        -79.63445,
        30.41628
       ],
       [
        -79.63514,
        30.41628
       ],
       [
        -79.63514,
        30.41559
       ],
       [
        -79.63651,
        30.41559
       ],
       [
        -79.63651,
        30.41422
       ],
       [
        -79.63583,
        30.41422
       ],
       [
        -79.63583,
        30.41353
       ],
       [
        -79.63514,
        30.41353
       ],
       [
        -79.63514,
        30.41285
       ],
       [
        -79.63445,
        30.41285
       ],
       [
        -79.63445,
        30.4101
       ],
       [
        -79.63514,
        30.4101
       ]
      ]
     ],
     [
      [
       [
        -79.6372,
        30.42177
       ],
       [
        -79.63651,
        30.42177
       ],
       [
        -79.63651,
        30.42109
       ],
       [
        -79.6372,
        30.42109
       ],
       [
        -79.6372,
        30.42177
       ]
      ]
     ],
     [
      [
       [
        -79.63651,
        30.42109
       ],
       [
        -79.63445,
        30.42109
       ],
       [
        -79.63445,
        30.4204
       ],
       [
        -79.63651,
        30.4204
       ],
       [
        -79.63651,
        30.42109
       ]
      ]
     ],
     [
      [
       [
        -79.63789,
        30.42864
       ],
       [
        -79.6372,
        30.42864
       ],
       [
        -79.6372,
        30.42658
       ],
       [
        -79.63651,
        30.42658
       ],
       [
        -79.63651,
        30.42452
       ],
       [
        -79.63583,
        30.42452
       ],
       [
        -79.63583,
        30.42383
       ],
       [
        -79.63514,
        30.42383
       ],
       [
        -79.63514,
        30.42246
       ],
       [
        -79.6372,
        30.42246
       ],
       [
        -79.6372,
        30.42452
       ],
       [
        -79.63789,
        30.42452
       ],
       [
        -79.63789,
        30.42864
       ]
      ]
     ],
     [
      [
       [
        -79.64063,
        30.45885
       ],
       [
        -79.63995,
        30.45885
       ],
       [
        -79.63995,
        30.45061
       ],
       [
        -79.63926,
        30.45061
       ],
       [
        -79.63926,
        30.43963
       ],
       [
        -79.63857,
        30.43963
       ],
       [
        -79.63857,
        30.43894
       ],
       [
        -79.63926,
        30.43894
       ],
       [
        -79.63926,
        30.43757
       ],
       [
        -79.63857,
        30.43757
       ],
       [
        -79.63857,
        30.43482
       ],
       [
        -79.63789,
        30.43482
       ],
       [
        -79.63789,
        30.43139
       ],
       [
        -79.63857,
        30.43139
       ],
       [
        -79.63857,
        30.43345
       ],
       [
        -79.63926,
        30.43345
       ],
       [
        -79.63926,
        30.43551
       ],
       [
        -79.63995,
        30.43551
       ],
       [
        -79.63995,
        30.44237
       ],
       [
        -79.64063,
        30.44237
       ],
       [
        -79.64063,
        30.44443
       ],
       [
        -79.63995,
        30.44443
       ],
       [
        -79.63995,
        30.44649
       ],
       [
        -79.64063,
        30.44649
       ],
       [
        -79.64063,
        30.44787
       ],
       [
        -79.63995,
        30.44787
       ],
       [
        -79.63995,
        30.44855
       ],
       [
        -79.64063,
        30.44855
       ],
       [
        -79.64063,
        30.45061
       ],
       [
        -79.64132,
        30.45061
       ],
       [
        -79.64132,
        30.45199
       ],
       [
        -79.64063,
        30.45199
       ],
       [
        -79.64063,
        30.45885
       ]
      ]
     ],
     [
      [
       [
        -79.63789,
        30.43139
       ],
       [
        -79.6372,
        30.43139
       ],
       [
        -79.6372,
        30.42933
       ],
       [
        -79.63857,
        30.42933
       ],
       [
        -79.63857,
        30.43001
       ],
       [
        -79.63789,
        30.43001
       ],
       [
        -79.63789,
        30.43139
       ]
      ]
     ],
     [
      [
       [
        -79.6475,
        30.52134
       ],
       [
        -79.64681,
        30.52134
       ],
       [
        -79.64681,
        30.51996
       ],
       [
        -79.64613,
        30.51996
       ],
       [
        -79.64613,
        30.51378
       ],
       [
        -79.64544,
        30.51378
       ],
       [
        -79.64544,
        30.51035
       ],
       [
        -79.64475,
        30.51035
       ],
       [
        -79.64475,
        30.50555
       ],
       [
        -79.64544,
        30.50555
       ],
       [
        -79.64544,
        30.50966
       ],
       [
        -79.64681,
        30.50966
       ],
       [
        -79.64681,
        30.51241
       ],
       [
        -79.6475,
        30.51241
       ],
       [
        -79.6475,
        30.52134
       ]
      ]
     ],
     [
      [
       [
        -79.64475,
        30.50555
       ],
       [
        -79.64407,
        30.50555
       ],
       [
        -79.64407,
        30.50417
       ],
       [
        -79.64338,
        30.50417
       ],
       [
        -79.64338,
        30.5028
       ],
       [
        -79.64269,
        30.5028
       ],
       [
        -79.64269,
        30.50211
       ],
       [
        -79.64201,
        30.50211
       ],
       [
        -79.64201,
        30.49937
       ],
       [
        -79.64063,
        30.49937
       ],
       [
        -79.64063,
        30.49868
       ],
       [
        -79.64132,
        30.49868
       ],
       [
        -79.64132,
        30.49799
       ],
       [
        -79.64201,
        30.49799
       ],
       [
        -79.64201,
        30.49525
       ],
       [
        -79.64269,
        30.49525
       ],
       [
        -79.64269,
        30.48769
       ],
       [
        -79.64201,
        30.48769
       ],
       [
        -79.64201,
        30.48701
       ],
       [
        -79.64132,
        30.48701
       ],
       [
        -79.64132,
        30.48563
       ],
       [
        -79.64063,
        30.48563
       ],
       [
        -79.64063,
        30.48495
       ],
       [
        -79.64132,
        30.48495
       ],
       [
        -79.64132,
        30.48426
       ],
       [
        -79.64201,
        30.48426
       ],
       [
        -79.64201,
        30.48289
       ],
       [
        -79.64132,
        30.48289
       ],
       [
        -79.64132,
        30.48151
       ],
       [
        -79.64201,
        30.48151
       ],
       [
        -79.64201,
        30.47945
       ],
       [
        -79.64132,
        30.47945
       ],
       [
        -79.64132,
        30.47877
       ],
       [
        -79.64063,
        30.47877
       ],
       [
        -79.64063,
        30.47602
       ],
       [
        -79.63995,
        30.47602
       ],
       [
        -79.63995,
        30.47327
       ],
       [
        -79.64063,
        30.47327
       ],
       [
        -79.64063,
        30.47121
       ],
       [
        -79.63995,
        30.47121
       ],
       [
        -79.63995,
        30.46435
       ],
       [
        -79.64063,
        30.46435
       ],
       [
        -79.64063,
        30.46366
       ],
       [
        -79.63995,
        30.46366
       ],
       [
        -79.63995,
        30.45954
       ],
       [
        -79.64132,
        30.45954
       ],
       [
        -79.64132,
        30.46091
       ],
       [
        -79.64063,
        30.46091
       ],
       [
        -79.64063,
        30.4616
       ],
       [
        -79.64132,
        30.4616
       ],
       [
        -79.64132,
        30.46229
       ],
       [
        -79.64201,
        30.46229
       ],
       [
        -79.64201,
        30.46503
       ],
       [
        -79.64132,
        30.46503
       ],
       [
        -79.64132,
        30.46572
       ],
       [
        -79.64063,
        30.46572
       ],
       [
        -79.64063,
        30.46641
       ],
       [
        -79.64132,
        30.46641
       ],
       [
        -79.64132,
        30.46709
       ],
       [
        -79.64269,
        30.46709
       ],
       [
        -79.64269,
        30.47121
       ],
       [
        -79.64338,
        30.47121
       ],
       [
        -79.64338,
        30.4719
       ],
       [
        -79.64269,
        30.4719
       ],
       [
        -79.64269,
        30.47396
       ],
       [
        -79.64407,
        30.47396
       ],
       [
        -79.64407,
        30.47533
       ],
       [
        -79.64338,
        30.47533
       ],
       [
        -79.64338,
        30.47808
       ],
       [
        -79.64407,
        30.47808
       ],
       [
        -79.64407,
        30.48495
       ],
       [
        -79.64338,
        30.48495
       ],
       [
        -79.64338,
        30.48632
       ],
       [
        -79.64407,
        30.48632
       ],
       [
        -79.64407,
        30.48769
       ],
       [
        -79.64338,
        30.48769
       ],
       [
        -79.64338,
        30.49593
       ],
       [
        -79.64269,
        30.49593
       ],
       [
        -79.64269,
        30.49868
       ],
       [
        -79.64338,
        30.49868
       ],
       [
        -79.64338,
        30.50211
       ],
       [
        -79.64407,
        30.50211
       ],
       [
        -79.64407,
        30.5028
       ],
       [
        -79.64475,
        30.5028
       ],
       [
        -79.64475,
        30.50555
       ]
      ]
     ],
     [
      [
       [
        -79.64819,
        30.52408
       ],
       [
        -79.6475,
        30.52408
       ],
       [
        -79.6475,
        30.5234
       ],
       [
        -79.64819,
        30.5234
       ],
       [
        -79.64819,
        30.52408
       ]
      ]
     ]
    ]
   },
   "properties": {
    "id": 3046293,
    "slick_timestamp": "2024-07-30T23:21:29",
    "s1_scene_id": "S1A_IW_GRDH_1SDV_20240730T232129_20240730T232154_054997_06B32C_7973",
    "length": 31168.53074696,
    "area": 4547165.843020767,
    "perimeter": 77477.27401092596,
    "machine_confidence": 0.7952205538749695,
    "polsby_popper": 0.00951923381186397,
    "fill_factor": 0.22024182553535757,
    "linearity": 22443.463214486983,
    "source": "SkyTruth Cerulean, public API (api.cerulean.skytruth.org)",
    "note": "Reference polygon from an operational detector. NOT ground truth and NOT a NAAP detection \u2014 Cerulean state plainly that SAR alone cannot definitively identify oil. Source attribution deliberately omitted (Master Plan Part 16)."
   }
  },
  {
   "type": "Feature",
   "geometry": {
    "type": "LineString",
    "coordinates": [
     [
      -79.64781,
      30.52376
     ],
     [
      -79.64683,
      30.51968
     ],
     [
      -79.6468,
      30.51669
     ],
     [
      -79.64637,
      30.51238
     ],
     [
      -79.64469,
      30.50574
     ],
     [
      -79.64211,
      30.49897
     ],
     [
      -79.64273,
      30.49329
     ],
     [
      -79.64274,
      30.488
     ],
     [
      -79.64234,
      30.48514
     ],
     [
      -79.64251,
      30.48085
     ],
     [
      -79.64051,
      30.45844
     ],
     [
      -79.64045,
      30.45159
     ],
     [
      -79.64004,
      30.44883
     ],
     [
      -79.63992,
      30.44263
     ],
     [
      -79.63933,
      30.43968
     ],
     [
      -79.63908,
      30.43584
     ],
     [
      -79.63806,
      30.43181
     ],
     [
      -79.6378,
      30.42925
     ],
     [
      -79.63695,
      30.42528
     ],
     [
      -79.63632,
      30.42344
     ],
     [
      -79.63586,
      30.4212
     ],
     [
      -79.63584,
      30.41222
     ],
     [
      -79.63548,
      30.40844
     ],
     [
      -79.63433,
      30.40447
     ],
     [
      -79.63385,
      30.40161
     ],
     [
      -79.63367,
      30.39906
     ],
     [
      -79.63227,
      30.39325
     ],
     [
      -79.63176,
      30.39005
     ],
     [
      -79.63067,
      30.38619
     ],
     [
      -79.63049,
      30.38163
     ],
     [
      -79.63068,
      30.37921
     ],
     [
      -79.63074,
      30.37474
     ],
     [
      -79.6298,
      30.36412
     ],
     [
      -79.63015,
      30.35951
     ],
     [
      -79.62986,
      30.35442
     ],
     [
      -79.62929,
      30.35062
     ],
     [
      -79.62933,
      30.34702
     ],
     [
      -79.62904,
      30.34316
     ],
     [
      -79.62796,
      30.3374
     ],
     [
      -79.62775,
      30.33334
     ],
     [
      -79.62778,
      30.32964
     ],
     [
      -79.6273,
      30.32644
     ],
     [
      -79.62729,
      30.2962
     ],
     [
      -79.62664,
      30.29176
     ],
     [
      -79.62588,
      30.28821
     ],
     [
      -79.62587,
      30.2852
     ],
     [
      -79.62451,
      30.27602
     ],
     [
      -79.62449,
      30.26878
     ],
     [
      -79.62381,
      30.26424
     ],
     [
      -79.62381,
      30.2607
     ],
     [
      -79.62305,
      30.25645
     ],
     [
      -79.62314,
      30.25271
     ],
     [
      -79.62284,
      30.24955
     ],
     [
      -79.62241,
      30.24577
     ],
     [
      -79.62205,
      30.24444
     ]
    ]
   },
   "properties": {
    "role": "centerline",
    "index": 0,
    "area": 6857266.754790403,
    "length": 31188.679451155404
   }
  }
 ]
}
