{"type": "FeatureCollection", "features": [{"type": "Feature", "geometry": {"type": "LineString", "coordinates": [[-79.84706, 30.17638], [-79.84643, 30.17213], [-79.84584, 30.16803], [-79.8452, 30.16374], [-79.84458, 30.15945], [-79.84396, 30.15516], [-79.84339, 30.1515], [-79.84264, 30.14723], [-79.84198, 30.14293], [-79.84135, 30.13872], [-79.84073, 30.13443], [-79.84007, 30.1301], [-79.83939, 30.12584], [-79.8387, 30.12163], [-79.83797, 30.11722], [-79.83728, 30.113], [-79.83669, 30.10934], [-79.83599, 30.10506], [-79.83551, 30.10201], [-79.83461, 30.09655], [-79.83383, 30.09226], [-79.83301, 30.08733], [-79.83227, 30.08304], [-79.83143, 30.07815], [-79.83068, 30.07382], [-79.82995, 30.06963], [-79.8292, 30.06537], [-79.82844, 30.06116], [-79.82772, 30.05743], [-79.82695, 30.05318], [-79.82627, 30.04954], [-79.82548, 30.0453], [-79.82476, 30.04111], [-79.82399, 30.03679], [-79.82329, 30.0326], [-79.82257, 30.02829], [-79.8218, 30.02404], [-79.82104, 30.01987], [-79.82038, 30.01626], [-79.81963, 30.01208], [-79.81892, 30.00783], [-79.81816, 30.00362], [-79.81737, 29.99948], [-79.81662, 29.99526], [-79.81578, 29.99101], [-79.815, 29.98681], [-79.81428, 29.98265], [-79.81346, 29.97838], [-79.81268, 29.97416], [-79.81197, 29.97058], [-79.8106, 29.96339], [-79.80985, 29.95927], [-79.80903, 29.95511], [-79.80822, 29.95097], [-79.80742, 29.94676], [-79.80659, 29.94262], [-79.80578, 29.93856], [-79.80498, 29.93436], [-79.8042, 29.9302], [-79.80338, 29.92605], [-79.80257, 29.9219], [-79.80173, 29.91772], [-79.80057, 29.91187], [-79.79977, 29.90777], [-79.79891, 29.90362], [-79.79742, 29.89661], [-79.79616, 29.89084], [-79.7953, 29.88682], [-79.79518, 29.88624], [-79.79421, 29.88159], [-79.79311, 29.87639], [-79.79215, 29.87171], [-79.79132, 29.86771], [-79.79006, 29.86187], [-79.78921, 29.85783], [-79.78835, 29.85374], [-79.78752, 29.84976], [-79.78669, 29.84576], [-79.78578, 29.84167], [-79.78504, 29.83819], [-79.78421, 29.83424], [-79.78331, 29.83021], [-79.78244, 29.82614], [-79.78157, 29.82213], [-79.78057, 29.81758], [-79.77969, 29.81363], [-79.77876, 29.80964], [-79.77781, 29.8056], [-79.77702, 29.80212], [-79.77607, 29.79752], [-79.77527, 29.79363], [-79.77437, 29.78951], [-79.77346, 29.78564], [-79.77256, 29.78152], [-79.77168, 29.7775], [-79.77083, 29.77348], [-79.76999, 29.76953], [-79.76909, 29.76553], [-79.76815, 29.76158], [-79.76718, 29.75753], [-79.76631, 29.7535], [-79.76545, 29.74954], [-79.76458, 29.74547], [-79.76373, 29.74151], [-79.76286, 29.73739], [-79.76195, 29.7335], [-79.76102, 29.72949], [-79.75977, 29.72361], [-79.75896, 29.71971], [-79.75807, 29.7156], [-79.75699, 29.71101], [-79.75608, 29.70692], [-79.75523, 29.7029], [-79.7543, 29.69833], [-79.7534, 29.6942], [-79.75238, 29.68965], [-79.75151, 29.68552], [-79.75068, 29.68146], [-79.75034, 29.6797], [-79.74949, 29.67572], [-79.74861, 29.67173], [-79.74772, 29.66762], [-79.74685, 29.6635], [-79.74597, 29.65945], [-79.7451, 29.65544], [-79.74425, 29.65154], [-79.74337, 29.64747], [-79.74252, 29.64343], [-79.7417, 29.63945], [-79.74088, 29.63533], [-79.73969, 29.62897], [-79.73887, 29.62426], [-79.73798, 29.61912], [-79.7372, 29.61502], [-79.73656, 29.61148], [-79.73583, 29.60748], [-79.7351, 29.6034], [-79.73441, 29.59936], [-79.73368, 29.59538], [-79.73289, 29.5913], [-79.73211, 29.58726], [-79.73139, 29.58327], [-79.73064, 29.57917], [-79.73011, 29.57522], [-79.72979, 29.57047], [-79.72963, 29.56636], [-79.72952, 29.56226], [-79.72942, 29.55824], [-79.72931, 29.55416], [-79.72919, 29.55], [-79.72905, 29.54592], [-79.7289, 29.54185], [-79.72878, 29.53777], [-79.72868, 29.53372], [-79.72859, 29.52972], [-79.72846, 29.52559], [-79.72834, 29.52147], [-79.72824, 29.51745], [-79.72811, 29.51282], [-79.72798, 29.50882], [-79.72788, 29.50474], [-79.72783, 29.50059], [-79.72776, 29.49663], [-79.72777, 29.49317], [-79.7278, 29.48915], [-79.72783, 29.48513], [-79.72785, 29.48109], [-79.72785, 29.47715], [-79.72788, 29.47308], [-79.7279, 29.47137], [-79.72792, 29.46738], [-79.72792, 29.46332], [-79.72794, 29.45936], [-79.72796, 29.45596], [-79.72798, 29.45197], [-79.72787, 29.44746], [-79.7275, 29.44353], [-79.72707, 29.4396], [-79.72654, 29.43567], [-79.72592, 29.43171], [-79.72509, 29.42717], [-79.72437, 29.42336], [-79.72368, 29.41936], [-79.72295, 29.41543], [-79.72209, 29.41148], [-79.72123, 29.40769], [-79.72032, 29.40377], [-79.7195, 29.39984], [-79.71857, 29.39589], [-79.7177, 29.39195], [-79.71667, 29.3875], [-79.71574, 29.38349], [-79.71486, 29.37953], [-79.71395, 29.37559], [-79.71308, 29.37165], [-79.71219, 29.3678], [-79.71125, 29.36389], [-79.71031, 29.35987], [-79.70927, 29.35489], [-79.70838, 29.35105], [-79.7074, 29.34709], [-79.70653, 29.34311], [-79.70571, 29.33924], [-79.70484, 29.3354], [-79.7039, 29.33144], [-79.70305, 29.32752], [-79.70216, 29.32356], [-79.70124, 29.31977], [-79.70036, 29.31579], [-79.69948, 29.3119], [-79.69868, 29.30797], [-79.698, 29.30404], [-79.69728, 29.30018], [-79.69673, 29.29621], [-79.69631, 29.29213], [-79.69603, 29.2876], [-79.69593, 29.28367], [-79.69584, 29.27968], [-79.6958, 29.2757], [-79.69572, 29.27116], [-79.6957, 29.26837], [-79.69564, 29.26437], [-79.69559, 29.26049], [-79.69551, 29.25656], [-79.69539, 29.25255], [-79.6953, 29.24864], [-79.69526, 29.24519], [-79.69517, 29.24132], [-79.69511, 29.23675], [-79.6951, 29.23227], [-79.69508, 29.22834], [-79.69508, 29.22443], [-79.69504, 29.22052], [-79.69498, 29.21609], [-79.69497, 29.21217], [-79.69494, 29.20818], [-79.69496, 29.2043], [-79.69492, 29.20028], [-79.69489, 29.19642], [-79.6949, 29.19245], [-79.6949, 29.18857], [-79.69488, 29.18459], [-79.69487, 29.18077], [-79.69492, 29.17682], [-79.69495, 29.17236], [-79.69496, 29.16852], [-79.69494, 29.16456], [-79.69492, 29.16073], [-79.69497, 29.15682], [-79.69503, 29.15345], [-79.69509, 29.14954], [-79.69513, 29.14566], [-79.69513, 29.14185], [-79.6951, 29.13794], [-79.69513, 29.13404], [-79.69519, 29.1302], [-79.69525, 29.12622], [-79.69533, 29.12231], [-79.69542, 29.11838], [-79.69548, 29.11448], [-79.69555, 29.11059], [-79.69564, 29.10611], [-79.69569, 29.10164], [-79.69574, 29.09771], [-79.69587, 29.09373], [-79.69606, 29.08917], [-79.69618, 29.0852], [-79.69632, 29.08137], [-79.69651, 29.07738], [-79.69663, 29.07348], [-79.69679, 29.06953], [-79.69684, 29.06677], [-79.69676, 29.06281], [-79.69664, 29.05891], [-79.69653, 29.055], [-79.69639, 29.05107], [-79.6963, 29.04712], [-79.69618, 29.0432], [-79.69601, 29.03928], [-79.69586, 29.03588], [-79.69571, 29.03129], [-79.69561, 29.02732], [-79.69541, 29.02272], [-79.69524, 29.01823], [-79.69511, 29.01425], [-79.69507, 29.0103], [-79.69496, 29.00623], [-79.69482, 29.00224], [-79.69474, 28.99768], [-79.69471, 28.99371], [-79.69462, 28.9897], [-79.69448, 28.98579], [-79.69433, 28.98174], [-79.69426, 28.97782], [-79.69419, 28.97384], [-79.69402, 28.96984], [-79.6939, 28.96577], [-79.69374, 28.96173], [-79.69365, 28.95774], [-79.69359, 28.95374], [-79.69355, 28.94981], [-79.6935, 28.94583], [-79.69341, 28.94189], [-79.69334, 28.93791], [-79.69326, 28.93335], [-79.69317, 28.92937], [-79.69308, 28.92536], [-79.69292, 28.92142], [-79.69276, 28.91732], [-79.6928, 28.91335], [-79.69297, 28.90937], [-79.69317, 28.90528], [-79.69344, 28.90126], [-79.69368, 28.8966], [-79.69382, 28.89257], [-79.69404, 28.88859], [-79.69424, 28.88402], [-79.69453, 28.87817], [-79.69476, 28.87415], [-79.69481, 28.87007], [-79.69494, 28.86536], [-79.69507, 28.86186], [-79.69512, 28.85778], [-79.69514, 28.85373], [-79.69522, 28.84971], [-79.69524, 28.8456], [-79.69536, 28.84159], [-79.69549, 28.83747], [-79.69556, 28.83341], [-79.6956, 28.82939], [-79.69564, 28.82525], [-79.69568, 28.82119], [-79.69578, 28.81718], [-79.69587, 28.81311], [-79.69594, 28.80957], [-79.69605, 28.80556], [-79.69609, 28.80143], [-79.69614, 28.79731], [-79.69628, 28.7915], [-79.69642, 28.78692], [-79.69647, 28.78283], [-79.69653, 28.77878], [-79.69664, 28.77466], [-79.69672, 28.77006], [-79.69671, 28.76604], [-79.69671, 28.76191], [-79.69681, 28.75781], [-79.69687, 28.75372], [-79.69691, 28.74962], [-79.69695, 28.74554], [-79.69703, 28.74152], [-79.69711, 28.73737], [-79.69715, 28.73333], [-79.69719, 28.7292], [-79.69723, 28.72512], [-79.6973, 28.72095], [-79.69732, 28.71684], [-79.69736, 28.71272], [-79.69743, 28.70855], [-79.69756, 28.70448], [-79.69762, 28.70039], [-79.69771, 28.69619], [-79.69776, 28.69206], [-79.69777, 28.6874], [-79.69777, 28.68326], [-79.69785, 28.67916], [-79.69791, 28.67499], [-79.698, 28.67088], [-79.69805, 28.66683], [-79.69812, 28.66212], [-79.69817, 28.65793], [-79.69828, 28.65382], [-79.69837, 28.64557], [-79.69844, 28.64144], [-79.69853, 28.63735], [-79.69855, 28.63317], [-79.69858, 28.62896], [-79.69858, 28.62494], [-79.69862, 28.62089], [-79.69864, 28.61676], [-79.69867, 28.61315], [-79.69871, 28.60905], [-79.69872, 28.60498], [-79.69867, 28.60081], [-79.69859, 28.59663], [-79.69853, 28.59257], [-79.69844, 28.58786], [-79.69837, 28.58376], [-79.69835, 28.57967], [-79.69831, 28.57548], [-79.69823, 28.57132], [-79.69817, 28.56726], [-79.69813, 28.56306], [-79.69807, 28.559], [-79.69797, 28.55497], [-79.69788, 28.55083], [-79.69785, 28.54674], [-79.69779, 28.54268], [-79.69773, 28.53853], [-79.69764, 28.53393], [-79.69755, 28.52975], [-79.69745, 28.52566], [-79.69734, 28.52152], [-79.69723, 28.51746], [-79.69716, 28.51331], [-79.69707, 28.50918], [-79.69708, 28.50504], [-79.69714, 28.50082], [-79.69727, 28.49612], [-79.69736, 28.49189], [-79.69743, 28.4878], [-79.69748, 28.48424], [-79.69758, 28.48009], [-79.69769, 28.47589], [-79.69776, 28.47117], [-79.69776, 28.46705], [-79.69776, 28.46287], [-79.69775, 28.45869], [-79.69774, 28.45453], [-79.6977, 28.45035], [-79.69767, 28.44562], [-79.69761, 28.44143], [-79.69757, 28.43838], [-79.69753, 28.43422], [-79.69746, 28.43058], [-79.69739, 28.42641], [-79.69733, 28.42221], [-79.69728, 28.41858], [-79.69722, 28.41454], [-79.69718, 28.41037], [-79.69713, 28.40607], [-79.69707, 28.40195], [-79.697, 28.39783], [-79.69691, 28.39367], [-79.69681, 28.3889], [-79.69675, 28.38474], [-79.69677, 28.38059], [-79.69687, 28.37637], [-79.697, 28.37219], [-79.69714, 28.36798], [-79.69729, 28.36387], [-79.69744, 28.35976], [-79.69757, 28.35495], [-79.69765, 28.35085], [-79.69779, 28.34663], [-79.6979, 28.34257], [-79.69804, 28.33834], [-79.69814, 28.33425], [-79.69826, 28.33004], [-79.69838, 28.32588], [-79.69847, 28.32179], [-79.69862, 28.31765], [-79.69872, 28.3135], [-79.69887, 28.3087], [-79.69897, 28.30462], [-79.69906, 28.30048]]}, "properties": {"mmsi": "636093219", "name": "NAGOYA EXPRESS", "vessel_type": "cargo", "n_points": 456, "n_points_full": 531, "max_gap_minutes": 2.4}}, {"type": "Feature", "geometry": {"type": "LineString", "coordinates": [[-79.7106, 28.18652], [-79.71071, 28.1911], [-79.71084, 28.19581], [-79.71097, 28.20047], [-79.71108, 28.20512], [-79.71119, 28.20981], [-79.71131, 28.21449], [-79.71145, 28.22002], [-79.71159, 28.22554], [-79.71174, 28.23194], [-79.71187, 28.23705], [-79.71205, 28.24299], [-79.7122, 28.24893], [-79.7124, 28.2574], [-79.71251, 28.26208], [-79.71261, 28.26674], [-79.71276, 28.27351], [-79.71291, 28.27901], [-79.71304, 28.28366], [-79.71326, 28.29084], [-79.71339, 28.29548], [-79.71353, 28.3002], [-79.71387, 28.30983], [-79.71402, 28.31449], [-79.7142, 28.31913], [-79.71452, 28.32757], [-79.71475, 28.3339], [-79.71494, 28.33857], [-79.71519, 28.34493], [-79.71546, 28.35216], [-79.71569, 28.36065], [-79.71572, 28.3683], [-79.71574, 28.37338], [-79.7158, 28.37932], [-79.71582, 28.38913], [-79.71579, 28.39371], [-79.71577, 28.39879], [-79.71578, 28.4035], [-79.71576, 28.40809], [-79.71574, 28.41395], [-79.71573, 28.41946], [-79.71571, 28.42419], [-79.7157, 28.43098], [-79.71564, 28.43862], [-79.7156, 28.44592], [-79.71554, 28.45188], [-79.71546, 28.45734], [-79.71537, 28.4621], [-79.7153, 28.46672], [-79.71525, 28.47148], [-79.71518, 28.47608], [-79.71506, 28.48252], [-79.71498, 28.48713], [-79.7149, 28.49188], [-79.71482, 28.4969], [-79.71475, 28.50157], [-79.7147, 28.50618], [-79.71464, 28.51093], [-79.71455, 28.51561], [-79.71444, 28.52073], [-79.71421, 28.5318], [-79.71405, 28.5382], [-79.71363, 28.55402], [-79.71347, 28.56085], [-79.71336, 28.56555], [-79.71323, 28.57067], [-79.71306, 28.57582], [-79.71271, 28.58694], [-79.71254, 28.59163], [-79.71235, 28.59975], [-79.71222, 28.60437], [-79.71202, 28.61039], [-79.71191, 28.61506], [-79.71164, 28.62612], [-79.71151, 28.63039], [-79.71139, 28.63502], [-79.71126, 28.63976], [-79.71112, 28.64485], [-79.71096, 28.65124], [-79.71086, 28.65591], [-79.71077, 28.6606], [-79.71065, 28.66537], [-79.71055, 28.67], [-79.71044, 28.67477], [-79.71031, 28.68026], [-79.71018, 28.68624], [-79.71011, 28.6905], [-79.70995, 28.69824], [-79.70986, 28.70337], [-79.70979, 28.70804], [-79.7097, 28.71268], [-79.70959, 28.71831], [-79.70952, 28.72292], [-79.70938, 28.7289], [-79.70928, 28.73412], [-79.70918, 28.73879], [-79.70905, 28.7439], [-79.70893, 28.74958], [-79.70885, 28.75475], [-79.70875, 28.75953], [-79.70867, 28.76421], [-79.70855, 28.76902], [-79.70841, 28.77405], [-79.70824, 28.77925], [-79.70812, 28.78403], [-79.70796, 28.78894], [-79.70775, 28.79621], [-79.70761, 28.80104], [-79.70749, 28.80573], [-79.70735, 28.81056], [-79.70721, 28.81525], [-79.70704, 28.82131], [-79.70684, 28.82956], [-79.70669, 28.83424], [-79.70659, 28.83907], [-79.70645, 28.84383], [-79.70625, 28.84982], [-79.70608, 28.85544], [-79.70593, 28.86025], [-79.70587, 28.86199], [-79.70565, 28.86807], [-79.70552, 28.87277], [-79.70529, 28.87938], [-79.70512, 28.88418], [-79.70493, 28.889], [-79.70473, 28.89425], [-79.70454, 28.89993], [-79.70384, 28.91706], [-79.70349, 28.92573], [-79.70329, 28.93054], [-79.70309, 28.93536], [-79.70285, 28.94098], [-79.70264, 28.94586], [-79.70243, 28.95065], [-79.7022, 28.95547], [-79.70196, 28.96117], [-79.70141, 28.97298], [-79.70116, 28.97824], [-79.70091, 28.98307], [-79.70068, 28.98791], [-79.70043, 28.99271], [-79.70017, 28.99755], [-79.69992, 29.00236], [-79.69968, 29.00717], [-79.69939, 29.01285], [-79.69914, 29.01761], [-79.69885, 29.02315], [-79.69863, 29.02806], [-79.69795, 29.04095], [-79.69767, 29.04615], [-79.69741, 29.05093], [-79.69715, 29.05578], [-79.69687, 29.06092], [-79.69657, 29.06567], [-79.69631, 29.07083], [-79.69609, 29.07571], [-79.69585, 29.08083], [-79.69559, 29.08575], [-79.69521, 29.09184], [-79.69493, 29.09659], [-79.69466, 29.1014], [-79.69439, 29.10646], [-79.69411, 29.11166], [-79.69377, 29.11698], [-79.69362, 29.12223], [-79.69361, 29.12347], [-79.69353, 29.13005], [-79.69347, 29.13491], [-79.69339, 29.13967], [-79.69332, 29.14445], [-79.69325, 29.14938], [-79.69317, 29.15429], [-79.69307, 29.15936], [-79.69296, 29.1646], [-79.69289, 29.16948], [-79.69282, 29.17465], [-79.69273, 29.18398], [-79.69267, 29.18922], [-79.69258, 29.19395], [-79.69247, 29.20091], [-79.6924, 29.20567], [-79.69192, 29.23208], [-79.6918, 29.23901], [-79.69166, 29.24502], [-79.69155, 29.24988], [-79.69124, 29.26152], [-79.69089, 29.2888], [-79.69084, 29.29398], [-79.69079, 29.29872], [-79.69078, 29.30348], [-79.69075, 29.30911], [-79.69072, 29.31649], [-79.69065, 29.32081], [-79.6906, 29.32556], [-79.69056, 29.33073], [-79.6905, 29.33938], [-79.69044, 29.34457], [-79.69036, 29.34934], [-79.69028, 29.35409], [-79.69022, 29.35884], [-79.69015, 29.36361], [-79.69008, 29.36829], [-79.69, 29.3731], [-79.68987, 29.37826], [-79.68976, 29.3834], [-79.68971, 29.38813], [-79.68965, 29.39287], [-79.68955, 29.3976], [-79.6895, 29.40233], [-79.68943, 29.40749], [-79.68928, 29.41531], [-79.68911, 29.42253], [-79.68901, 29.42719], [-79.68892, 29.43198], [-79.68878, 29.43662], [-79.68866, 29.44141], [-79.68856, 29.44621], [-79.68845, 29.45088], [-79.68853, 29.45562], [-79.68865, 29.46033], [-79.6888, 29.46513], [-79.68894, 29.47198], [-79.68905, 29.47795], [-79.68918, 29.48344], [-79.68936, 29.49118], [-79.68948, 29.49623], [-79.6896, 29.50127], [-79.68969, 29.50646], [-79.68979, 29.51123], [-79.68993, 29.51842], [-79.69003, 29.52319], [-79.69012, 29.52779], [-79.6902, 29.53241], [-79.69026, 29.53767], [-79.69032, 29.54229], [-79.6904, 29.54706], [-79.69049, 29.55166], [-79.69058, 29.55676], [-79.69065, 29.56185], [-79.69074, 29.5666], [-79.69082, 29.57128], [-79.6909, 29.57588], [-79.69098, 29.58063], [-79.69106, 29.58531], [-79.69112, 29.58992], [-79.69119, 29.59503], [-79.69127, 29.60014], [-79.69135, 29.60481], [-79.69141, 29.60954], [-79.69149, 29.61414], [-79.69155, 29.61879], [-79.6916, 29.62346], [-79.69168, 29.6281], [-79.69175, 29.63274], [-79.69183, 29.63781], [-79.69185, 29.63907], [-79.69189, 29.64331], [-79.69199, 29.64797], [-79.69204, 29.65263], [-79.69209, 29.65726], [-79.69216, 29.66191], [-79.69221, 29.66647], [-79.69225, 29.67119], [-79.69229, 29.67583], [-79.69236, 29.68047], [-79.69241, 29.68509], [-79.69245, 29.69016], [-79.69249, 29.69482], [-79.69257, 29.69989], [-79.69266, 29.705], [-79.6927, 29.70956], [-79.69276, 29.7142], [-79.69282, 29.7188], [-79.69288, 29.72349], [-79.69293, 29.72846], [-79.69297, 29.73307], [-79.69301, 29.73768], [-79.69305, 29.7423], [-79.69307, 29.74777], [-79.6931, 29.7528], [-79.69311, 29.75736], [-79.69315, 29.76202], [-79.69316, 29.76662], [-79.69321, 29.77121], [-79.69323, 29.7754], [-79.69325, 29.78003], [-79.69326, 29.78471], [-79.69328, 29.78924], [-79.6933, 29.79395], [-79.69334, 29.79849], [-79.69337, 29.80317], [-79.69341, 29.80776], [-79.69346, 29.81227], [-79.69351, 29.81687], [-79.69353, 29.82137], [-79.69351, 29.82605], [-79.69351, 29.83071], [-79.69352, 29.83571], [-79.69353, 29.8402], [-79.69352, 29.8447], [-79.69348, 29.84936], [-79.69348, 29.85389], [-79.69348, 29.85854], [-79.69349, 29.86303], [-79.69347, 29.86849], [-79.69347, 29.8731], [-79.69347, 29.87757], [-79.69347, 29.88254], [-79.69346, 29.88718], [-79.69344, 29.8905], [-79.69341, 29.895], [-79.69341, 29.89965], [-79.6934, 29.90414], [-79.69341, 29.90878], [-79.6934, 29.91328], [-79.69341, 29.91778], [-79.6934, 29.92242], [-79.69338, 29.92694], [-79.69335, 29.93152], [-79.6933, 29.93575], [-79.69329, 29.9403], [-79.69325, 29.9449], [-79.69322, 29.9495], [-79.6932, 29.95369], [-79.69317, 29.95828], [-79.69313, 29.96289], [-79.69309, 29.96747], [-79.69305, 29.97206], [-79.693, 29.97668], [-79.69294, 29.98126], [-79.69288, 29.98585], [-79.69285, 29.99037], [-79.69272, 29.99502], [-79.69149, 29.99943], [-79.68912, 30.00342], [-79.68633, 30.00713], [-79.68341, 30.01094], [-79.68052, 30.01472], [-79.67764, 30.01848], [-79.67482, 30.02217], [-79.67192, 30.02597], [-79.66906, 30.02973], [-79.66617, 30.03349], [-79.6633, 30.03724], [-79.66042, 30.04098], [-79.65757, 30.04472], [-79.65497, 30.04811], [-79.65193, 30.0517], [-79.6488, 30.0552], [-79.64566, 30.0587], [-79.64253, 30.06219], [-79.63941, 30.06568], [-79.63629, 30.06915], [-79.63316, 30.0726], [-79.63003, 30.07608], [-79.62683, 30.07952], [-79.62363, 30.08289], [-79.62042, 30.08628], [-79.61722, 30.08968], [-79.61371, 30.09341], [-79.61051, 30.09681], [-79.60731, 30.10022], [-79.60405, 30.10367], [-79.60112, 30.10676], [-79.59854, 30.10949], [-79.59564, 30.11258], [-79.59239, 30.11602], [-79.58953, 30.11907], [-79.5863, 30.12248], [-79.58304, 30.12596], [-79.58012, 30.12904], [-79.57701, 30.13232], [-79.5738, 30.13571], [-79.5705, 30.13919], [-79.56731, 30.14258], [-79.56422, 30.14585], [-79.56103, 30.14923], [-79.55778, 30.15264], [-79.55462, 30.15595], [-79.55136, 30.15936], [-79.54821, 30.16265], [-79.54496, 30.16604], [-79.54149, 30.16963], [-79.53817, 30.17307], [-79.53504, 30.17638]]}, "properties": {"mmsi": "367337960", "name": "GALVESTON", "vessel_type": "other", "n_points": 385, "n_points_full": 423, "max_gap_minutes": 6.3}}]}