{
 "type": "FeatureCollection",
 "features": [
  {
   "type": "Feature",
   "geometry": {
    "type": "MultiPolygon",
    "coordinates": [
     [
      [
       [
        -142.69592,
        59.55277
       ],
       [
        -142.69318,
        59.55277
       ],
       [
        -142.69318,
        59.55208
       ],
       [
        -142.69592,
        59.55208
       ],
       [
        -142.69592,
        59.55277
       ]
      ]
     ],
     [
      [
       [
        -142.70622,
        59.55414
       ],
       [
        -142.70485,
        59.55414
       ],
       [
        -142.70485,
        59.55345
       ],
       [
        -142.70622,
        59.55345
       ],
       [
        -142.70622,
        59.55414
       ]
      ]
     ],
     [
      [
       [
        -142.733,
        59.55895
       ],
       [
        -142.73163,
        59.55895
       ],
       [
        -142.73163,
        59.55826
       ],
       [
        -142.72819,
        59.55826
       ],
       [
        -142.72819,
        59.55895
       ],
       [
        -142.72751,
        59.55895
       ],
       [
        -142.72751,
        59.55826
       ],
       [
        -142.72545,
        59.55826
       ],
       [
        -142.72545,
        59.55895
       ],
       [
        -142.72476,
        59.55895
       ],
       [
        -142.72476,
        59.55826
       ],
       [
        -142.72339,
        59.55826
       ],
       [
        -142.72339,
        59.55757
       ],
       [
        -142.7227,
        59.55757
       ],
       [
        -142.7227,
        59.55689
       ],
       [
        -142.71721,
        59.55689
       ],
       [
        -142.71721,
        59.5562
       ],
       [
        -142.71515,
        59.5562
       ],
       [
        -142.71515,
        59.55551
       ],
       [
        -142.7124,
        59.55551
       ],
       [
        -142.7124,
        59.55483
       ],
       [
        -142.70828,
        59.55483
       ],
       [
        -142.70828,
        59.55345
       ],
       [
        -142.70897,
        59.55345
       ],
       [
        -142.70897,
        59.55414
       ],
       [
        -142.71446,
        59.55414
       ],
       [
        -142.71446,
        59.55483
       ],
       [
        -142.71721,
        59.55483
       ],
       [
        -142.71721,
        59.55414
       ],
       [
        -142.7179,
        59.55414
       ],
       [
        -142.7179,
        59.55483
       ],
       [
        -142.71995,
        59.55483
       ],
       [
        -142.71995,
        59.55551
       ],
       [
        -142.72064,
        59.55551
       ],
       [
        -142.72064,
        59.55483
       ],
       [
        -142.7227,
        59.55483
       ],
       [
        -142.7227,
        59.55551
       ],
       [
        -142.72545,
        59.55551
       ],
       [
        -142.72545,
        59.5562
       ],
       [
        -142.72613,
        59.5562
       ],
       [
        -142.72613,
        59.55689
       ],
       [
        -142.72751,
        59.55689
       ],
       [
        -142.72751,
        59.55757
       ],
       [
        -142.72819,
        59.55757
       ],
       [
        -142.72819,
        59.55689
       ],
       [
        -142.73094,
        59.55689
       ],
       [
        -142.73094,
        59.55757
       ],
       [
        -142.73438,
        59.55757
       ],
       [
        -142.73438,
        59.55826
       ],
       [
        -142.733,
        59.55826
       ],
       [
        -142.733,
        59.55895
       ]
      ]
     ]
    ]
   },
   "properties": {
    "id": 3630124,
    "slick_timestamp": "2023-05-16T15:57:08",
    "s1_scene_id": "S1A_IW_GRDH_1SDV_20230516T155708_20230516T155736_048561_05D74A_DCBF",
    "length": 2475.42971675,
    "area": 267337.2224961519,
    "perimeter": 5711.694758330402,
    "machine_confidence": 0.7605551481246948,
    "polsby_popper": 0.10297678187904533,
    "fill_factor": 0.27952443501042623,
    "linearity": 222.5883618032938,
    "source": "SkyTruth Cerulean, public API (api.cerulean.skytruth.org)",
    "note": "Reference polygon from an operational detector. NOT ground truth and NOT a UDGAM detection \u2014 Cerulean state plainly that SAR alone cannot definitively identify oil. Source attribution deliberately omitted (Master Plan Part 16)."
   }
  },
  {
   "type": "Feature",
   "geometry": {
    "type": "LineString",
    "coordinates": [
     [
      -142.69327,
      59.55213
     ],
     [
      -142.69388,
      59.55243
     ],
     [
      -142.69638,
      59.55256
     ],
     [
      -142.70876,
      59.55415
     ],
     [
      -142.7175,
      59.55545
     ],
     [
      -142.72169,
      59.55626
     ],
     [
      -142.72569,
      59.55738
     ],
     [
      -142.73231,
      59.55809
     ],
     [
      -142.73319,
      59.55801
     ],
     [
      -142.73426,
      59.55762
     ]
    ]
   },
   "properties": {
    "role": "centerline",
    "index": 0,
    "area": 468080.5920501033,
    "length": 2446.456822223122
   }
  }
 ]
}
