{
 "type": "FeatureCollection",
 "features": [
  {
   "type": "Feature",
   "geometry": {
    "type": "Polygon",
    "coordinates": [
     [
      [
       -142.74297,
       59.55772
      ],
      [
       -142.74234,
       59.55754
      ],
      [
       -142.74189,
       59.55691
      ],
      [
       -142.741,
       59.55673
      ],
      [
       -142.7401,
       59.55736
      ],
      [
       -142.73875,
       59.55682
      ],
      [
       -142.73767,
       59.55736
      ],
      [
       -142.73659,
       59.55691
      ],
      [
       -142.73588,
       59.55745
      ],
      [
       -142.73489,
       59.55763
      ],
      [
       -142.73291,
       59.557
      ],
      [
       -142.73228,
       59.55727
      ],
      [
       -142.73147,
       59.55655
      ],
      [
       -142.73085,
       59.55655
      ],
      [
       -142.72842,
       59.55736
      ],
      [
       -142.72779,
       59.55664
      ],
      [
       -142.72635,
       59.55637
      ],
      [
       -142.72599,
       59.55574
      ],
      [
       -142.72501,
       59.55592
      ],
      [
       -142.72411,
       59.55511
      ],
      [
       -142.72312,
       59.55547
      ],
      [
       -142.72258,
       59.55493
      ],
      [
       -142.71971,
       59.5552
      ],
      [
       -142.71854,
       59.55484
      ],
      [
       -142.71764,
       59.55413
      ],
      [
       -142.71764,
       59.55377
      ],
      [
       -142.71728,
       59.55377
      ],
      [
       -142.71701,
       59.55458
      ],
      [
       -142.71629,
       59.55475
      ],
      [
       -142.7145,
       59.5544
      ],
      [
       -142.71423,
       59.55377
      ],
      [
       -142.71342,
       59.55368
      ],
      [
       -142.71243,
       59.55404
      ],
      [
       -142.71144,
       59.5535
      ],
      [
       -142.71018,
       59.55395
      ],
      [
       -142.70973,
       59.55368
      ],
      [
       -142.70812,
       59.55368
      ],
      [
       -142.70758,
       59.55305
      ],
      [
       -142.70614,
       59.55323
      ],
      [
       -142.70488,
       59.55278
      ],
      [
       -142.70417,
       59.55287
      ],
      [
       -142.70452,
       59.55377
      ],
      [
       -142.70524,
       59.55404
      ],
      [
       -142.70587,
       59.55368
      ],
      [
       -142.70641,
       59.55404
      ],
      [
       -142.70623,
       59.55529
      ],
      [
       -142.70677,
       59.55502
      ],
      [
       -142.70749,
       59.5552
      ],
      [
       -142.70704,
       59.55431
      ],
      [
       -142.70785,
       59.55386
      ],
      [
       -142.70839,
       59.55422
      ],
      [
       -142.70839,
       59.55493
      ],
      [
       -142.71027,
       59.55493
      ],
      [
       -142.71081,
       59.55458
      ],
      [
       -142.71225,
       59.55556
      ],
      [
       -142.71279,
       59.55556
      ],
      [
       -142.71315,
       59.55637
      ],
      [
       -142.71369,
       59.55556
      ],
      [
       -142.71432,
       59.5552
      ],
      [
       -142.71701,
       59.55637
      ],
      [
       -142.7189,
       59.55628
      ],
      [
       -142.71944,
       59.55646
      ],
      [
       -142.71971,
       59.55691
      ],
      [
       -142.7206,
       59.55637
      ],
      [
       -142.72123,
       59.55673
      ],
      [
       -142.72177,
       59.55655
      ],
      [
       -142.72249,
       59.55709
      ],
      [
       -142.72258,
       59.55754
      ],
      [
       -142.72393,
       59.55772
      ],
      [
       -142.72447,
       59.55826
      ],
      [
       -142.72662,
       59.55835
      ],
      [
       -142.72716,
       59.55799
      ],
      [
       -142.72806,
       59.55853
      ],
      [
       -142.72887,
       59.55817
      ],
      [
       -142.72968,
       59.55889
      ],
      [
       -142.73031,
       59.55835
      ],
      [
       -142.73174,
       59.55826
      ],
      [
       -142.73309,
       59.5588
      ],
      [
       -142.73453,
       59.55835
      ],
      [
       -142.73507,
       59.55871
      ],
      [
       -142.73516,
       59.55925
      ],
      [
       -142.73588,
       59.55853
      ],
      [
       -142.73704,
       59.55835
      ],
      [
       -142.73758,
       59.55862
      ],
      [
       -142.73812,
       59.55826
      ],
      [
       -142.73875,
       59.55862
      ],
      [
       -142.73902,
       59.55817
      ],
      [
       -142.74001,
       59.55781
      ],
      [
       -142.74145,
       59.55862
      ],
      [
       -142.74216,
       59.5579
      ],
      [
       -142.74297,
       59.55772
      ]
     ]
    ]
   },
   "properties": {
    "id": "det-01",
    "classification": "oil",
    "confidence": 0.652,
    "area_km2": 0.372,
    "elongation": 10.77,
    "edge_gradient": 16.0246,
    "contrast_db": -4.82,
    "shape_class": "linear",
    "discharge_class": "chronic",
    "centroid": [
     -142.72349,
     59.55629
    ],
    "ship_detections": [],
    "vh_contrast_db": -0.071,
    "vh_mean_depth_db": 1.331,
    "solidity": 0.513,
    "mean_depth_db": 6.981
   }
  },
  {
   "type": "Feature",
   "geometry": {
    "type": "Polygon",
    "coordinates": [
     [
      [
       -142.77908,
       59.60506
      ],
      [
       -142.77882,
       59.6047
      ],
      [
       -142.77792,
       59.60488
      ],
      [
       -142.77783,
       59.60542
      ],
      [
       -142.77747,
       59.60569
      ],
      [
       -142.77774,
       59.60641
      ],
      [
       -142.77729,
       59.60677
      ],
      [
       -142.77756,
       59.60785
      ],
      [
       -142.77666,
       59.60838
      ],
      [
       -142.77603,
       59.60803
      ],
      [
       -142.77621,
       59.6074
      ],
      [
       -142.77576,
       59.60695
      ],
      [
       -142.77576,
       59.60659
      ],
      [
       -142.7763,
       59.60605
      ],
      [
       -142.77531,
       59.60497
      ],
      [
       -142.77558,
       59.60434
      ],
      [
       -142.77621,
       59.60425
      ],
      [
       -142.77513,
       59.60335
      ],
      [
       -142.77495,
       59.60344
      ],
      [
       -142.7754,
       59.60434
      ],
      [
       -142.77486,
       59.60488
      ],
      [
       -142.77343,
       59.6047
      ],
      [
       -142.7728,
       59.60533
      ],
      [
       -142.77136,
       59.60479
      ],
      [
       -142.771,
       59.6038
      ],
      [
       -142.77046,
       59.60353
      ],
      [
       -142.76965,
       59.60434
      ],
      [
       -142.76893,
       59.60461
      ],
      [
       -142.7683,
       59.60434
      ],
      [
       -142.7675,
       59.6047
      ],
      [
       -142.76651,
       59.60407
      ],
      [
       -142.76516,
       59.60461
      ],
      [
       -142.76417,
       59.60425
      ],
      [
       -142.76354,
       59.60488
      ],
      [
       -142.76238,
       59.60488
      ],
      [
       -142.76193,
       59.60515
      ],
      [
       -142.76085,
       59.60461
      ],
      [
       -142.76013,
       59.60533
      ],
      [
       -142.7595,
       59.60506
      ],
      [
       -142.75833,
       59.60551
      ],
      [
       -142.75788,
       59.60524
      ],
      [
       -142.75699,
       59.60533
      ],
      [
       -142.75627,
       59.60614
      ],
      [
       -142.75375,
       59.6056
      ],
      [
       -142.75294,
       59.60569
      ],
      [
       -142.7524,
       59.60533
      ],
      [
       -142.7516,
       59.60569
      ],
      [
       -142.74989,
       59.60578
      ],
      [
       -142.74908,
       59.60515
      ],
      [
       -142.74881,
       59.60524
      ],
      [
       -142.74899,
       59.60587
      ],
      [
       -142.74809,
       59.60641
      ],
      [
       -142.7471,
       59.6056
      ],
      [
       -142.7471,
       59.60497
      ],
      [
       -142.74612,
       59.6056
      ],
      [
       -142.74459,
       59.60596
      ],
      [
       -142.74468,
       59.6065
      ],
      [
       -142.74441,
       59.60677
      ],
      [
       -142.74378,
       59.60677
      ],
      [
       -142.74288,
       59.60596
      ],
      [
       -142.74225,
       59.60722
      ],
      [
       -142.741,
       59.60695
      ],
      [
       -142.74037,
       59.60749
      ],
      [
       -142.74145,
       59.6082
      ],
      [
       -142.74297,
       59.6082
      ],
      [
       -142.74378,
       59.60794
      ],
      [
       -142.74414,
       59.60713
      ],
      [
       -142.7454,
       59.60677
      ],
      [
       -142.74594,
       59.60713
      ],
      [
       -142.74594,
       59.60767
      ],
      [
       -142.74764,
       59.60811
      ],
      [
       -142.74791,
       59.60892
      ],
      [
       -142.74863,
       59.60892
      ],
      [
       -142.74953,
       59.60811
      ],
      [
       -142.75043,
       59.60838
      ],
      [
       -142.7507,
       59.60892
      ],
      [
       -142.7551,
       59.60892
      ],
      [
       -142.75582,
       59.60811
      ],
      [
       -142.75681,
       59.60856
      ],
      [
       -142.75699,
       59.60838
      ],
      [
       -142.75636,
       59.60749
      ],
      [
       -142.75663,
       59.60686
      ],
      [
       -142.75753,
       59.60695
      ],
      [
       -142.75905,
       59.60856
      ],
      [
       -142.75905,
       59.60767
      ],
      [
       -142.75932,
       59.6074
      ],
      [
       -142.76121,
       59.60677
      ],
      [
       -142.76238,
       59.6074
      ],
      [
       -142.76238,
       59.60794
      ],
      [
       -142.76184,
       59.60829
      ],
      [
       -142.7622,
       59.60892
      ],
      [
       -142.76336,
       59.60892
      ],
      [
       -142.76345,
       59.60838
      ],
      [
       -142.76399,
       59.60803
      ],
      [
       -142.76444,
       59.60811
      ],
      [
       -142.76489,
       59.60892
      ],
      [
       -142.76723,
       59.60892
      ],
      [
       -142.7675,
       59.60838
      ],
      [
       -142.76813,
       59.6082
      ],
      [
       -142.76866,
       59.60829
      ],
      [
       -142.7692,
       59.60892
      ],
      [
       -142.77271,
       59.60892
      ],
      [
       -142.7728,
       59.60829
      ],
      [
       -142.77334,
       59.60794
      ],
      [
       -142.77414,
       59.60829
      ],
      [
       -142.77423,
       59.60892
      ],
      [
       -142.77486,
       59.60892
      ],
      [
       -142.77486,
       59.60838
      ],
      [
       -142.77567,
       59.60794
      ],
      [
       -142.77621,
       59.60829
      ],
      [
       -142.77639,
       59.60892
      ],
      [
       -142.77738,
       59.60892
      ],
      [
       -142.77729,
       59.60811
      ],
      [
       -142.77774,
       59.60776
      ],
      [
       -142.77828,
       59.60776
      ],
      [
       -142.77873,
       59.60695
      ],
      [
       -142.77855,
       59.60632
      ],
      [
       -142.77899,
       59.60596
      ],
      [
       -142.77908,
       59.60506
      ]
     ]
    ]
   },
   "properties": {
    "id": "det-02",
    "classification": "oil",
    "confidence": 0.542,
    "area_km2": 0.596,
    "elongation": 8.68,
    "edge_gradient": 15.6661,
    "contrast_db": -3.5,
    "shape_class": "linear",
    "discharge_class": "chronic",
    "centroid": [
     -142.76157,
     59.60672
    ],
    "ship_detections": [],
    "vh_contrast_db": -0.142,
    "vh_mean_depth_db": 1.491,
    "solidity": 0.563,
    "mean_depth_db": 6.059
   }
  },
  {
   "type": "Feature",
   "geometry": {
    "type": "Polygon",
    "coordinates": [
     [
      [
       -142.78438,
       59.59653
      ],
      [
       -142.78438,
       59.59177
      ],
      [
       -142.78268,
       59.59195
      ],
      [
       -142.78241,
       59.59168
      ],
      [
       -142.78259,
       59.59114
      ],
      [
       -142.78178,
       59.59078
      ],
      [
       -142.78178,
       59.59015
      ],
      [
       -142.78088,
       59.59006
      ],
      [
       -142.78142,
       59.59051
      ],
      [
       -142.78142,
       59.59096
      ],
      [
       -142.78043,
       59.59159
      ],
      [
       -142.77953,
       59.59132
      ],
      [
       -142.77908,
       59.59087
      ],
      [
       -142.77828,
       59.59087
      ],
      [
       -142.77675,
       59.5915
      ],
      [
       -142.77594,
       59.59105
      ],
      [
       -142.77495,
       59.59141
      ],
      [
       -142.77378,
       59.59123
      ],
      [
       -142.77262,
       59.59051
      ],
      [
       -142.77289,
       59.5897
      ],
      [
       -142.77253,
       59.58979
      ],
      [
       -142.77208,
       59.5906
      ],
      [
       -142.77109,
       59.59069
      ],
      [
       -142.77046,
       59.59123
      ],
      [
       -142.76992,
       59.59114
      ],
      [
       -142.77037,
       59.59159
      ],
      [
       -142.77253,
       59.59087
      ],
      [
       -142.77423,
       59.59159
      ],
      [
       -142.77459,
       59.59221
      ],
      [
       -142.77531,
       59.59204
      ],
      [
       -142.77684,
       59.59266
      ],
      [
       -142.77837,
       59.59195
      ],
      [
       -142.77935,
       59.59221
      ],
      [
       -142.78061,
       59.59212
      ],
      [
       -142.78115,
       59.59248
      ],
      [
       -142.78133,
       59.59329
      ],
      [
       -142.78079,
       59.59365
      ],
      [
       -142.78043,
       59.59455
      ],
      [
       -142.7798,
       59.59482
      ],
      [
       -142.77998,
       59.59554
      ],
      [
       -142.77971,
       59.59581
      ],
      [
       -142.77917,
       59.5959
      ],
      [
       -142.77846,
       59.59554
      ],
      [
       -142.77774,
       59.59653
      ],
      [
       -142.77657,
       59.59653
      ],
      [
       -142.77594,
       59.59689
      ],
      [
       -142.77441,
       59.59662
      ],
      [
       -142.77423,
       59.59716
      ],
      [
       -142.77504,
       59.5968
      ],
      [
       -142.77576,
       59.59725
      ],
      [
       -142.77639,
       59.59707
      ],
      [
       -142.77747,
       59.59742
      ],
      [
       -142.77828,
       59.59716
      ],
      [
       -142.77819,
       59.59653
      ],
      [
       -142.77926,
       59.59599
      ],
      [
       -142.78016,
       59.59644
      ],
      [
       -142.78016,
       59.5968
      ],
      [
       -142.77944,
       59.59725
      ],
      [
       -142.78007,
       59.59734
      ],
      [
       -142.78007,
       59.59698
      ],
      [
       -142.78061,
       59.59662
      ],
      [
       -142.78259,
       59.59671
      ],
      [
       -142.78268,
       59.59617
      ],
      [
       -142.78322,
       59.59581
      ],
      [
       -142.78394,
       59.5959
      ],
      [
       -142.78438,
       59.59653
      ]
     ]
    ]
   },
   "properties": {
    "id": "det-03",
    "classification": "oil",
    "confidence": 0.509,
    "area_km2": 0.184,
    "elongation": 3.1,
    "edge_gradient": 17.0208,
    "contrast_db": -3.11,
    "shape_class": "linear",
    "discharge_class": "unknown",
    "centroid": [
     -142.7798,
     59.59346
    ],
    "ship_detections": [],
    "vh_contrast_db": -0.087,
    "vh_mean_depth_db": 1.24,
    "solidity": 0.331,
    "mean_depth_db": 5.675
   }
  },
  {
   "type": "Feature",
   "geometry": {
    "type": "Polygon",
    "coordinates": [
     [
      [
       -142.72626,
       59.60273
      ],
      [
       -142.72617,
       59.60246
      ],
      [
       -142.72483,
       59.60255
      ],
      [
       -142.72384,
       59.6021
      ],
      [
       -142.7233,
       59.60129
      ],
      [
       -142.72357,
       59.60066
      ],
      [
       -142.72285,
       59.60021
      ],
      [
       -142.72249,
       59.6003
      ],
      [
       -142.71962,
       59.59922
      ],
      [
       -142.71854,
       59.59958
      ],
      [
       -142.71755,
       59.59904
      ],
      [
       -142.71656,
       59.59958
      ],
      [
       -142.71575,
       59.59958
      ],
      [
       -142.71494,
       59.60012
      ],
      [
       -142.71432,
       59.59994
      ],
      [
       -142.71387,
       59.60102
      ],
      [
       -142.71198,
       59.60093
      ],
      [
       -142.71171,
       59.6003
      ],
      [
       -142.71234,
       59.59994
      ],
      [
       -142.71225,
       59.5994
      ],
      [
       -142.71351,
       59.59877
      ],
      [
       -142.71315,
       59.5985
      ],
      [
       -142.71315,
       59.59769
      ],
      [
       -142.71261,
       59.59778
      ],
      [
       -142.71225,
       59.59832
      ],
      [
       -142.71126,
       59.59886
      ],
      [
       -142.70749,
       59.59796
      ],
      [
       -142.70695,
       59.59841
      ],
      [
       -142.70524,
       59.5985
      ],
      [
       -142.70542,
       59.59931
      ],
      [
       -142.70488,
       59.59967
      ],
      [
       -142.70425,
       59.59949
      ],
      [
       -142.70399,
       59.59895
      ],
      [
       -142.70336,
       59.59913
      ],
      [
       -142.70381,
       59.59994
      ],
      [
       -142.70381,
       59.60057
      ],
      [
       -142.70318,
       59.60102
      ],
      [
       -142.70219,
       59.60021
      ],
      [
       -142.70192,
       59.5994
      ],
      [
       -142.70111,
       59.5994
      ],
      [
       -142.70012,
       59.59877
      ],
      [
       -142.69895,
       59.59868
      ],
      [
       -142.6986,
       59.5994
      ],
      [
       -142.69797,
       59.5994
      ],
      [
       -142.6977,
       59.59913
      ],
      [
       -142.69788,
       59.5985
      ],
      [
       -142.69707,
       59.59778
      ],
      [
       -142.69644,
       59.59832
      ],
      [
       -142.69572,
       59.59805
      ],
      [
       -142.69563,
       59.59841
      ],
      [
       -142.695,
       59.59877
      ],
      [
       -142.69509,
       59.59931
      ],
      [
       -142.69437,
       59.59967
      ],
      [
       -142.69446,
       59.60039
      ],
      [
       -142.69419,
       59.60066
      ],
      [
       -142.69348,
       59.60066
      ],
      [
       -142.69276,
       59.60003
      ],
      [
       -142.69213,
       59.60048
      ],
      [
       -142.69132,
       59.60021
      ],
      [
       -142.68997,
       59.6003
      ],
      [
       -142.68952,
       59.60003
      ],
      [
       -142.68952,
       59.60093
      ],
      [
       -142.68835,
       59.60183
      ],
      [
       -142.68728,
       59.60192
      ],
      [
       -142.68593,
       59.60093
      ],
      [
       -142.68629,
       59.6003
      ],
      [
       -142.68602,
       59.59976
      ],
      [
       -142.68503,
       59.60129
      ],
      [
       -142.68449,
       59.60129
      ],
      [
       -142.68377,
       59.60228
      ],
      [
       -142.68288,
       59.60281
      ],
      [
       -142.68207,
       59.60273
      ],
      [
       -142.68153,
       59.60219
      ],
      [
       -142.68153,
       59.60183
      ],
      [
       -142.68198,
       59.60156
      ],
      [
       -142.68198,
       59.60093
      ],
      [
       -142.68099,
       59.60039
      ],
      [
       -142.68018,
       59.60084
      ],
      [
       -142.67946,
       59.60039
      ],
      [
       -142.67865,
       59.60075
      ],
      [
       -142.67847,
       59.60111
      ],
      [
       -142.67973,
       59.60102
      ],
      [
       -142.68117,
       59.60138
      ],
      [
       -142.68144,
       59.60201
      ],
      [
       -142.68099,
       59.60246
      ],
      [
       -142.67892,
       59.60228
      ],
      [
       -142.67829,
       59.60255
      ],
      [
       -142.67731,
       59.60228
      ],
      [
       -142.67704,
       59.60147
      ],
      [
       -142.67749,
       59.60093
      ],
      [
       -142.67659,
       59.60084
      ],
      [
       -142.67623,
       59.60048
      ],
      [
       -142.67596,
       59.59931
      ],
      [
       -142.67542,
       59.59949
      ],
      [
       -142.67587,
       59.59985
      ],
      [
       -142.67569,
       59.60138
      ],
      [
       -142.67524,
       59.60183
      ],
      [
       -142.67407,
       59.6021
      ],
      [
       -142.67371,
       59.60201
      ],
      [
       -142.67335,
       59.60138
      ],
      [
       -142.67254,
       59.60129
      ],
      [
       -142.67219,
       59.60075
      ],
      [
       -142.67057,
       59.60129
      ],
      [
       -142.66976,
       59.60066
      ],
      [
       -142.66949,
       59.6012
      ],
      [
       -142.6685,
       59.60129
      ],
      [
       -142.66787,
       59.60183
      ],
      [
       -142.66715,
       59.60147
      ],
      [
       -142.66671,
       59.60075
      ],
      [
       -142.665,
       59.60129
      ],
      [
       -142.66437,
       59.60066
      ],
      [
       -142.66338,
       59.60039
      ],
      [
       -142.66293,
       59.59994
      ],
      [
       -142.66212,
       59.60075
      ],
      [
       -142.65988,
       59.60021
      ],
      [
       -142.65943,
       59.60048
      ],
      [
       -142.65826,
       59.60048
      ],
      [
       -142.65799,
       59.60102
      ],
      [
       -142.657,
       59.6012
      ],
      [
       -142.65646,
       59.60084
      ],
      [
       -142.65566,
       59.60102
      ],
      [
       -142.65305,
       59.60039
      ],
      [
       -142.65269,
       59.59949
      ],
      [
       -142.65233,
       59.59931
      ],
      [
       -142.6517,
       59.59958
      ],
      [
       -142.6517,
       59.59994
      ],
      [
       -142.65233,
       59.60003
      ],
      [
       -142.6526,
       59.60075
      ],
      [
       -142.65107,
       59.60147
      ],
      [
       -142.65036,
       59.60093
      ],
      [
       -142.64991,
       59.60138
      ],
      [
       -142.6491,
       59.60147
      ],
      [
       -142.64766,
       59.60075
      ],
      [
       -142.64703,
       59.60102
      ],
      [
       -142.64631,
       59.60057
      ],
      [
       -142.64604,
       59.60075
      ],
      [
       -142.64622,
       59.60147
      ],
      [
       -142.64595,
       59.60174
      ],
      [
       -142.64533,
       59.60174
      ],
      [
       -142.64488,
       59.60111
      ],
      [
       -142.64317,
       59.60183
      ],
      [
       -142.64317,
       59.60371
      ],
      [
       -142.6438,
       59.6038
      ],
      [
       -142.64443,
       59.60434
      ],
      [
       -142.64443,
       59.60479
      ],
      [
       -142.64407,
       59.60515
      ],
      [
       -142.64317,
       59.60551
      ],
      [
       -142.64335,
       59.60677
      ],
      [
       -142.64398,
       59.60668
      ],
      [
       -142.64452,
       59.60596
      ],
      [
       -142.64524,
       59.6056
      ],
      [
       -142.64461,
       59.6047
      ],
      [
       -142.64497,
       59.60398
      ],
      [
       -142.64551,
       59.60398
      ],
      [
       -142.64586,
       59.60497
      ],
      [
       -142.64613,
       59.60506
      ],
      [
       -142.64703,
       59.60452
      ],
      [
       -142.64739,
       59.6047
      ],
      [
       -142.64793,
       59.60416
      ],
      [
       -142.64928,
       59.6047
      ],
      [
       -142.64892,
       59.60542
      ],
      [
       -142.64847,
       59.60551
      ],
      [
       -142.64757,
       59.60506
      ],
      [
       -142.64739,
       59.60569
      ],
      [
       -142.64658,
       59.60605
      ],
      [
       -142.64712,
       59.60695
      ],
      [
       -142.64685,
       59.60758
      ],
      [
       -142.64694,
       59.60829
      ],
      [
       -142.64667,
       59.60856
      ],
      [
       -142.64577,
       59.60838
      ],
      [
       -142.64542,
       59.60767
      ],
      [
       -142.6447,
       59.60767
      ],
      [
       -142.64317,
       59.60856
      ],
      [
       -142.64317,
       59.60892
      ],
      [
       -142.6756,
       59.60892
      ],
      [
       -142.6756,
       59.60856
      ],
      [
       -142.67614,
       59.6082
      ],
      [
       -142.67668,
       59.60838
      ],
      [
       -142.67695,
       59.60892
      ],
      [
       -142.68,
       59.60892
      ],
      [
       -142.68036,
       59.60803
      ],
      [
       -142.68207,
       59.60677
      ],
      [
       -142.68332,
       59.60731
      ],
      [
       -142.68332,
       59.60803
      ],
      [
       -142.68279,
       59.60892
      ],
      [
       -142.68521,
       59.60892
      ],
      [
       -142.68548,
       59.60847
      ],
      [
       -142.68602,
       59.60829
      ],
      [
       -142.68647,
       59.60838
      ],
      [
       -142.68674,
       59.60892
      ],
      [
       -142.69231,
       59.60892
      ],
      [
       -142.69258,
       59.6082
      ],
      [
       -142.6915,
       59.60811
      ],
      [
       -142.69096,
       59.60776
      ],
      [
       -142.69006,
       59.60811
      ],
      [
       -142.68952,
       59.60776
      ],
      [
       -142.68934,
       59.6065
      ],
      [
       -142.6897,
       59.60605
      ],
      [
       -142.69096,
       59.60578
      ],
      [
       -142.69096,
       59.60452
      ],
      [
       -142.69042,
       59.60434
      ],
      [
       -142.69015,
       59.60488
      ],
      [
       -142.68916,
       59.60515
      ],
      [
       -142.68826,
       59.60479
      ],
      [
       -142.688,
       59.60416
      ],
      [
       -142.68871,
       59.60362
      ],
      [
       -142.68961,
       59.60389
      ],
      [
       -142.69015,
       59.60335
      ],
      [
       -142.69177,
       59.60362
      ],
      [
       -142.69231,
       59.60416
      ],
      [
       -142.69267,
       59.60308
      ],
      [
       -142.69392,
       59.60308
      ],
      [
       -142.69437,
       59.60335
      ],
      [
       -142.69725,
       59.6021
      ],
      [
       -142.69833,
       59.60228
      ],
      [
       -142.69815,
       59.60165
      ],
      [
       -142.69869,
       59.60129
      ],
      [
       -142.69985,
       59.60183
      ],
      [
       -142.70003,
       59.60335
      ],
      [
       -142.69949,
       59.60371
      ],
      [
       -142.69976,
       59.60434
      ],
      [
       -142.69958,
       59.60506
      ],
      [
       -142.70102,
       59.60497
      ],
      [
       -142.7021,
       59.6056
      ],
      [
       -142.70219,
       59.60524
      ],
      [
       -142.703,
       59.6047
      ],
      [
       -142.70408,
       59.60578
      ],
      [
       -142.70408,
       59.60623
      ],
      [
       -142.70596,
       59.60587
      ],
      [
       -142.70641,
       59.60524
      ],
      [
       -142.70695,
       59.60515
      ],
      [
       -142.7074,
       59.60533
      ],
      [
       -142.70767,
       59.60587
      ],
      [
       -142.7083,
       59.60551
      ],
      [
       -142.70884,
       59.60569
      ],
      [
       -142.7092,
       59.60641
      ],
      [
       -142.7127,
       59.60515
      ],
      [
       -142.71324,
       59.60551
      ],
      [
       -142.71324,
       59.60614
      ],
      [
       -142.71225,
       59.60677
      ],
      [
       -142.71234,
       59.60758
      ],
      [
       -142.71198,
       59.60811
      ],
      [
       -142.71072,
       59.60874
      ],
      [
       -142.71027,
       59.60865
      ],
      [
       -142.71,
       59.60811
      ],
      [
       -142.70947,
       59.60803
      ],
      [
       -142.70893,
       59.60847
      ],
      [
       -142.70938,
       59.60892
      ],
      [
       -142.71602,
       59.60892
      ],
      [
       -142.71692,
       59.60776
      ],
      [
       -142.71755,
       59.60776
      ],
      [
       -142.718,
       59.60713
      ],
      [
       -142.71908,
       59.60668
      ],
      [
       -142.72096,
       59.60677
      ],
      [
       -142.72132,
       59.60713
      ],
      [
       -142.72114,
       59.6082
      ],
      [
       -142.72231,
       59.60758
      ],
      [
       -142.72222,
       59.60641
      ],
      [
       -142.72159,
       59.60659
      ],
      [
       -142.72025,
       59.60587
      ],
      [
       -142.72016,
       59.60452
      ],
      [
       -142.71953,
       59.60398
      ],
      [
       -142.7198,
       59.60335
      ],
      [
       -142.72087,
       59.6029
      ],
      [
       -142.72321,
       59.60299
      ],
      [
       -142.72384,
       59.60371
      ],
      [
       -142.72393,
       59.60452
      ],
      [
       -142.72303,
       59.60533
      ],
      [
       -142.72384,
       59.60533
      ],
      [
       -142.72384,
       59.60488
      ],
      [
       -142.72519,
       59.60398
      ],
      [
       -142.72474,
       59.60362
      ],
      [
       -142.72474,
       59.60317
      ],
      [
       -142.72546,
       59.60264
      ],
      [
       -142.72599,
       59.60299
      ],
      [
       -142.72599,
       59.60353
      ],
      [
       -142.72626,
       59.60273
      ]
     ]
    ]
   },
   "properties": {
    "id": "det-04",
    "classification": "lookalike",
    "confidence": 0.499,
    "area_km2": 3.091,
    "elongation": 8.89,
    "edge_gradient": 15.3336,
    "contrast_db": -2.99,
    "shape_class": "linear",
    "discharge_class": "unknown",
    "centroid": [
     -142.68173,
     59.60423
    ],
    "ship_detections": [],
    "vh_contrast_db": 0.044,
    "vh_mean_depth_db": 1.331,
    "solidity": 0.594,
    "mean_depth_db": 6.429
   }
  },
  {
   "type": "Feature",
   "geometry": {
    "type": "Polygon",
    "coordinates": [
     [
      [
       -142.77612,
       59.59563
      ],
      [
       -142.77585,
       59.59491
      ],
      [
       -142.77621,
       59.59464
      ],
      [
       -142.7763,
       59.59392
      ],
      [
       -142.77217,
       59.59392
      ],
      [
       -142.77055,
       59.59248
      ],
      [
       -142.76992,
       59.59275
      ],
      [
       -142.76911,
       59.5923
      ],
      [
       -142.76839,
       59.59141
      ],
      [
       -142.76848,
       59.59096
      ],
      [
       -142.76759,
       59.59051
      ],
      [
       -142.76669,
       59.59042
      ],
      [
       -142.7657,
       59.59078
      ],
      [
       -142.76624,
       59.59096
      ],
      [
       -142.76723,
       59.5906
      ],
      [
       -142.76795,
       59.59114
      ],
      [
       -142.76705,
       59.59275
      ],
      [
       -142.76813,
       59.59195
      ],
      [
       -142.76875,
       59.59239
      ],
      [
       -142.76875,
       59.59284
      ],
      [
       -142.76813,
       59.59383
      ],
      [
       -142.76839,
       59.59419
      ],
      [
       -142.76848,
       59.59356
      ],
      [
       -142.76947,
       59.59275
      ],
      [
       -142.77019,
       59.59347
      ],
      [
       -142.77019,
       59.59446
      ],
      [
       -142.77127,
       59.5941
      ],
      [
       -142.77208,
       59.59473
      ],
      [
       -142.77289,
       59.5941
      ],
      [
       -142.77352,
       59.59446
      ],
      [
       -142.77513,
       59.59428
      ],
      [
       -142.77567,
       59.59464
      ],
      [
       -142.77522,
       59.59545
      ],
      [
       -142.77531,
       59.5959
      ],
      [
       -142.77612,
       59.59563
      ]
     ]
    ]
   },
   "properties": {
    "id": "det-05",
    "classification": "lookalike",
    "confidence": 0.491,
    "area_km2": 0.057,
    "elongation": 2.74,
    "edge_gradient": 15.8251,
    "contrast_db": -2.89,
    "shape_class": "blob",
    "discharge_class": "acute",
    "centroid": [
     -142.77113,
     59.5933
    ],
    "ship_detections": [],
    "vh_contrast_db": 0.039,
    "vh_mean_depth_db": 1.261,
    "solidity": 0.332,
    "mean_depth_db": 5.771
   }
  },
  {
   "type": "Feature",
   "geometry": {
    "type": "Polygon",
    "coordinates": [
     [
      [
       -142.65745,
       59.56248
      ],
      [
       -142.65664,
       59.56203
      ],
      [
       -142.65557,
       59.56293
      ],
      [
       -142.65485,
       59.56239
      ],
      [
       -142.65476,
       59.56176
      ],
      [
       -142.65404,
       59.5623
      ],
      [
       -142.65332,
       59.56212
      ],
      [
       -142.6517,
       59.56275
      ],
      [
       -142.65134,
       59.56257
      ],
      [
       -142.6509,
       59.56275
      ],
      [
       -142.65063,
       59.56329
      ],
      [
       -142.65,
       59.56329
      ],
      [
       -142.64901,
       59.56248
      ],
      [
       -142.64937,
       59.56185
      ],
      [
       -142.64928,
       59.56059
      ],
      [
       -142.65018,
       59.56006
      ],
      [
       -142.64982,
       59.55979
      ],
      [
       -142.64928,
       59.56023
      ],
      [
       -142.64775,
       59.56014
      ],
      [
       -142.64811,
       59.56104
      ],
      [
       -142.64784,
       59.56131
      ],
      [
       -142.64793,
       59.56185
      ],
      [
       -142.6473,
       59.56275
      ],
      [
       -142.64568,
       59.56293
      ],
      [
       -142.64533,
       59.56257
      ],
      [
       -142.64533,
       59.56212
      ],
      [
       -142.64604,
       59.56167
      ],
      [
       -142.64551,
       59.5614
      ],
      [
       -142.64506,
       59.56149
      ],
      [
       -142.64533,
       59.56239
      ],
      [
       -142.64488,
       59.56284
      ],
      [
       -142.64317,
       59.56329
      ],
      [
       -142.64416,
       59.56347
      ],
      [
       -142.64488,
       59.5641
      ],
      [
       -142.64766,
       59.56356
      ],
      [
       -142.64874,
       59.56464
      ],
      [
       -142.64937,
       59.56401
      ],
      [
       -142.65081,
       59.56383
      ],
      [
       -142.65197,
       59.5641
      ],
      [
       -142.65224,
       59.56464
      ],
      [
       -142.65296,
       59.56473
      ],
      [
       -142.6535,
       59.56527
      ],
      [
       -142.65476,
       59.56491
      ],
      [
       -142.65296,
       59.56473
      ],
      [
       -142.65269,
       59.56446
      ],
      [
       -142.65296,
       59.56383
      ],
      [
       -142.65476,
       59.56347
      ],
      [
       -142.65548,
       59.56392
      ],
      [
       -142.65602,
       59.56329
      ],
      [
       -142.65727,
       59.56284
      ],
      [
       -142.65745,
       59.56248
      ]
     ]
    ]
   },
   "properties": {
    "id": "det-06",
    "classification": "lookalike",
    "confidence": 0.489,
    "area_km2": 0.14,
    "elongation": 2.58,
    "edge_gradient": 14.8848,
    "contrast_db": -2.86,
    "shape_class": "blob",
    "discharge_class": "acute",
    "centroid": [
     -142.65028,
     59.56293
    ],
    "ship_detections": [],
    "vh_contrast_db": -0.073,
    "vh_mean_depth_db": 1.351,
    "solidity": 0.449,
    "mean_depth_db": 5.949
   }
  },
  {
   "type": "Feature",
   "geometry": {
    "type": "Polygon",
    "coordinates": [
     [
      [
       -142.70273,
       59.59707
      ],
      [
       -142.7039,
       59.59742
      ],
      [
       -142.70354,
       59.59635
      ],
      [
       -142.70425,
       59.5959
      ],
      [
       -142.70488,
       59.59626
      ],
      [
       -142.70524,
       59.59734
      ],
      [
       -142.70722,
       59.59725
      ],
      [
       -142.70812,
       59.59662
      ],
      [
       -142.7092,
       59.5968
      ],
      [
       -142.71,
       59.59626
      ],
      [
       -142.70973,
       59.59581
      ],
      [
       -142.70902,
       59.59617
      ],
      [
       -142.70848,
       59.59563
      ],
      [
       -142.70767,
       59.59617
      ],
      [
       -142.70677,
       59.59581
      ],
      [
       -142.70713,
       59.59671
      ],
      [
       -142.70623,
       59.59707
      ],
      [
       -142.7056,
       59.59662
      ],
      [
       -142.7056,
       59.59608
      ],
      [
       -142.7065,
       59.59572
      ],
      [
       -142.70632,
       59.59554
      ],
      [
       -142.70309,
       59.59482
      ],
      [
       -142.70345,
       59.59536
      ],
      [
       -142.70345,
       59.59653
      ],
      [
       -142.70273,
       59.59707
      ]
     ]
    ]
   },
   "properties": {
    "id": "det-07",
    "classification": "lookalike",
    "confidence": 0.482,
    "area_km2": 0.046,
    "elongation": 3.43,
    "edge_gradient": 17.2907,
    "contrast_db": -2.79,
    "shape_class": "linear",
    "discharge_class": "unknown",
    "centroid": [
     -142.70598,
     59.59621
    ],
    "ship_detections": [],
    "vh_contrast_db": 0.029,
    "vh_mean_depth_db": 1.124,
    "solidity": 0.549,
    "mean_depth_db": 5.484
   }
  },
  {
   "type": "Feature",
   "geometry": {
    "type": "Polygon",
    "coordinates": [
     [
      [
       -142.76283,
       59.59922
      ],
      [
       -142.7604,
       59.59805
      ],
      [
       -142.7604,
       59.59769
      ],
      [
       -142.76094,
       59.59725
      ],
      [
       -142.76049,
       59.59689
      ],
      [
       -142.76049,
       59.59635
      ],
      [
       -142.76103,
       59.59581
      ],
      [
       -142.76022,
       59.59617
      ],
      [
       -142.7595,
       59.59572
      ],
      [
       -142.7586,
       59.5959
      ],
      [
       -142.75905,
       59.59626
      ],
      [
       -142.75905,
       59.59671
      ],
      [
       -142.7595,
       59.59662
      ],
      [
       -142.76013,
       59.59707
      ],
      [
       -142.76013,
       59.59751
      ],
      [
       -142.75959,
       59.59787
      ],
      [
       -142.75797,
       59.59742
      ],
      [
       -142.7577,
       59.59671
      ],
      [
       -142.75681,
       59.59662
      ],
      [
       -142.75779,
       59.59725
      ],
      [
       -142.75779,
       59.59787
      ],
      [
       -142.75672,
       59.59832
      ],
      [
       -142.75582,
       59.59778
      ],
      [
       -142.75582,
       59.59716
      ],
      [
       -142.75474,
       59.59734
      ],
      [
       -142.75303,
       59.59635
      ],
      [
       -142.75223,
       59.5968
      ],
      [
       -142.75276,
       59.59742
      ],
      [
       -142.75267,
       59.59787
      ],
      [
       -142.75411,
       59.5985
      ],
      [
       -142.75402,
       59.59778
      ],
      [
       -142.75456,
       59.59742
      ],
      [
       -142.756,
       59.59868
      ],
      [
       -142.75654,
       59.5985
      ],
      [
       -142.7577,
       59.59913
      ],
      [
       -142.75941,
       59.59877
      ],
      [
       -142.76094,
       59.59958
      ],
      [
       -142.76157,
       59.59931
      ],
      [
       -142.76211,
       59.59967
      ],
      [
       -142.76283,
       59.59922
      ]
     ]
    ]
   },
   "properties": {
    "id": "det-08",
    "classification": "lookalike",
    "confidence": 0.478,
    "area_km2": 0.084,
    "elongation": 3.03,
    "edge_gradient": 15.6868,
    "contrast_db": -2.73,
    "shape_class": "linear",
    "discharge_class": "unknown",
    "centroid": [
     -142.75785,
     59.59783
    ],
    "ship_detections": [],
    "vh_contrast_db": -0.088,
    "vh_mean_depth_db": 1.212,
    "solidity": 0.464,
    "mean_depth_db": 5.129
   }
  },
  {
   "type": "Feature",
   "geometry": {
    "type": "Polygon",
    "coordinates": [
     [
      [
       -142.73893,
       59.60165
      ],
      [
       -142.73803,
       59.60156
      ],
      [
       -142.73731,
       59.60192
      ],
      [
       -142.73561,
       59.60147
      ],
      [
       -142.73534,
       59.60066
      ],
      [
       -142.73588,
       59.60021
      ],
      [
       -142.73597,
       59.59976
      ],
      [
       -142.73498,
       59.60021
      ],
      [
       -142.73372,
       59.59913
      ],
      [
       -142.7321,
       59.5985
      ],
      [
       -142.7321,
       59.59886
      ],
      [
       -142.73147,
       59.5994
      ],
      [
       -142.73237,
       59.60012
      ],
      [
       -142.73336,
       59.60012
      ],
      [
       -142.73471,
       59.60084
      ],
      [
       -142.73435,
       59.60192
      ],
      [
       -142.73381,
       59.60228
      ],
      [
       -142.73282,
       59.60129
      ],
      [
       -142.73228,
       59.60156
      ],
      [
       -142.73309,
       59.60255
      ],
      [
       -142.73309,
       59.60299
      ],
      [
       -142.73264,
       59.60335
      ],
      [
       -142.73345,
       59.60344
      ],
      [
       -142.7339,
       59.60389
      ],
      [
       -142.73417,
       59.6038
      ],
      [
       -142.73408,
       59.60281
      ],
      [
       -142.73453,
       59.60201
      ],
      [
       -142.73516,
       59.60201
      ],
      [
       -142.73588,
       59.60255
      ],
      [
       -142.73668,
       59.60255
      ],
      [
       -142.73704,
       59.60219
      ],
      [
       -142.73785,
       59.60228
      ],
      [
       -142.73893,
       59.60165
      ]
     ]
    ]
   },
   "properties": {
    "id": "det-09",
    "classification": "lookalike",
    "confidence": 0.458,
    "area_km2": 0.066,
    "elongation": 1.56,
    "edge_gradient": 15.8997,
    "contrast_db": -2.49,
    "shape_class": "blob",
    "discharge_class": "acute",
    "centroid": [
     -142.73437,
     59.60115
    ],
    "ship_detections": [],
    "vh_contrast_db": 0.038,
    "vh_mean_depth_db": 1.436,
    "solidity": 0.46,
    "mean_depth_db": 5.59
   }
  },
  {
   "type": "Feature",
   "geometry": {
    "type": "Polygon",
    "coordinates": [
     [
      [
       -142.66257,
       59.55493
      ],
      [
       -142.66302,
       59.55529
      ],
      [
       -142.66419,
       59.5552
      ],
      [
       -142.66455,
       59.55565
      ],
      [
       -142.66536,
       59.55502
      ],
      [
       -142.66599,
       59.55556
      ],
      [
       -142.66671,
       59.55565
      ],
      [
       -142.67012,
       59.55502
      ],
      [
       -142.67075,
       59.55547
      ],
      [
       -142.67102,
       59.55511
      ],
      [
       -142.66967,
       59.55467
      ],
      [
       -142.66868,
       59.55475
      ],
      [
       -142.66832,
       59.55422
      ],
      [
       -142.66832,
       59.55386
      ],
      [
       -142.66904,
       59.55332
      ],
      [
       -142.66868,
       59.55287
      ],
      [
       -142.66778,
       59.55305
      ],
      [
       -142.66769,
       59.55377
      ],
      [
       -142.66662,
       59.55458
      ],
      [
       -142.66536,
       59.55484
      ],
      [
       -142.66482,
       59.5535
      ],
      [
       -142.66563,
       59.55305
      ],
      [
       -142.66572,
       59.55251
      ],
      [
       -142.665,
       59.55251
      ],
      [
       -142.66482,
       59.55296
      ],
      [
       -142.66257,
       59.55493
      ]
     ]
    ]
   },
   "properties": {
    "id": "det-10",
    "classification": "lookalike",
    "confidence": 0.45,
    "area_km2": 0.065,
    "elongation": 2.79,
    "edge_gradient": 15.2585,
    "contrast_db": -3.47,
    "shape_class": "blob",
    "discharge_class": "acute",
    "centroid": [
     -142.66634,
     59.55447
    ],
    "ship_detections": [],
    "vh_contrast_db": -0.122,
    "vh_mean_depth_db": 1.48,
    "solidity": 0.545,
    "mean_depth_db": 6.122
   }
  },
  {
   "type": "Feature",
   "geometry": {
    "type": "Polygon",
    "coordinates": [
     [
      [
       -142.69671,
       59.55206
      ],
      [
       -142.69419,
       59.55206
      ],
      [
       -142.69321,
       59.55251
      ],
      [
       -142.69267,
       59.55233
      ],
      [
       -142.69204,
       59.5526
      ],
      [
       -142.6915,
       59.55242
      ],
      [
       -142.69096,
       59.55161
      ],
      [
       -142.68997,
       59.55143
      ],
      [
       -142.68997,
       59.55197
      ],
      [
       -142.68943,
       59.55233
      ],
      [
       -142.68844,
       59.55233
      ],
      [
       -142.68764,
       59.55197
      ],
      [
       -142.68692,
       59.55215
      ],
      [
       -142.68638,
       59.55188
      ],
      [
       -142.68566,
       59.5526
      ],
      [
       -142.68611,
       59.55305
      ],
      [
       -142.68746,
       59.55269
      ],
      [
       -142.68853,
       59.55305
      ],
      [
       -142.68889,
       59.55359
      ],
      [
       -142.69033,
       59.55296
      ],
      [
       -142.69132,
       59.55341
      ],
      [
       -142.69222,
       59.55314
      ],
      [
       -142.69294,
       59.55368
      ],
      [
       -142.69392,
       59.55269
      ],
      [
       -142.69473,
       59.55305
      ],
      [
       -142.69599,
       59.55305
      ],
      [
       -142.69671,
       59.55206
      ]
     ]
    ]
   },
   "properties": {
    "id": "det-11",
    "classification": "lookalike",
    "confidence": 0.45,
    "area_km2": 0.066,
    "elongation": 5.24,
    "edge_gradient": 16.4063,
    "contrast_db": -3.81,
    "shape_class": "linear",
    "discharge_class": "chronic",
    "centroid": [
     -142.69106,
     59.55261
    ],
    "ship_detections": [],
    "vh_contrast_db": 0.129,
    "vh_mean_depth_db": 1.085,
    "solidity": 0.579,
    "mean_depth_db": 6.111
   }
  },
  {
   "type": "Feature",
   "geometry": {
    "type": "Polygon",
    "coordinates": [
     [
      [
       -142.66356,
       59.55215
      ],
      [
       -142.66356,
       59.55161
      ],
      [
       -142.66221,
       59.55197
      ],
      [
       -142.65952,
       59.55179
      ],
      [
       -142.65871,
       59.55224
      ],
      [
       -142.65781,
       59.55188
      ],
      [
       -142.65718,
       59.55242
      ],
      [
       -142.65323,
       59.55179
      ],
      [
       -142.65323,
       59.5526
      ],
      [
       -142.65395,
       59.55224
      ],
      [
       -142.65458,
       59.55233
      ],
      [
       -142.6553,
       59.55287
      ],
      [
       -142.65593,
       59.5526
      ],
      [
       -142.65646,
       59.55296
      ],
      [
       -142.65736,
       59.55287
      ],
      [
       -142.65826,
       59.55323
      ],
      [
       -142.65862,
       59.55305
      ],
      [
       -142.65952,
       59.55368
      ],
      [
       -142.65997,
       59.55323
      ],
      [
       -142.66051,
       59.55323
      ],
      [
       -142.66051,
       59.55278
      ],
      [
       -142.66087,
       59.55242
      ],
      [
       -142.6632,
       59.55251
      ],
      [
       -142.66356,
       59.55215
      ]
     ]
    ]
   },
   "properties": {
    "id": "det-12",
    "classification": "lookalike",
    "confidence": 0.45,
    "area_km2": 0.055,
    "elongation": 4.84,
    "edge_gradient": 16.0583,
    "contrast_db": -3.38,
    "shape_class": "linear",
    "discharge_class": "unknown",
    "centroid": [
     -142.65879,
     59.55245
    ],
    "ship_detections": [],
    "vh_contrast_db": 0.088,
    "vh_mean_depth_db": 1.361,
    "solidity": 0.611,
    "mean_depth_db": 6.562
   }
  },
  {
   "type": "Feature",
   "geometry": {
    "type": "Polygon",
    "coordinates": [
     [
      [
       -142.6615,
       59.55484
      ],
      [
       -142.6606,
       59.55484
      ],
      [
       -142.65961,
       59.55431
      ],
      [
       -142.6588,
       59.55467
      ],
      [
       -142.65826,
       59.55422
      ],
      [
       -142.65781,
       59.5544
      ],
      [
       -142.65718,
       59.55395
      ],
      [
       -142.65637,
       59.5544
      ],
      [
       -142.65548,
       59.55404
      ],
      [
       -142.65485,
       59.55449
      ],
      [
       -142.65422,
       59.55431
      ],
      [
       -142.65377,
       59.55458
      ],
      [
       -142.65287,
       59.55395
      ],
      [
       -142.65305,
       59.55287
      ],
      [
       -142.65107,
       59.55323
      ],
      [
       -142.65036,
       59.55224
      ],
      [
       -142.64919,
       59.55197
      ],
      [
       -142.64811,
       59.55035
      ],
      [
       -142.64757,
       59.55044
      ],
      [
       -142.64685,
       59.54999
      ],
      [
       -142.64658,
       59.55008
      ],
      [
       -142.64676,
       59.55071
      ],
      [
       -142.64649,
       59.55098
      ],
      [
       -142.6456,
       59.55098
      ],
      [
       -142.64577,
       59.55188
      ],
      [
       -142.64488,
       59.55278
      ],
      [
       -142.64443,
       59.55287
      ],
      [
       -142.64407,
       59.55359
      ],
      [
       -142.64353,
       59.55368
      ],
      [
       -142.64515,
       59.55413
      ],
      [
       -142.64595,
       59.55368
      ],
      [
       -142.64667,
       59.55377
      ],
      [
       -142.64748,
       59.55422
      ],
      [
       -142.64775,
       59.55314
      ],
      [
       -142.64829,
       59.55278
      ],
      [
       -142.65018,
       59.55431
      ],
      [
       -142.65018,
       59.55475
      ],
      [
       -142.64919,
       59.55511
      ],
      [
       -142.64856,
       59.55574
      ],
      [
       -142.64793,
       59.55556
      ],
      [
       -142.64766,
       59.55511
      ],
      [
       -142.64676,
       59.55547
      ],
      [
       -142.64613,
       59.55511
      ],
      [
       -142.64551,
       59.55565
      ],
      [
       -142.6438,
       59.55484
      ],
      [
       -142.64326,
       59.55502
      ],
      [
       -142.64317,
       59.5579
      ],
      [
       -142.64425,
       59.55799
      ],
      [
       -142.64488,
       59.55763
      ],
      [
       -142.6447,
       59.55709
      ],
      [
       -142.64524,
       59.55673
      ],
      [
       -142.64577,
       59.55709
      ],
      [
       -142.64542,
       59.55772
      ],
      [
       -142.64577,
       59.55826
      ],
      [
       -142.64667,
       59.55781
      ],
      [
       -142.64676,
       59.55736
      ],
      [
       -142.6473,
       59.557
      ],
      [
       -142.64784,
       59.55727
      ],
      [
       -142.64883,
       59.55718
      ],
      [
       -142.64955,
       59.5579
      ],
      [
       -142.65009,
       59.55673
      ],
      [
       -142.64955,
       59.55637
      ],
      [
       -142.64955,
       59.55601
      ],
      [
       -142.6509,
       59.55529
      ],
      [
       -142.65116,
       59.55467
      ],
      [
       -142.65179,
       59.55467
      ],
      [
       -142.6526,
       59.55422
      ],
      [
       -142.65377,
       59.55458
      ],
      [
       -142.65476,
       59.55529
      ],
      [
       -142.65476,
       59.55574
      ],
      [
       -142.65404,
       59.55628
      ],
      [
       -142.65413,
       59.55745
      ],
      [
       -142.65548,
       59.557
      ],
      [
       -142.65521,
       59.55664
      ],
      [
       -142.65521,
       59.55583
      ],
      [
       -142.65611,
       59.5552
      ],
      [
       -142.65664,
       59.5552
      ],
      [
       -142.65691,
       59.55574
      ],
      [
       -142.65781,
       59.55565
      ],
      [
       -142.65781,
       59.5552
      ],
      [
       -142.65835,
       59.55484
      ],
      [
       -142.65898,
       59.55511
      ],
      [
       -142.65925,
       59.55583
      ],
      [
       -142.6588,
       59.55637
      ],
      [
       -142.6579,
       59.55682
      ],
      [
       -142.65646,
       59.557
      ],
      [
       -142.65817,
       59.55709
      ],
      [
       -142.65844,
       59.55736
      ],
      [
       -142.65835,
       59.55808
      ],
      [
       -142.65898,
       59.55835
      ],
      [
       -142.65916,
       59.55817
      ],
      [
       -142.65871,
       59.55772
      ],
      [
       -142.65898,
       59.55709
      ],
      [
       -142.6597,
       59.55673
      ],
      [
       -142.66051,
       59.55709
      ],
      [
       -142.66123,
       59.55646
      ],
      [
       -142.66024,
       59.55646
      ],
      [
       -142.65952,
       59.55565
      ],
      [
       -142.65952,
       59.55529
      ],
      [
       -142.66006,
       59.55493
      ],
      [
       -142.66132,
       59.55547
      ],
      [
       -142.6615,
       59.55484
      ]
     ]
    ]
   },
   "properties": {
    "id": "det-13",
    "classification": "lookalike",
    "confidence": 0.444,
    "area_km2": 0.294,
    "elongation": 1.91,
    "edge_gradient": 15.0152,
    "contrast_db": -2.33,
    "shape_class": "blob",
    "discharge_class": "acute",
    "centroid": [
     -142.65012,
     59.55483
    ],
    "ship_detections": [],
    "vh_contrast_db": -0.069,
    "vh_mean_depth_db": 1.468,
    "solidity": 0.435,
    "mean_depth_db": 5.689
   }
  }
 ]
}