{"type": "FeatureCollection", "features": [{"type": "Feature", "geometry": {"type": "LineString", "coordinates": [[-142.75, 59.56], [-142.75, 59.56], [-142.75, 59.56], [-142.7, 59.54], [-142.64999, 59.54]]}, "properties": {"mmsi": "941201607", "name": "941201607      11.7V", "vessel_type": "other", "n_points": 5, "n_points_full": 5, "max_gap_minutes": 420.0}}, {"type": "Feature", "geometry": {"type": "LineString", "coordinates": [[-142.78, 59.55], [-142.78, 59.55], [-142.78, 59.55], [-142.78, 59.55], [-142.78999, 59.55], [-142.78999, 59.55], [-142.78999, 59.55]]}, "properties": {"mmsi": "941214805", "name": "941214805", "vessel_type": "other", "n_points": 7, "n_points_full": 13, "max_gap_minutes": 240.0}}]}