{"type": "FeatureCollection", "features": [{"type": "Feature", "geometry": {"type": "Polygon", "coordinates": [[[80.5237, 13.34905], [80.52331, 13.34702], [80.52077, 13.34409], [80.51614, 13.34031], [80.50953, 13.33579], [80.50112, 13.33063], [80.4911, 13.32497], [80.47973, 13.31894], [80.46728, 13.31268], [80.45406, 13.30636], [80.44039, 13.30013], [80.42662, 13.29415], [80.41308, 13.28855], [80.4001, 13.28348], [80.388, 13.27907], [80.37709, 13.27541], [80.36763, 13.27261], [80.35985, 13.27073], [80.35395, 13.26982], [80.35007, 13.26989], [80.3483, 13.27095], [80.34869, 13.27298], [80.35123, 13.27591], [80.35586, 13.27969], [80.36247, 13.28421], [80.37088, 13.28937], [80.3809, 13.29503], [80.39227, 13.30106], [80.40472, 13.30732], [80.41794, 13.31364], [80.43161, 13.31987], [80.44538, 13.32585], [80.45892, 13.33145], [80.4719, 13.33652], [80.484, 13.34093], [80.49491, 13.34459], [80.50437, 13.34739], [80.51215, 13.34927], [80.51805, 13.35018], [80.52193, 13.35011], [80.5237, 13.34905]]]}, "properties": {"id": "det-01", "classification": "oil", "confidence": 0.87, "area_km2": 12.4, "elongation": 8.2, "edge_gradient": 0.34, "contrast_db": -6.2, "shape_class": "linear", "centroid": [80.436, 13.31]}}, {"type": "Feature", "geometry": {"type": "Polygon", "coordinates": [[[80.307, 13.13], [80.30645, 13.1239], [80.3048, 13.11795], [80.3021, 13.11229], [80.29841, 13.10708], [80.29382, 13.10242], [80.28845, 13.09845], [80.28243, 13.09525], [80.27591, 13.09291], [80.26904, 13.09148], [80.262, 13.091], [80.25496, 13.09148], [80.24809, 13.09291], [80.24157, 13.09525], [80.23555, 13.09845], [80.23018, 13.10242], [80.22559, 13.10708], [80.2219, 13.11229], [80.2192, 13.11795], [80.21755, 13.1239], [80.217, 13.13], [80.21755, 13.1361], [80.2192, 13.14205], [80.2219, 13.14771], [80.22559, 13.15292], [80.23018, 13.15758], [80.23555, 13.16155], [80.24157, 13.16475], [80.24809, 13.16709], [80.25496, 13.16852], [80.262, 13.169], [80.26904, 13.16852], [80.27591, 13.16709], [80.28243, 13.16475], [80.28845, 13.16155], [80.29382, 13.15758], [80.29841, 13.15292], [80.3021, 13.14771], [80.3048, 13.14205], [80.30645, 13.1361], [80.307, 13.13]]]}, "properties": {"id": "det-02", "classification": "lookalike", "confidence": 0.71, "area_km2": 7.9, "elongation": 1.4, "edge_gradient": 0.11, "contrast_db": -3.1, "shape_class": "blob", "centroid": [80.262, 13.13]}}]}