{"type": "FeatureCollection", "features": [{"type": "Feature", "geometry": {"type": "LineString", "coordinates": [[80.30473, 13.23198], [80.30811, 13.23399], [80.31149, 13.23599], [80.31487, 13.23799], [80.31825, 13.23999], [80.32163, 13.24199], [80.325, 13.24398], [80.32838, 13.24596], [80.33175, 13.24795], [80.33513, 13.24993], [80.3385, 13.25191], [80.34187, 13.25388], [80.34524, 13.25585], [80.34861, 13.25782], [80.35198, 13.25978], [80.35534, 13.26175], [80.3587, 13.2637], [80.36206, 13.26566], [80.36542, 13.26761], [80.36877, 13.26956], [80.37213, 13.2715], [80.37548, 13.27345], [80.37882, 13.27539], [80.38217, 13.27732], [80.38551, 13.27926], [80.38884, 13.28119], [80.39218, 13.28311], [80.39551, 13.28504], [80.39883, 13.28696], [80.40216, 13.28888], [80.40548, 13.29079], [80.40879, 13.2927], [80.4121, 13.29461], [80.41541, 13.29652], [80.41871, 13.29843], [80.42201, 13.30033], [80.4253, 13.30223], [80.42859, 13.30412], [80.43188, 13.30602], [80.43516, 13.30791], [80.43843, 13.3098], [80.4417, 13.31168], [80.44497, 13.31356], [80.44823, 13.31545], [80.45148, 13.31732], [80.45473, 13.3192], [80.45798, 13.32108], [80.46121, 13.32295], [80.46445, 13.32482], [80.46768, 13.32668], [80.4709, 13.32855], [80.47411, 13.33041], [80.47732, 13.33228], [80.48053, 13.33414], [80.48373, 13.33599], [80.48692, 13.33785], [80.49011, 13.3397], [80.49329, 13.34156], [80.49646, 13.34341], [80.49963, 13.34526], [80.50279, 13.3471], [80.50595, 13.34895], [80.5091, 13.35079], [80.51225, 13.35264], [80.51538, 13.35448], [80.51852, 13.35632], [80.52164, 13.35816], [80.52476, 13.36], [80.52787, 13.36183], [80.53098, 13.36367], [80.53408, 13.3655], [80.53718, 13.36734], [80.54026, 13.36917], [80.54335, 13.371], [80.54642, 13.37283], [80.54949, 13.37466], [80.55255, 13.37649], [80.55561, 13.37832], [80.55866, 13.38015], [80.56171, 13.38198], [80.56475, 13.38381], [80.56778, 13.38563], [80.57081, 13.38746], [80.57383, 13.38929], [80.57684, 13.39111], [80.57985, 13.39294], [80.58285, 13.39477], [80.58585, 13.39659], [80.58884, 13.39842], [80.59183, 13.40025], [80.59481, 13.40207], [80.59778, 13.4039], [80.60075, 13.40573], [80.60372, 13.40756], [80.60668, 13.40938], [80.60963, 13.41121], [80.61258, 13.41304], [80.61552, 13.41487], [80.61846, 13.4167], [80.62139, 13.41853], [80.62432, 13.42037], [80.62724, 13.4222], [80.63016, 13.42403], [80.63308, 13.42587], [80.63599, 13.4277], [80.63889, 13.42954], [80.64179, 13.43138], [80.64469, 13.43322], [80.64758, 13.43506], [80.65047, 13.4369], [80.65336, 13.43874], [80.65624, 13.44059], [80.65912, 13.44243], [80.66199, 13.44428], [80.66487, 13.44613], [80.66773, 13.44798], [80.6706, 13.44983], [80.67346, 13.45169], [80.67632, 13.45354], [80.67918, 13.4554], [80.68203, 13.45726], [80.68488, 13.45912], [80.68773, 13.46098], [80.69058, 13.46285], [80.69342, 13.46472], [80.69627, 13.46659], [80.69911, 13.46846], [80.70195, 13.47033], [80.70479, 13.47221], [80.70762, 13.47409], [80.71046, 13.47597], [80.71329, 13.47785], [80.71613, 13.47974], [80.71896, 13.48163], [80.72179, 13.48352], [80.72463, 13.48541], [80.72746, 13.48731], [80.73029, 13.48921], [80.73312, 13.49111], [80.73595, 13.49301], [80.73878, 13.49492], [80.74161, 13.49683], [80.74444, 13.49874], [80.74728, 13.50066], [80.75011, 13.50258], [80.75295, 13.5045], [80.75578, 13.50642], [80.75862, 13.50835], [80.76146, 13.51028], [80.7643, 13.51221], [80.76714, 13.51415], [80.76998, 13.51609], [80.77282, 13.51803], [80.77567, 13.51998], [80.77852, 13.52192], [80.78137, 13.52388], [80.78422, 13.52583], [80.78708, 13.52779], [80.78994, 13.52975], [80.7928, 13.53171], [80.79567, 13.53368], [80.79853, 13.53565], [80.8014, 13.53763], [80.80428, 13.53961], [80.80716, 13.54159], [80.81004, 13.54357], [80.81292, 13.54556], [80.81581, 13.54755], [80.8187, 13.54954], [80.8216, 13.55154], [80.8245, 13.55354], [80.8274, 13.55555], [80.83031, 13.55755], [80.83323, 13.55956], [80.83615, 13.56158], [80.83907, 13.5636], [80.842, 13.56562], [80.84493, 13.56764], [80.84786, 13.56967], [80.85081, 13.5717], [80.85375, 13.57373], [80.85671, 13.57577], [80.85966, 13.57781], [80.86263, 13.57985], [80.86559, 13.5819], [80.86857, 13.58395], [80.87155, 13.58601], [80.87453, 13.58806], [80.87752, 13.59012], [80.88052, 13.59219], [80.88352, 13.59425], [80.88653, 13.59632], [80.88954, 13.5984], [80.89256, 13.60047], [80.89559, 13.60255], [80.89862, 13.60463], [80.90166, 13.60672], [80.9047, 13.60881], [80.90775, 13.6109], [80.91081, 13.61299], [80.91387, 13.61509], [80.91694, 13.61719], [80.92001, 13.61929], [80.92309, 13.6214], [80.92618, 13.6235], [80.92927, 13.62562], [80.93237, 13.62773], [80.93548, 13.62985], [80.93859, 13.63197], [80.94171, 13.63409], [80.94483, 13.63621], [80.94796, 13.63834], [80.9511, 13.64047], [80.95424, 13.6426], [80.95739, 13.64474], [80.96055, 13.64687], [80.96371, 13.64901], [80.96687, 13.65116], [80.97005, 13.6533], [80.97323, 13.65545]]}, "properties": {"mmsi": "367000101", "name": "FAKE ATLAS", "vessel_type": "tanker", "n_points": 220, "max_gap_minutes": 85}}, {"type": "Feature", "geometry": {"type": "LineString", "coordinates": [[80.30473, 13.32198], [80.30811, 13.32399], [80.31149, 13.32599], [80.31487, 13.32799], [80.31825, 13.32999], [80.32163, 13.33199], [80.325, 13.33398], [80.32838, 13.33596], [80.33175, 13.33795], [80.33513, 13.33993], [80.3385, 13.34191], [80.34187, 13.34388], [80.34524, 13.34585], [80.34861, 13.34782], [80.35198, 13.34978], [80.35534, 13.35175], [80.3587, 13.3537], [80.36206, 13.35566], [80.36542, 13.35761], [80.36877, 13.35956], [80.37213, 13.3615], [80.37548, 13.36345], [80.37882, 13.36539], [80.38217, 13.36732], [80.38551, 13.36926], [80.38884, 13.37119], [80.39218, 13.37311], [80.39551, 13.37504], [80.39883, 13.37696], [80.40216, 13.37888], [80.40548, 13.38079], [80.40879, 13.3827], [80.4121, 13.38461], [80.41541, 13.38652], [80.41871, 13.38843], [80.42201, 13.39033], [80.4253, 13.39223], [80.42859, 13.39412], [80.43188, 13.39602], [80.43516, 13.39791], [80.43843, 13.3998], [80.4417, 13.40168], [80.44497, 13.40356], [80.44823, 13.40545], [80.45148, 13.40732], [80.45473, 13.4092], [80.45798, 13.41108], [80.46121, 13.41295], [80.46445, 13.41482], [80.46768, 13.41668], [80.4709, 13.41855], [80.47411, 13.42041], [80.47732, 13.42228], [80.48053, 13.42414], [80.48373, 13.42599], [80.48692, 13.42785], [80.49011, 13.4297], [80.49329, 13.43156], [80.49646, 13.43341], [80.49963, 13.43526], [80.50279, 13.4371], [80.50595, 13.43895], [80.5091, 13.44079], [80.51225, 13.44264], [80.51538, 13.44448], [80.51852, 13.44632], [80.52164, 13.44816], [80.52476, 13.45], [80.52787, 13.45183], [80.53098, 13.45367], [80.53408, 13.4555], [80.53718, 13.45734], [80.54026, 13.45917], [80.54335, 13.461], [80.54642, 13.46283], [80.54949, 13.46466], [80.55255, 13.46649], [80.55561, 13.46832], [80.55866, 13.47015], [80.56171, 13.47198], [80.56475, 13.47381], [80.56778, 13.47563], [80.57081, 13.47746], [80.57383, 13.47929], [80.57684, 13.48111], [80.57985, 13.48294], [80.58285, 13.48477], [80.58585, 13.48659], [80.58884, 13.48842], [80.59183, 13.49025], [80.59481, 13.49207], [80.59778, 13.4939], [80.60075, 13.49573], [80.60372, 13.49756], [80.60668, 13.49938], [80.60963, 13.50121], [80.61258, 13.50304], [80.61552, 13.50487], [80.61846, 13.5067], [80.62139, 13.50853], [80.62432, 13.51037], [80.62724, 13.5122], [80.63016, 13.51403], [80.63308, 13.51587], [80.63599, 13.5177], [80.63889, 13.51954], [80.64179, 13.52138], [80.64469, 13.52322], [80.64758, 13.52506], [80.65047, 13.5269], [80.65336, 13.52874], [80.65624, 13.53059], [80.65912, 13.53243], [80.66199, 13.53428], [80.66487, 13.53613], [80.66773, 13.53798], [80.6706, 13.53983], [80.67346, 13.54169], [80.67632, 13.54354], [80.67918, 13.5454], [80.68203, 13.54726], [80.68488, 13.54912], [80.68773, 13.55098], [80.69058, 13.55285], [80.69342, 13.55472], [80.69627, 13.55659], [80.69911, 13.55846], [80.70195, 13.56033], [80.70479, 13.56221], [80.70762, 13.56409], [80.71046, 13.56597], [80.71329, 13.56785], [80.71613, 13.56974], [80.71896, 13.57163], [80.72179, 13.57352], [80.72463, 13.57541], [80.72746, 13.57731], [80.73029, 13.57921], [80.73312, 13.58111], [80.73595, 13.58301], [80.73878, 13.58492], [80.74161, 13.58683], [80.74444, 13.58874], [80.74728, 13.59066], [80.75011, 13.59258], [80.75295, 13.5945], [80.75578, 13.59642], [80.75862, 13.59835], [80.76146, 13.60028], [80.7643, 13.60221], [80.76714, 13.60415], [80.76998, 13.60609], [80.77282, 13.60803], [80.77567, 13.60998], [80.77852, 13.61192], [80.78137, 13.61388], [80.78422, 13.61583], [80.78708, 13.61779], [80.78994, 13.61975], [80.7928, 13.62171], [80.79567, 13.62368], [80.79853, 13.62565], [80.8014, 13.62763], [80.80428, 13.62961], [80.80716, 13.63159], [80.81004, 13.63357], [80.81292, 13.63556], [80.81581, 13.63755], [80.8187, 13.63954], [80.8216, 13.64154], [80.8245, 13.64354], [80.8274, 13.64555], [80.83031, 13.64755], [80.83323, 13.64956], [80.83615, 13.65158], [80.83907, 13.6536], [80.842, 13.65562], [80.84493, 13.65764], [80.84786, 13.65967], [80.85081, 13.6617], [80.85375, 13.66373], [80.85671, 13.66577], [80.85966, 13.66781], [80.86263, 13.66985], [80.86559, 13.6719], [80.86857, 13.67395], [80.87155, 13.67601], [80.87453, 13.67806], [80.87752, 13.68012], [80.88052, 13.68219], [80.88352, 13.68425], [80.88653, 13.68632], [80.88954, 13.6884], [80.89256, 13.69047], [80.89559, 13.69255], [80.89862, 13.69463], [80.90166, 13.69672], [80.9047, 13.69881], [80.90775, 13.7009], [80.91081, 13.70299], [80.91387, 13.70509], [80.91694, 13.70719], [80.92001, 13.70929], [80.92309, 13.7114], [80.92618, 13.7135], [80.92927, 13.71562], [80.93237, 13.71773], [80.93548, 13.71985], [80.93859, 13.72197], [80.94171, 13.72409], [80.94483, 13.72621], [80.94796, 13.72834], [80.9511, 13.73047], [80.95424, 13.7326], [80.95739, 13.73474], [80.96055, 13.73687], [80.96371, 13.73901], [80.96687, 13.74116], [80.97005, 13.7433], [80.97323, 13.74545]]}, "properties": {"mmsi": "367000102", "name": "FAKE MERIDIAN", "vessel_type": "cargo", "n_points": 220, "max_gap_minutes": 12}}, {"type": "Feature", "geometry": {"type": "LineString", "coordinates": [[80.30473, 13.12198], [80.30811, 13.12399], [80.31149, 13.12599], [80.31487, 13.12799], [80.31825, 13.12999], [80.32163, 13.13199], [80.325, 13.13398], [80.32838, 13.13596], [80.33175, 13.13795], [80.33513, 13.13993], [80.3385, 13.14191], [80.34187, 13.14388], [80.34524, 13.14585], [80.34861, 13.14782], [80.35198, 13.14978], [80.35534, 13.15175], [80.3587, 13.1537], [80.36206, 13.15566], [80.36542, 13.15761], [80.36877, 13.15956], [80.37213, 13.1615], [80.37548, 13.16345], [80.37882, 13.16539], [80.38217, 13.16732], [80.38551, 13.16926], [80.38884, 13.17119], [80.39218, 13.17311], [80.39551, 13.17504], [80.39883, 13.17696], [80.40216, 13.17888], [80.40548, 13.18079], [80.40879, 13.1827], [80.4121, 13.18461], [80.41541, 13.18652], [80.41871, 13.18843], [80.42201, 13.19033], [80.4253, 13.19223], [80.42859, 13.19412], [80.43188, 13.19602], [80.43516, 13.19791], [80.43843, 13.1998], [80.4417, 13.20168], [80.44497, 13.20356], [80.44823, 13.20545], [80.45148, 13.20732], [80.45473, 13.2092], [80.45798, 13.21108], [80.46121, 13.21295], [80.46445, 13.21482], [80.46768, 13.21668], [80.4709, 13.21855], [80.47411, 13.22041], [80.47732, 13.22228], [80.48053, 13.22414], [80.48373, 13.22599], [80.48692, 13.22785], [80.49011, 13.2297], [80.49329, 13.23156], [80.49646, 13.23341], [80.49963, 13.23526], [80.50279, 13.2371], [80.50595, 13.23895], [80.5091, 13.24079], [80.51225, 13.24264], [80.51538, 13.24448], [80.51852, 13.24632], [80.52164, 13.24816], [80.52476, 13.25], [80.52787, 13.25183], [80.53098, 13.25367], [80.53408, 13.2555], [80.53718, 13.25734], [80.54026, 13.25917], [80.54335, 13.261], [80.54642, 13.26283], [80.54949, 13.26466], [80.55255, 13.26649], [80.55561, 13.26832], [80.55866, 13.27015], [80.56171, 13.27198], [80.56475, 13.27381], [80.56778, 13.27563], [80.57081, 13.27746], [80.57383, 13.27929], [80.57684, 13.28111], [80.57985, 13.28294], [80.58285, 13.28477], [80.58585, 13.28659], [80.58884, 13.28842], [80.59183, 13.29025], [80.59481, 13.29207], [80.59778, 13.2939], [80.60075, 13.29573], [80.60372, 13.29756], [80.60668, 13.29938], [80.60963, 13.30121], [80.61258, 13.30304], [80.61552, 13.30487], [80.61846, 13.3067], [80.62139, 13.30853], [80.62432, 13.31037], [80.62724, 13.3122], [80.63016, 13.31403], [80.63308, 13.31587], [80.63599, 13.3177], [80.63889, 13.31954], [80.64179, 13.32138], [80.64469, 13.32322], [80.64758, 13.32506], [80.65047, 13.3269], [80.65336, 13.32874], [80.65624, 13.33059], [80.65912, 13.33243], [80.66199, 13.33428], [80.66487, 13.33613], [80.66773, 13.33798], [80.6706, 13.33983], [80.67346, 13.34169], [80.67632, 13.34354], [80.67918, 13.3454], [80.68203, 13.34726], [80.68488, 13.34912], [80.68773, 13.35098], [80.69058, 13.35285], [80.69342, 13.35472], [80.69627, 13.35659], [80.69911, 13.35846], [80.70195, 13.36033], [80.70479, 13.36221], [80.70762, 13.36409], [80.71046, 13.36597], [80.71329, 13.36785], [80.71613, 13.36974], [80.71896, 13.37163], [80.72179, 13.37352], [80.72463, 13.37541], [80.72746, 13.37731], [80.73029, 13.37921], [80.73312, 13.38111], [80.73595, 13.38301], [80.73878, 13.38492], [80.74161, 13.38683], [80.74444, 13.38874], [80.74728, 13.39066], [80.75011, 13.39258], [80.75295, 13.3945], [80.75578, 13.39642], [80.75862, 13.39835], [80.76146, 13.40028], [80.7643, 13.40221], [80.76714, 13.40415], [80.76998, 13.40609], [80.77282, 13.40803], [80.77567, 13.40998], [80.77852, 13.41192], [80.78137, 13.41388], [80.78422, 13.41583], [80.78708, 13.41779], [80.78994, 13.41975], [80.7928, 13.42171], [80.79567, 13.42368], [80.79853, 13.42565], [80.8014, 13.42763], [80.80428, 13.42961], [80.80716, 13.43159], [80.81004, 13.43357], [80.81292, 13.43556], [80.81581, 13.43755], [80.8187, 13.43954], [80.8216, 13.44154], [80.8245, 13.44354], [80.8274, 13.44555], [80.83031, 13.44755], [80.83323, 13.44956], [80.83615, 13.45158], [80.83907, 13.4536], [80.842, 13.45562], [80.84493, 13.45764], [80.84786, 13.45967], [80.85081, 13.4617], [80.85375, 13.46373], [80.85671, 13.46577], [80.85966, 13.46781], [80.86263, 13.46985], [80.86559, 13.4719], [80.86857, 13.47395], [80.87155, 13.47601], [80.87453, 13.47806], [80.87752, 13.48012], [80.88052, 13.48219], [80.88352, 13.48425], [80.88653, 13.48632], [80.88954, 13.4884], [80.89256, 13.49047], [80.89559, 13.49255], [80.89862, 13.49463], [80.90166, 13.49672], [80.9047, 13.49881], [80.90775, 13.5009], [80.91081, 13.50299], [80.91387, 13.50509], [80.91694, 13.50719], [80.92001, 13.50929], [80.92309, 13.5114], [80.92618, 13.5135], [80.92927, 13.51562], [80.93237, 13.51773], [80.93548, 13.51985], [80.93859, 13.52197], [80.94171, 13.52409], [80.94483, 13.52621], [80.94796, 13.52834], [80.9511, 13.53047], [80.95424, 13.5326], [80.95739, 13.53474], [80.96055, 13.53687], [80.96371, 13.53901], [80.96687, 13.54116], [80.97005, 13.5433], [80.97323, 13.54545]]}, "properties": {"mmsi": "367000103", "name": "FAKE PELICAN", "vessel_type": "fishing", "n_points": 220, "max_gap_minutes": 12}}, {"type": "Feature", "geometry": {"type": "LineString", "coordinates": [[80.30473, 13.40198], [80.30811, 13.40399], [80.31149, 13.40599], [80.31487, 13.40799], [80.31825, 13.40999], [80.32163, 13.41199], [80.325, 13.41398], [80.32838, 13.41596], [80.33175, 13.41795], [80.33513, 13.41993], [80.3385, 13.42191], [80.34187, 13.42388], [80.34524, 13.42585], [80.34861, 13.42782], [80.35198, 13.42978], [80.35534, 13.43175], [80.3587, 13.4337], [80.36206, 13.43566], [80.36542, 13.43761], [80.36877, 13.43956], [80.37213, 13.4415], [80.37548, 13.44345], [80.37882, 13.44539], [80.38217, 13.44732], [80.38551, 13.44926], [80.38884, 13.45119], [80.39218, 13.45311], [80.39551, 13.45504], [80.39883, 13.45696], [80.40216, 13.45888], [80.40548, 13.46079], [80.40879, 13.4627], [80.4121, 13.46461], [80.41541, 13.46652], [80.41871, 13.46843], [80.42201, 13.47033], [80.4253, 13.47223], [80.42859, 13.47412], [80.43188, 13.47602], [80.43516, 13.47791], [80.43843, 13.4798], [80.4417, 13.48168], [80.44497, 13.48356], [80.44823, 13.48545], [80.45148, 13.48732], [80.45473, 13.4892], [80.45798, 13.49108], [80.46121, 13.49295], [80.46445, 13.49482], [80.46768, 13.49668], [80.4709, 13.49855], [80.47411, 13.50041], [80.47732, 13.50228], [80.48053, 13.50414], [80.48373, 13.50599], [80.48692, 13.50785], [80.49011, 13.5097], [80.49329, 13.51156], [80.49646, 13.51341], [80.49963, 13.51526], [80.50279, 13.5171], [80.50595, 13.51895], [80.5091, 13.52079], [80.51225, 13.52264], [80.51538, 13.52448], [80.51852, 13.52632], [80.52164, 13.52816], [80.52476, 13.53], [80.52787, 13.53183], [80.53098, 13.53367], [80.53408, 13.5355], [80.53718, 13.53734], [80.54026, 13.53917], [80.54335, 13.541], [80.54642, 13.54283], [80.54949, 13.54466], [80.55255, 13.54649], [80.55561, 13.54832], [80.55866, 13.55015], [80.56171, 13.55198], [80.56475, 13.55381], [80.56778, 13.55563], [80.57081, 13.55746], [80.57383, 13.55929], [80.57684, 13.56111], [80.57985, 13.56294], [80.58285, 13.56477], [80.58585, 13.56659], [80.58884, 13.56842], [80.59183, 13.57025], [80.59481, 13.57207], [80.59778, 13.5739], [80.60075, 13.57573], [80.60372, 13.57756], [80.60668, 13.57938], [80.60963, 13.58121], [80.61258, 13.58304], [80.61552, 13.58487], [80.61846, 13.5867], [80.62139, 13.58853], [80.62432, 13.59037], [80.62724, 13.5922], [80.63016, 13.59403], [80.63308, 13.59587], [80.63599, 13.5977], [80.63889, 13.59954], [80.64179, 13.60138], [80.64469, 13.60322], [80.64758, 13.60506], [80.65047, 13.6069], [80.65336, 13.60874], [80.65624, 13.61059], [80.65912, 13.61243], [80.66199, 13.61428], [80.66487, 13.61613], [80.66773, 13.61798], [80.6706, 13.61983], [80.67346, 13.62169], [80.67632, 13.62354], [80.67918, 13.6254], [80.68203, 13.62726], [80.68488, 13.62912], [80.68773, 13.63098], [80.69058, 13.63285], [80.69342, 13.63472], [80.69627, 13.63659], [80.69911, 13.63846], [80.70195, 13.64033], [80.70479, 13.64221], [80.70762, 13.64409], [80.71046, 13.64597], [80.71329, 13.64785], [80.71613, 13.64974], [80.71896, 13.65163], [80.72179, 13.65352], [80.72463, 13.65541], [80.72746, 13.65731], [80.73029, 13.65921], [80.73312, 13.66111], [80.73595, 13.66301], [80.73878, 13.66492], [80.74161, 13.66683], [80.74444, 13.66874], [80.74728, 13.67066], [80.75011, 13.67258], [80.75295, 13.6745], [80.75578, 13.67642], [80.75862, 13.67835], [80.76146, 13.68028], [80.7643, 13.68221], [80.76714, 13.68415], [80.76998, 13.68609], [80.77282, 13.68803], [80.77567, 13.68998], [80.77852, 13.69192], [80.78137, 13.69388], [80.78422, 13.69583], [80.78708, 13.69779], [80.78994, 13.69975], [80.7928, 13.70171], [80.79567, 13.70368], [80.79853, 13.70565], [80.8014, 13.70763], [80.80428, 13.70961], [80.80716, 13.71159], [80.81004, 13.71357], [80.81292, 13.71556], [80.81581, 13.71755], [80.8187, 13.71954], [80.8216, 13.72154], [80.8245, 13.72354], [80.8274, 13.72555], [80.83031, 13.72755], [80.83323, 13.72956], [80.83615, 13.73158], [80.83907, 13.7336], [80.842, 13.73562], [80.84493, 13.73764], [80.84786, 13.73967], [80.85081, 13.7417], [80.85375, 13.74373], [80.85671, 13.74577], [80.85966, 13.74781], [80.86263, 13.74985], [80.86559, 13.7519], [80.86857, 13.75395], [80.87155, 13.75601], [80.87453, 13.75806], [80.87752, 13.76012], [80.88052, 13.76219], [80.88352, 13.76425], [80.88653, 13.76632], [80.88954, 13.7684], [80.89256, 13.77047], [80.89559, 13.77255], [80.89862, 13.77463], [80.90166, 13.77672], [80.9047, 13.77881], [80.90775, 13.7809], [80.91081, 13.78299], [80.91387, 13.78509], [80.91694, 13.78719], [80.92001, 13.78929], [80.92309, 13.7914], [80.92618, 13.7935], [80.92927, 13.79562], [80.93237, 13.79773], [80.93548, 13.79985], [80.93859, 13.80197], [80.94171, 13.80409], [80.94483, 13.80621], [80.94796, 13.80834], [80.9511, 13.81047], [80.95424, 13.8126], [80.95739, 13.81474], [80.96055, 13.81687], [80.96371, 13.81901], [80.96687, 13.82116], [80.97005, 13.8233], [80.97323, 13.82545]]}, "properties": {"mmsi": "367000104", "name": "FAKE CORAL", "vessel_type": "cargo", "n_points": 220, "max_gap_minutes": 12}}, {"type": "Feature", "geometry": {"type": "LineString", "coordinates": [[80.30473, 13.04198], [80.30811, 13.04399], [80.31149, 13.04599], [80.31487, 13.04799], [80.31825, 13.04999], [80.32163, 13.05199], [80.325, 13.05398], [80.32838, 13.05596], [80.33175, 13.05795], [80.33513, 13.05993], [80.3385, 13.06191], [80.34187, 13.06388], [80.34524, 13.06585], [80.34861, 13.06782], [80.35198, 13.06978], [80.35534, 13.07175], [80.3587, 13.0737], [80.36206, 13.07566], [80.36542, 13.07761], [80.36877, 13.07956], [80.37213, 13.0815], [80.37548, 13.08345], [80.37882, 13.08539], [80.38217, 13.08732], [80.38551, 13.08926], [80.38884, 13.09119], [80.39218, 13.09311], [80.39551, 13.09504], [80.39883, 13.09696], [80.40216, 13.09888], [80.40548, 13.10079], [80.40879, 13.1027], [80.4121, 13.10461], [80.41541, 13.10652], [80.41871, 13.10843], [80.42201, 13.11033], [80.4253, 13.11223], [80.42859, 13.11412], [80.43188, 13.11602], [80.43516, 13.11791], [80.43843, 13.1198], [80.4417, 13.12168], [80.44497, 13.12356], [80.44823, 13.12545], [80.45148, 13.12732], [80.45473, 13.1292], [80.45798, 13.13108], [80.46121, 13.13295], [80.46445, 13.13482], [80.46768, 13.13668], [80.4709, 13.13855], [80.47411, 13.14041], [80.47732, 13.14228], [80.48053, 13.14414], [80.48373, 13.14599], [80.48692, 13.14785], [80.49011, 13.1497], [80.49329, 13.15156], [80.49646, 13.15341], [80.49963, 13.15526], [80.50279, 13.1571], [80.50595, 13.15895], [80.5091, 13.16079], [80.51225, 13.16264], [80.51538, 13.16448], [80.51852, 13.16632], [80.52164, 13.16816], [80.52476, 13.17], [80.52787, 13.17183], [80.53098, 13.17367], [80.53408, 13.1755], [80.53718, 13.17734], [80.54026, 13.17917], [80.54335, 13.181], [80.54642, 13.18283], [80.54949, 13.18466], [80.55255, 13.18649], [80.55561, 13.18832], [80.55866, 13.19015], [80.56171, 13.19198], [80.56475, 13.19381], [80.56778, 13.19563], [80.57081, 13.19746], [80.57383, 13.19929], [80.57684, 13.20111], [80.57985, 13.20294], [80.58285, 13.20477], [80.58585, 13.20659], [80.58884, 13.20842], [80.59183, 13.21025], [80.59481, 13.21207], [80.59778, 13.2139], [80.60075, 13.21573], [80.60372, 13.21756], [80.60668, 13.21938], [80.60963, 13.22121], [80.61258, 13.22304], [80.61552, 13.22487], [80.61846, 13.2267], [80.62139, 13.22853], [80.62432, 13.23037], [80.62724, 13.2322], [80.63016, 13.23403], [80.63308, 13.23587], [80.63599, 13.2377], [80.63889, 13.23954], [80.64179, 13.24138], [80.64469, 13.24322], [80.64758, 13.24506], [80.65047, 13.2469], [80.65336, 13.24874], [80.65624, 13.25059], [80.65912, 13.25243], [80.66199, 13.25428], [80.66487, 13.25613], [80.66773, 13.25798], [80.6706, 13.25983], [80.67346, 13.26169], [80.67632, 13.26354], [80.67918, 13.2654], [80.68203, 13.26726], [80.68488, 13.26912], [80.68773, 13.27098], [80.69058, 13.27285], [80.69342, 13.27472], [80.69627, 13.27659], [80.69911, 13.27846], [80.70195, 13.28033], [80.70479, 13.28221], [80.70762, 13.28409], [80.71046, 13.28597], [80.71329, 13.28785], [80.71613, 13.28974], [80.71896, 13.29163], [80.72179, 13.29352], [80.72463, 13.29541], [80.72746, 13.29731], [80.73029, 13.29921], [80.73312, 13.30111], [80.73595, 13.30301], [80.73878, 13.30492], [80.74161, 13.30683], [80.74444, 13.30874], [80.74728, 13.31066], [80.75011, 13.31258], [80.75295, 13.3145], [80.75578, 13.31642], [80.75862, 13.31835], [80.76146, 13.32028], [80.7643, 13.32221], [80.76714, 13.32415], [80.76998, 13.32609], [80.77282, 13.32803], [80.77567, 13.32998], [80.77852, 13.33192], [80.78137, 13.33388], [80.78422, 13.33583], [80.78708, 13.33779], [80.78994, 13.33975], [80.7928, 13.34171], [80.79567, 13.34368], [80.79853, 13.34565], [80.8014, 13.34763], [80.80428, 13.34961], [80.80716, 13.35159], [80.81004, 13.35357], [80.81292, 13.35556], [80.81581, 13.35755], [80.8187, 13.35954], [80.8216, 13.36154], [80.8245, 13.36354], [80.8274, 13.36555], [80.83031, 13.36755], [80.83323, 13.36956], [80.83615, 13.37158], [80.83907, 13.3736], [80.842, 13.37562], [80.84493, 13.37764], [80.84786, 13.37967], [80.85081, 13.3817], [80.85375, 13.38373], [80.85671, 13.38577], [80.85966, 13.38781], [80.86263, 13.38985], [80.86559, 13.3919], [80.86857, 13.39395], [80.87155, 13.39601], [80.87453, 13.39806], [80.87752, 13.40012], [80.88052, 13.40219], [80.88352, 13.40425], [80.88653, 13.40632], [80.88954, 13.4084], [80.89256, 13.41047], [80.89559, 13.41255], [80.89862, 13.41463], [80.90166, 13.41672], [80.9047, 13.41881], [80.90775, 13.4209], [80.91081, 13.42299], [80.91387, 13.42509], [80.91694, 13.42719], [80.92001, 13.42929], [80.92309, 13.4314], [80.92618, 13.4335], [80.92927, 13.43562], [80.93237, 13.43773], [80.93548, 13.43985], [80.93859, 13.44197], [80.94171, 13.44409], [80.94483, 13.44621], [80.94796, 13.44834], [80.9511, 13.45047], [80.95424, 13.4526], [80.95739, 13.45474], [80.96055, 13.45687], [80.96371, 13.45901], [80.96687, 13.46116], [80.97005, 13.4633], [80.97323, 13.46545]]}, "properties": {"mmsi": "367000105", "name": "FAKE VESPER", "vessel_type": "tanker", "n_points": 220, "max_gap_minutes": 12}}]}