{
 "type": "FeatureCollection",
 "features": [
  {
   "type": "Feature",
   "geometry": {
    "type": "Polygon",
    "coordinates": [
     [
      [
       -118.10748,
       33.64725
      ],
      [
       -118.1073,
       33.64671
      ],
      [
       -118.10757,
       33.64617
      ],
      [
       -118.10677,
       33.6459
      ],
      [
       -118.10704,
       33.6451
      ],
      [
       -118.10623,
       33.64456
      ],
      [
       -118.10623,
       33.64303
      ],
      [
       -118.10569,
       33.64348
      ],
      [
       -118.10515,
       33.64348
      ],
      [
       -118.10488,
       33.64276
      ],
      [
       -118.10416,
       33.64222
      ],
      [
       -118.10416,
       33.64159
      ],
      [
       -118.10371,
       33.6415
      ],
      [
       -118.10326,
       33.64078
      ],
      [
       -118.10129,
       33.63962
      ],
      [
       -118.10138,
       33.63908
      ],
      [
       -118.10075,
       33.63872
      ],
      [
       -118.10093,
       33.63782
      ],
      [
       -118.10003,
       33.63818
      ],
      [
       -118.09814,
       33.6371
      ],
      [
       -118.09832,
       33.6362
      ],
      [
       -118.09679,
       33.63584
      ],
      [
       -118.09572,
       33.63504
      ],
      [
       -118.09491,
       33.63548
      ],
      [
       -118.09419,
       33.63539
      ],
      [
       -118.09365,
       33.63504
      ],
      [
       -118.09356,
       33.6345
      ],
      [
       -118.09221,
       33.63513
      ],
      [
       -118.09149,
       33.63486
      ],
      [
       -118.09069,
       33.63504
      ],
      [
       -118.08997,
       33.6345
      ],
      [
       -118.08871,
       33.63495
      ],
      [
       -118.08763,
       33.63468
      ],
      [
       -118.08736,
       33.63432
      ],
      [
       -118.08583,
       33.63405
      ],
      [
       -118.08557,
       33.63351
      ],
      [
       -118.08485,
       33.63432
      ],
      [
       -118.08332,
       33.63441
      ],
      [
       -118.08269,
       33.63423
      ],
      [
       -118.08233,
       33.63378
      ],
      [
       -118.08062,
       33.63423
      ],
      [
       -118.07964,
       33.63405
      ],
      [
       -118.07892,
       33.63468
      ],
      [
       -118.07775,
       33.63441
      ],
      [
       -118.07739,
       33.63387
      ],
      [
       -118.07685,
       33.63414
      ],
      [
       -118.07595,
       33.63378
      ],
      [
       -118.07514,
       33.63396
      ],
      [
       -118.07488,
       33.63324
      ],
      [
       -118.07425,
       33.63306
      ],
      [
       -118.07443,
       33.63369
      ],
      [
       -118.0738,
       33.63414
      ],
      [
       -118.07317,
       33.63342
      ],
      [
       -118.07281,
       33.63387
      ],
      [
       -118.07155,
       33.63423
      ],
      [
       -118.07074,
       33.63369
      ],
      [
       -118.07011,
       33.63369
      ],
      [
       -118.06949,
       33.63441
      ],
      [
       -118.06904,
       33.63441
      ],
      [
       -118.06904,
       33.63638
      ],
      [
       -118.06993,
       33.63701
      ],
      [
       -118.07083,
       33.63701
      ],
      [
       -118.07119,
       33.63764
      ],
      [
       -118.07191,
       33.63719
      ],
      [
       -118.07479,
       33.63791
      ],
      [
       -118.07532,
       33.63827
      ],
      [
       -118.07541,
       33.63899
      ],
      [
       -118.07613,
       33.63845
      ],
      [
       -118.07685,
       33.63899
      ],
      [
       -118.07721,
       33.6389
      ],
      [
       -118.07865,
       33.63953
      ],
      [
       -118.07919,
       33.63935
      ],
      [
       -118.08027,
       33.63962
      ],
      [
       -118.08053,
       33.64025
      ],
      [
       -118.0835,
       33.64025
      ],
      [
       -118.08395,
       33.64114
      ],
      [
       -118.08332,
       33.64168
      ],
      [
       -118.08341,
       33.64195
      ],
      [
       -118.08395,
       33.64168
      ],
      [
       -118.08395,
       33.64123
      ],
      [
       -118.08449,
       33.64087
      ],
      [
       -118.08682,
       33.64168
      ],
      [
       -118.08754,
       33.64141
      ],
      [
       -118.08844,
       33.64204
      ],
      [
       -118.08916,
       33.64312
      ],
      [
       -118.09203,
       33.64312
      ],
      [
       -118.09266,
       33.64366
      ],
      [
       -118.09464,
       33.64411
      ],
      [
       -118.09518,
       33.64474
      ],
      [
       -118.09661,
       33.64465
      ],
      [
       -118.09742,
       33.64573
      ],
      [
       -118.09796,
       33.64555
      ],
      [
       -118.09868,
       33.64626
      ],
      [
       -118.0994,
       33.64617
      ],
      [
       -118.10003,
       33.64671
      ],
      [
       -118.09994,
       33.64725
      ],
      [
       -118.10066,
       33.64752
      ],
      [
       -118.10066,
       33.64797
      ],
      [
       -118.09895,
       33.64896
      ],
      [
       -118.09868,
       33.6495
      ],
      [
       -118.09958,
       33.64878
      ],
      [
       -118.1003,
       33.64878
      ],
      [
       -118.10057,
       33.64824
      ],
      [
       -118.10138,
       33.64806
      ],
      [
       -118.10218,
       33.64851
      ],
      [
       -118.10317,
       33.64851
      ],
      [
       -118.10353,
       33.64887
      ],
      [
       -118.10398,
       33.64869
      ],
      [
       -118.10578,
       33.64923
      ],
      [
       -118.10677,
       33.6486
      ],
      [
       -118.10659,
       33.64788
      ],
      [
       -118.10748,
       33.64725
      ]
     ]
    ]
   },
   "properties": {
    "id": "det-01",
    "classification": "oil",
    "confidence": 0.755,
    "area_km2": 2.642,
    "elongation": 3.77,
    "edge_gradient": 17.9429,
    "contrast_db": -6.06,
    "shape_class": "linear",
    "discharge_class": "unknown",
    "centroid": [
     -118.09044,
     33.6397
    ],
    "ship_detections": [
     {
      "lon": -118.1073,
      "lat": 33.67686,
      "px_area": 666,
      "peak_db": 23.47
     },
     {
      "lon": -118.14158,
      "lat": 33.68719,
      "px_area": 362,
      "peak_db": 21.67
     },
     {
      "lon": -118.1059,
      "lat": 33.60414,
      "px_area": 484,
      "peak_db": 19.38
     },
     {
      "lon": -118.126,
      "lat": 33.66635,
      "px_area": 298,
      "peak_db": 18.67
     },
     {
      "lon": -118.15288,
      "lat": 33.67872,
      "px_area": 478,
      "peak_db": 18.64
     },
     {
      "lon": -118.14961,
      "lat": 33.69535,
      "px_area": 358,
      "peak_db": 18.34
     },
     {
      "lon": -118.13391,
      "lat": 33.64724,
      "px_area": 283,
      "peak_db": 17.02
     },
     {
      "lon": -118.1371,
      "lat": 33.66186,
      "px_area": 398,
      "peak_db": 16.58
     },
     {
      "lon": -118.12887,
      "lat": 33.68697,
      "px_area": 176,
      "peak_db": 14.65
     },
     {
      "lon": -118.14136,
      "lat": 33.63626,
      "px_area": 247,
      "peak_db": 14.17
     },
     {
      "lon": -118.13336,
      "lat": 33.69735,
      "px_area": 256,
      "peak_db": 14.09
     },
     {
      "lon": -118.07698,
      "lat": 33.62567,
      "px_area": 595,
      "peak_db": 14.06
     },
     {
      "lon": -118.12606,
      "lat": 33.63806,
      "px_area": 570,
      "peak_db": 13.86
     },
     {
      "lon": -118.15955,
      "lat": 33.66708,
      "px_area": 257,
      "peak_db": 13.55
     },
     {
      "lon": -118.10981,
      "lat": 33.66617,
      "px_area": 424,
      "peak_db": 12.87
     },
     {
      "lon": -118.13641,
      "lat": 33.67957,
      "px_area": 273,
      "peak_db": 12.34
     },
     {
      "lon": -118.12305,
      "lat": 33.6963,
      "px_area": 90,
      "peak_db": 11.45
     },
     {
      "lon": -118.14164,
      "lat": 33.59581,
      "px_area": 161,
      "peak_db": 11.04
     },
     {
      "lon": -118.14492,
      "lat": 33.66726,
      "px_area": 274,
      "peak_db": 9.55
     },
     {
      "lon": -118.14743,
      "lat": 33.6479,
      "px_area": 182,
      "peak_db": 8.14
     },
     {
      "lon": -118.06748,
      "lat": 33.61622,
      "px_area": 302,
      "peak_db": 6.78
     },
     {
      "lon": -118.13975,
      "lat": 33.60536,
      "px_area": 87,
      "peak_db": 0.81
     },
     {
      "lon": -118.10256,
      "lat": 33.63571,
      "px_area": 48,
      "peak_db": 0.39
     },
     {
      "lon": -118.10514,
      "lat": 33.60092,
      "px_area": 86,
      "peak_db": -0.34
     },
     {
      "lon": -118.06958,
      "lat": 33.63882,
      "px_area": 10,
      "peak_db": -2.74
     },
     {
      "lon": -118.15758,
      "lat": 33.68253,
      "px_area": 20,
      "peak_db": -5.68
     },
     {
      "lon": -118.10712,
      "lat": 33.67867,
      "px_area": 4,
      "peak_db": -5.93
     },
     {
      "lon": -118.13465,
      "lat": 33.65387,
      "px_area": 14,
      "peak_db": -6.13
     },
     {
      "lon": -118.11139,
      "lat": 33.62773,
      "px_area": 7,
      "peak_db": -6.83
     },
     {
      "lon": -118.09635,
      "lat": 33.62463,
      "px_area": 10,
      "peak_db": -7.22
     },
     {
      "lon": -118.14913,
      "lat": 33.65205,
      "px_area": 9,
      "peak_db": -7.68
     },
     {
      "lon": -118.14164,
      "lat": 33.65847,
      "px_area": 13,
      "peak_db": -7.85
     },
     {
      "lon": -118.12208,
      "lat": 33.65203,
      "px_area": 7,
      "peak_db": -8.09
     },
     {
      "lon": -118.15856,
      "lat": 33.65617,
      "px_area": 25,
      "peak_db": -8.1
     },
     {
      "lon": -118.1423,
      "lat": 33.65842,
      "px_area": 9,
      "peak_db": -8.12
     },
     {
      "lon": -118.1079,
      "lat": 33.65393,
      "px_area": 8,
      "peak_db": -8.32
     },
     {
      "lon": -118.10792,
      "lat": 33.68854,
      "px_area": 15,
      "peak_db": -8.54
     },
     {
      "lon": -118.11195,
      "lat": 33.68239,
      "px_area": 7,
      "peak_db": -8.6
     },
     {
      "lon": -118.15152,
      "lat": 33.66398,
      "px_area": 4,
      "peak_db": -8.62
     },
     {
      "lon": -118.10319,
      "lat": 33.63609,
      "px_area": 7,
      "peak_db": -8.71
     },
     {
      "lon": -118.14089,
      "lat": 33.65863,
      "px_area": 6,
      "peak_db": -9.39
     },
     {
      "lon": -118.11408,
      "lat": 33.69294,
      "px_area": 5,
      "peak_db": -9.4
     },
     {
      "lon": -118.1597,
      "lat": 33.65603,
      "px_area": 4,
      "peak_db": -9.49
     }
    ],
    "vh_contrast_db": -0.013,
    "vh_mean_depth_db": 1.186,
    "solidity": 0.724,
    "mean_depth_db": 8.212
   }
  },
  {
   "type": "Feature",
   "geometry": {
    "type": "Polygon",
    "coordinates": [
     [
      [
       -118.13354,
       33.68238
      ],
      [
       -118.13327,
       33.68139
      ],
      [
       -118.1338,
       33.68094
      ],
      [
       -118.13372,
       33.67995
      ],
      [
       -118.13336,
       33.68031
      ],
      [
       -118.13183,
       33.68067
      ],
      [
       -118.13102,
       33.68022
      ],
      [
       -118.13084,
       33.67941
      ],
      [
       -118.13021,
       33.67968
      ],
      [
       -118.13048,
       33.68049
      ],
      [
       -118.12895,
       33.68184
      ],
      [
       -118.12985,
       33.6822
      ],
      [
       -118.13048,
       33.68166
      ],
      [
       -118.13039,
       33.68121
      ],
      [
       -118.13102,
       33.68085
      ],
      [
       -118.13192,
       33.68112
      ],
      [
       -118.13273,
       33.68229
      ],
      [
       -118.13246,
       33.68292
      ],
      [
       -118.1312,
       33.68327
      ],
      [
       -118.13219,
       33.68318
      ],
      [
       -118.13354,
       33.68238
      ]
     ]
    ]
   },
   "properties": {
    "id": "det-02",
    "classification": "lookalike",
    "confidence": 0.411,
    "area_km2": 0.065,
    "elongation": 1.22,
    "edge_gradient": 15.9809,
    "contrast_db": -1.93,
    "shape_class": "blob",
    "discharge_class": "acute",
    "centroid": [
     -118.13172,
     33.68118
    ],
    "ship_detections": [
     {
      "lon": -118.1073,
      "lat": 33.67686,
      "px_area": 666,
      "peak_db": 23.47
     },
     {
      "lon": -118.14158,
      "lat": 33.68719,
      "px_area": 362,
      "peak_db": 21.67
     },
     {
      "lon": -118.1059,
      "lat": 33.60414,
      "px_area": 484,
      "peak_db": 19.38
     },
     {
      "lon": -118.126,
      "lat": 33.66635,
      "px_area": 298,
      "peak_db": 18.67
     },
     {
      "lon": -118.15288,
      "lat": 33.67872,
      "px_area": 478,
      "peak_db": 18.64
     },
     {
      "lon": -118.14961,
      "lat": 33.69535,
      "px_area": 358,
      "peak_db": 18.34
     },
     {
      "lon": -118.13391,
      "lat": 33.64724,
      "px_area": 283,
      "peak_db": 17.02
     },
     {
      "lon": -118.1371,
      "lat": 33.66186,
      "px_area": 398,
      "peak_db": 16.58
     },
     {
      "lon": -118.12887,
      "lat": 33.68697,
      "px_area": 176,
      "peak_db": 14.65
     },
     {
      "lon": -118.14136,
      "lat": 33.63626,
      "px_area": 247,
      "peak_db": 14.17
     },
     {
      "lon": -118.13336,
      "lat": 33.69735,
      "px_area": 256,
      "peak_db": 14.09
     },
     {
      "lon": -118.07698,
      "lat": 33.62567,
      "px_area": 595,
      "peak_db": 14.06
     },
     {
      "lon": -118.12606,
      "lat": 33.63806,
      "px_area": 570,
      "peak_db": 13.86
     },
     {
      "lon": -118.15955,
      "lat": 33.66708,
      "px_area": 257,
      "peak_db": 13.55
     },
     {
      "lon": -118.10981,
      "lat": 33.66617,
      "px_area": 424,
      "peak_db": 12.87
     },
     {
      "lon": -118.13641,
      "lat": 33.67957,
      "px_area": 273,
      "peak_db": 12.34
     },
     {
      "lon": -118.12305,
      "lat": 33.6963,
      "px_area": 90,
      "peak_db": 11.45
     },
     {
      "lon": -118.14164,
      "lat": 33.59581,
      "px_area": 161,
      "peak_db": 11.04
     },
     {
      "lon": -118.14492,
      "lat": 33.66726,
      "px_area": 274,
      "peak_db": 9.55
     },
     {
      "lon": -118.14743,
      "lat": 33.6479,
      "px_area": 182,
      "peak_db": 8.14
     },
     {
      "lon": -118.06748,
      "lat": 33.61622,
      "px_area": 302,
      "peak_db": 6.78
     },
     {
      "lon": -118.13975,
      "lat": 33.60536,
      "px_area": 87,
      "peak_db": 0.81
     },
     {
      "lon": -118.10256,
      "lat": 33.63571,
      "px_area": 48,
      "peak_db": 0.39
     },
     {
      "lon": -118.10514,
      "lat": 33.60092,
      "px_area": 86,
      "peak_db": -0.34
     },
     {
      "lon": -118.06958,
      "lat": 33.63882,
      "px_area": 10,
      "peak_db": -2.74
     },
     {
      "lon": -118.15758,
      "lat": 33.68253,
      "px_area": 20,
      "peak_db": -5.68
     },
     {
      "lon": -118.10712,
      "lat": 33.67867,
      "px_area": 4,
      "peak_db": -5.93
     },
     {
      "lon": -118.13465,
      "lat": 33.65387,
      "px_area": 14,
      "peak_db": -6.13
     },
     {
      "lon": -118.11139,
      "lat": 33.62773,
      "px_area": 7,
      "peak_db": -6.83
     },
     {
      "lon": -118.09635,
      "lat": 33.62463,
      "px_area": 10,
      "peak_db": -7.22
     },
     {
      "lon": -118.14913,
      "lat": 33.65205,
      "px_area": 9,
      "peak_db": -7.68
     },
     {
      "lon": -118.14164,
      "lat": 33.65847,
      "px_area": 13,
      "peak_db": -7.85
     },
     {
      "lon": -118.12208,
      "lat": 33.65203,
      "px_area": 7,
      "peak_db": -8.09
     },
     {
      "lon": -118.15856,
      "lat": 33.65617,
      "px_area": 25,
      "peak_db": -8.1
     },
     {
      "lon": -118.1423,
      "lat": 33.65842,
      "px_area": 9,
      "peak_db": -8.12
     },
     {
      "lon": -118.1079,
      "lat": 33.65393,
      "px_area": 8,
      "peak_db": -8.32
     },
     {
      "lon": -118.10792,
      "lat": 33.68854,
      "px_area": 15,
      "peak_db": -8.54
     },
     {
      "lon": -118.11195,
      "lat": 33.68239,
      "px_area": 7,
      "peak_db": -8.6
     },
     {
      "lon": -118.15152,
      "lat": 33.66398,
      "px_area": 4,
      "peak_db": -8.62
     },
     {
      "lon": -118.10319,
      "lat": 33.63609,
      "px_area": 7,
      "peak_db": -8.71
     },
     {
      "lon": -118.14089,
      "lat": 33.65863,
      "px_area": 6,
      "peak_db": -9.39
     },
     {
      "lon": -118.11408,
      "lat": 33.69294,
      "px_area": 5,
      "peak_db": -9.4
     },
     {
      "lon": -118.1597,
      "lat": 33.65603,
      "px_area": 4,
      "peak_db": -9.49
     }
    ],
    "vh_contrast_db": -0.191,
    "vh_mean_depth_db": 2.946,
    "solidity": 0.463,
    "mean_depth_db": 5.193
   }
  },
  {
   "type": "Feature",
   "geometry": {
    "type": "Polygon",
    "coordinates": [
     [
      [
       -118.13902,
       33.68714
      ],
      [
       -118.13902,
       33.68651
      ],
      [
       -118.13937,
       33.68615
      ],
      [
       -118.13991,
       33.68615
      ],
      [
       -118.13919,
       33.68543
      ],
      [
       -118.13919,
       33.68372
      ],
      [
       -118.13875,
       33.68336
      ],
      [
       -118.13767,
       33.68363
      ],
      [
       -118.1374,
       33.68336
      ],
      [
       -118.13758,
       33.68229
      ],
      [
       -118.13623,
       33.68247
      ],
      [
       -118.13578,
       33.68211
      ],
      [
       -118.13569,
       33.68148
      ],
      [
       -118.13506,
       33.68103
      ],
      [
       -118.13488,
       33.68121
      ],
      [
       -118.13542,
       33.68193
      ],
      [
       -118.13533,
       33.68238
      ],
      [
       -118.1365,
       33.68283
      ],
      [
       -118.13632,
       33.68345
      ],
      [
       -118.13677,
       33.68417
      ],
      [
       -118.1374,
       33.68444
      ],
      [
       -118.13731,
       33.68489
      ],
      [
       -118.13785,
       33.68525
      ],
      [
       -118.13785,
       33.68561
      ],
      [
       -118.13659,
       33.6866
      ],
      [
       -118.13551,
       33.68705
      ],
      [
       -118.13443,
       33.68615
      ],
      [
       -118.13434,
       33.68543
      ],
      [
       -118.13389,
       33.68561
      ],
      [
       -118.13318,
       33.68507
      ],
      [
       -118.13318,
       33.68462
      ],
      [
       -118.13389,
       33.68417
      ],
      [
       -118.13327,
       33.68408
      ],
      [
       -118.13291,
       33.68417
      ],
      [
       -118.13318,
       33.68489
      ],
      [
       -118.133,
       33.68579
      ],
      [
       -118.1338,
       33.68552
      ],
      [
       -118.13443,
       33.68597
      ],
      [
       -118.13389,
       33.68705
      ],
      [
       -118.13461,
       33.68795
      ],
      [
       -118.13488,
       33.68786
      ],
      [
       -118.13479,
       33.68741
      ],
      [
       -118.13533,
       33.68705
      ],
      [
       -118.13614,
       33.68741
      ],
      [
       -118.13731,
       33.68687
      ],
      [
       -118.13794,
       33.6875
      ],
      [
       -118.13902,
       33.68714
      ]
     ]
    ]
   },
   "properties": {
    "id": "det-03",
    "classification": "lookalike",
    "confidence": 0.411,
    "area_km2": 0.136,
    "elongation": 1.29,
    "edge_gradient": 15.5783,
    "contrast_db": -1.93,
    "shape_class": "blob",
    "discharge_class": "acute",
    "centroid": [
     -118.13703,
     33.68513
    ],
    "ship_detections": [
     {
      "lon": -118.1073,
      "lat": 33.67686,
      "px_area": 666,
      "peak_db": 23.47
     },
     {
      "lon": -118.14158,
      "lat": 33.68719,
      "px_area": 362,
      "peak_db": 21.67
     },
     {
      "lon": -118.1059,
      "lat": 33.60414,
      "px_area": 484,
      "peak_db": 19.38
     },
     {
      "lon": -118.126,
      "lat": 33.66635,
      "px_area": 298,
      "peak_db": 18.67
     },
     {
      "lon": -118.15288,
      "lat": 33.67872,
      "px_area": 478,
      "peak_db": 18.64
     },
     {
      "lon": -118.14961,
      "lat": 33.69535,
      "px_area": 358,
      "peak_db": 18.34
     },
     {
      "lon": -118.13391,
      "lat": 33.64724,
      "px_area": 283,
      "peak_db": 17.02
     },
     {
      "lon": -118.1371,
      "lat": 33.66186,
      "px_area": 398,
      "peak_db": 16.58
     },
     {
      "lon": -118.12887,
      "lat": 33.68697,
      "px_area": 176,
      "peak_db": 14.65
     },
     {
      "lon": -118.14136,
      "lat": 33.63626,
      "px_area": 247,
      "peak_db": 14.17
     },
     {
      "lon": -118.13336,
      "lat": 33.69735,
      "px_area": 256,
      "peak_db": 14.09
     },
     {
      "lon": -118.07698,
      "lat": 33.62567,
      "px_area": 595,
      "peak_db": 14.06
     },
     {
      "lon": -118.12606,
      "lat": 33.63806,
      "px_area": 570,
      "peak_db": 13.86
     },
     {
      "lon": -118.15955,
      "lat": 33.66708,
      "px_area": 257,
      "peak_db": 13.55
     },
     {
      "lon": -118.10981,
      "lat": 33.66617,
      "px_area": 424,
      "peak_db": 12.87
     },
     {
      "lon": -118.13641,
      "lat": 33.67957,
      "px_area": 273,
      "peak_db": 12.34
     },
     {
      "lon": -118.12305,
      "lat": 33.6963,
      "px_area": 90,
      "peak_db": 11.45
     },
     {
      "lon": -118.14164,
      "lat": 33.59581,
      "px_area": 161,
      "peak_db": 11.04
     },
     {
      "lon": -118.14492,
      "lat": 33.66726,
      "px_area": 274,
      "peak_db": 9.55
     },
     {
      "lon": -118.14743,
      "lat": 33.6479,
      "px_area": 182,
      "peak_db": 8.14
     },
     {
      "lon": -118.06748,
      "lat": 33.61622,
      "px_area": 302,
      "peak_db": 6.78
     },
     {
      "lon": -118.13975,
      "lat": 33.60536,
      "px_area": 87,
      "peak_db": 0.81
     },
     {
      "lon": -118.10256,
      "lat": 33.63571,
      "px_area": 48,
      "peak_db": 0.39
     },
     {
      "lon": -118.10514,
      "lat": 33.60092,
      "px_area": 86,
      "peak_db": -0.34
     },
     {
      "lon": -118.06958,
      "lat": 33.63882,
      "px_area": 10,
      "peak_db": -2.74
     },
     {
      "lon": -118.15758,
      "lat": 33.68253,
      "px_area": 20,
      "peak_db": -5.68
     },
     {
      "lon": -118.10712,
      "lat": 33.67867,
      "px_area": 4,
      "peak_db": -5.93
     },
     {
      "lon": -118.13465,
      "lat": 33.65387,
      "px_area": 14,
      "peak_db": -6.13
     },
     {
      "lon": -118.11139,
      "lat": 33.62773,
      "px_area": 7,
      "peak_db": -6.83
     },
     {
      "lon": -118.09635,
      "lat": 33.62463,
      "px_area": 10,
      "peak_db": -7.22
     },
     {
      "lon": -118.14913,
      "lat": 33.65205,
      "px_area": 9,
      "peak_db": -7.68
     },
     {
      "lon": -118.14164,
      "lat": 33.65847,
      "px_area": 13,
      "peak_db": -7.85
     },
     {
      "lon": -118.12208,
      "lat": 33.65203,
      "px_area": 7,
      "peak_db": -8.09
     },
     {
      "lon": -118.15856,
      "lat": 33.65617,
      "px_area": 25,
      "peak_db": -8.1
     },
     {
      "lon": -118.1423,
      "lat": 33.65842,
      "px_area": 9,
      "peak_db": -8.12
     },
     {
      "lon": -118.1079,
      "lat": 33.65393,
      "px_area": 8,
      "peak_db": -8.32
     },
     {
      "lon": -118.10792,
      "lat": 33.68854,
      "px_area": 15,
      "peak_db": -8.54
     },
     {
      "lon": -118.11195,
      "lat": 33.68239,
      "px_area": 7,
      "peak_db": -8.6
     },
     {
      "lon": -118.15152,
      "lat": 33.66398,
      "px_area": 4,
      "peak_db": -8.62
     },
     {
      "lon": -118.10319,
      "lat": 33.63609,
      "px_area": 7,
      "peak_db": -8.71
     },
     {
      "lon": -118.14089,
      "lat": 33.65863,
      "px_area": 6,
      "peak_db": -9.39
     },
     {
      "lon": -118.11408,
      "lat": 33.69294,
      "px_area": 5,
      "peak_db": -9.4
     },
     {
      "lon": -118.1597,
      "lat": 33.65603,
      "px_area": 4,
      "peak_db": -9.49
     }
    ],
    "vh_contrast_db": -0.161,
    "vh_mean_depth_db": 2.182,
    "solidity": 0.397,
    "mean_depth_db": 5.359
   }
  },
  {
   "type": "Feature",
   "geometry": {
    "type": "Polygon",
    "coordinates": [
     [
      [
       -118.14288,
       33.6981
      ],
      [
       -118.14171,
       33.6981
      ],
      [
       -118.14081,
       33.69711
      ],
      [
       -118.13973,
       33.69783
      ],
      [
       -118.13928,
       33.69756
      ],
      [
       -118.13866,
       33.69765
      ],
      [
       -118.13821,
       33.69702
      ],
      [
       -118.13713,
       33.69693
      ],
      [
       -118.13659,
       33.69711
      ],
      [
       -118.13704,
       33.69756
      ],
      [
       -118.13704,
       33.69801
      ],
      [
       -118.13623,
       33.699
      ],
      [
       -118.13569,
       33.69917
      ],
      [
       -118.13497,
       33.69873
      ],
      [
       -118.13407,
       33.69873
      ],
      [
       -118.13363,
       33.69971
      ],
      [
       -118.13372,
       33.69998
      ],
      [
       -118.13434,
       33.69998
      ],
      [
       -118.13416,
       33.69935
      ],
      [
       -118.1347,
       33.699
      ],
      [
       -118.13587,
       33.69998
      ],
      [
       -118.13641,
       33.69998
      ],
      [
       -118.13704,
       33.69935
      ],
      [
       -118.13767,
       33.69998
      ],
      [
       -118.14117,
       33.69998
      ],
      [
       -118.14045,
       33.69944
      ],
      [
       -118.13991,
       33.69944
      ],
      [
       -118.13937,
       33.69882
      ],
      [
       -118.13937,
       33.69837
      ],
      [
       -118.14018,
       33.69774
      ],
      [
       -118.1409,
       33.69792
      ],
      [
       -118.14162,
       33.69855
      ],
      [
       -118.14207,
       33.69828
      ],
      [
       -118.1427,
       33.69864
      ],
      [
       -118.14288,
       33.6981
      ]
     ]
    ]
   },
   "properties": {
    "id": "det-04",
    "classification": "lookalike",
    "confidence": 0.41,
    "area_km2": 0.125,
    "elongation": 2.85,
    "edge_gradient": 16.0112,
    "contrast_db": -1.92,
    "shape_class": "blob",
    "discharge_class": "acute",
    "centroid": [
     -118.13818,
     33.6987
    ],
    "ship_detections": [
     {
      "lon": -118.1073,
      "lat": 33.67686,
      "px_area": 666,
      "peak_db": 23.47
     },
     {
      "lon": -118.14158,
      "lat": 33.68719,
      "px_area": 362,
      "peak_db": 21.67
     },
     {
      "lon": -118.1059,
      "lat": 33.60414,
      "px_area": 484,
      "peak_db": 19.38
     },
     {
      "lon": -118.126,
      "lat": 33.66635,
      "px_area": 298,
      "peak_db": 18.67
     },
     {
      "lon": -118.15288,
      "lat": 33.67872,
      "px_area": 478,
      "peak_db": 18.64
     },
     {
      "lon": -118.14961,
      "lat": 33.69535,
      "px_area": 358,
      "peak_db": 18.34
     },
     {
      "lon": -118.13391,
      "lat": 33.64724,
      "px_area": 283,
      "peak_db": 17.02
     },
     {
      "lon": -118.1371,
      "lat": 33.66186,
      "px_area": 398,
      "peak_db": 16.58
     },
     {
      "lon": -118.12887,
      "lat": 33.68697,
      "px_area": 176,
      "peak_db": 14.65
     },
     {
      "lon": -118.14136,
      "lat": 33.63626,
      "px_area": 247,
      "peak_db": 14.17
     },
     {
      "lon": -118.13336,
      "lat": 33.69735,
      "px_area": 256,
      "peak_db": 14.09
     },
     {
      "lon": -118.07698,
      "lat": 33.62567,
      "px_area": 595,
      "peak_db": 14.06
     },
     {
      "lon": -118.12606,
      "lat": 33.63806,
      "px_area": 570,
      "peak_db": 13.86
     },
     {
      "lon": -118.15955,
      "lat": 33.66708,
      "px_area": 257,
      "peak_db": 13.55
     },
     {
      "lon": -118.10981,
      "lat": 33.66617,
      "px_area": 424,
      "peak_db": 12.87
     },
     {
      "lon": -118.13641,
      "lat": 33.67957,
      "px_area": 273,
      "peak_db": 12.34
     },
     {
      "lon": -118.12305,
      "lat": 33.6963,
      "px_area": 90,
      "peak_db": 11.45
     },
     {
      "lon": -118.14164,
      "lat": 33.59581,
      "px_area": 161,
      "peak_db": 11.04
     },
     {
      "lon": -118.14492,
      "lat": 33.66726,
      "px_area": 274,
      "peak_db": 9.55
     },
     {
      "lon": -118.14743,
      "lat": 33.6479,
      "px_area": 182,
      "peak_db": 8.14
     },
     {
      "lon": -118.06748,
      "lat": 33.61622,
      "px_area": 302,
      "peak_db": 6.78
     },
     {
      "lon": -118.13975,
      "lat": 33.60536,
      "px_area": 87,
      "peak_db": 0.81
     },
     {
      "lon": -118.10256,
      "lat": 33.63571,
      "px_area": 48,
      "peak_db": 0.39
     },
     {
      "lon": -118.10514,
      "lat": 33.60092,
      "px_area": 86,
      "peak_db": -0.34
     },
     {
      "lon": -118.06958,
      "lat": 33.63882,
      "px_area": 10,
      "peak_db": -2.74
     },
     {
      "lon": -118.15758,
      "lat": 33.68253,
      "px_area": 20,
      "peak_db": -5.68
     },
     {
      "lon": -118.10712,
      "lat": 33.67867,
      "px_area": 4,
      "peak_db": -5.93
     },
     {
      "lon": -118.13465,
      "lat": 33.65387,
      "px_area": 14,
      "peak_db": -6.13
     },
     {
      "lon": -118.11139,
      "lat": 33.62773,
      "px_area": 7,
      "peak_db": -6.83
     },
     {
      "lon": -118.09635,
      "lat": 33.62463,
      "px_area": 10,
      "peak_db": -7.22
     },
     {
      "lon": -118.14913,
      "lat": 33.65205,
      "px_area": 9,
      "peak_db": -7.68
     },
     {
      "lon": -118.14164,
      "lat": 33.65847,
      "px_area": 13,
      "peak_db": -7.85
     },
     {
      "lon": -118.12208,
      "lat": 33.65203,
      "px_area": 7,
      "peak_db": -8.09
     },
     {
      "lon": -118.15856,
      "lat": 33.65617,
      "px_area": 25,
      "peak_db": -8.1
     },
     {
      "lon": -118.1423,
      "lat": 33.65842,
      "px_area": 9,
      "peak_db": -8.12
     },
     {
      "lon": -118.1079,
      "lat": 33.65393,
      "px_area": 8,
      "peak_db": -8.32
     },
     {
      "lon": -118.10792,
      "lat": 33.68854,
      "px_area": 15,
      "peak_db": -8.54
     },
     {
      "lon": -118.11195,
      "lat": 33.68239,
      "px_area": 7,
      "peak_db": -8.6
     },
     {
      "lon": -118.15152,
      "lat": 33.66398,
      "px_area": 4,
      "peak_db": -8.62
     },
     {
      "lon": -118.10319,
      "lat": 33.63609,
      "px_area": 7,
      "peak_db": -8.71
     },
     {
      "lon": -118.14089,
      "lat": 33.65863,
      "px_area": 6,
      "peak_db": -9.39
     },
     {
      "lon": -118.11408,
      "lat": 33.69294,
      "px_area": 5,
      "peak_db": -9.4
     },
     {
      "lon": -118.1597,
      "lat": 33.65603,
      "px_area": 4,
      "peak_db": -9.49
     }
    ],
    "vh_contrast_db": -0.091,
    "vh_mean_depth_db": 2.79,
    "solidity": 0.557,
    "mean_depth_db": 5.649
   }
  },
  {
   "type": "Feature",
   "geometry": {
    "type": "Polygon",
    "coordinates": [
     [
      [
       -118.14476,
       33.68193
      ],
      [
       -118.14512,
       33.68184
      ],
      [
       -118.14548,
       33.68112
      ],
      [
       -118.1462,
       33.68094
      ],
      [
       -118.14647,
       33.68022
      ],
      [
       -118.14701,
       33.68004
      ],
      [
       -118.14773,
       33.68058
      ],
      [
       -118.14764,
       33.68148
      ],
      [
       -118.14701,
       33.68184
      ],
      [
       -118.14701,
       33.68211
      ],
      [
       -118.14773,
       33.68211
      ],
      [
       -118.14791,
       33.68085
      ],
      [
       -118.1489,
       33.68031
      ],
      [
       -118.14944,
       33.68067
      ],
      [
       -118.14988,
       33.68175
      ],
      [
       -118.15078,
       33.68193
      ],
      [
       -118.15069,
       33.68148
      ],
      [
       -118.15015,
       33.68112
      ],
      [
       -118.15015,
       33.67995
      ],
      [
       -118.14908,
       33.68031
      ],
      [
       -118.14845,
       33.67986
      ],
      [
       -118.14881,
       33.67887
      ],
      [
       -118.14997,
       33.67797
      ],
      [
       -118.14953,
       33.67663
      ],
      [
       -118.14665,
       33.67726
      ],
      [
       -118.1471,
       33.67762
      ],
      [
       -118.14701,
       33.67806
      ],
      [
       -118.14755,
       33.67842
      ],
      [
       -118.14746,
       33.6795
      ],
      [
       -118.14674,
       33.67986
      ],
      [
       -118.1462,
       33.6795
      ],
      [
       -118.1462,
       33.67878
      ],
      [
       -118.14557,
       33.67833
      ],
      [
       -118.14548,
       33.67788
      ],
      [
       -118.14512,
       33.6786
      ],
      [
       -118.14405,
       33.6786
      ],
      [
       -118.14405,
       33.67887
      ],
      [
       -118.14521,
       33.6795
      ],
      [
       -118.14521,
       33.68004
      ],
      [
       -118.14485,
       33.68031
      ],
      [
       -118.14512,
       33.68103
      ],
      [
       -118.14476,
       33.6813
      ],
      [
       -118.14476,
       33.68193
      ]
     ]
    ]
   },
   "properties": {
    "id": "det-05",
    "classification": "lookalike",
    "confidence": 0.404,
    "area_km2": 0.148,
    "elongation": 1.23,
    "edge_gradient": 15.0824,
    "contrast_db": -1.85,
    "shape_class": "blob",
    "discharge_class": "acute",
    "centroid": [
     -118.14759,
     33.67932
    ],
    "ship_detections": [
     {
      "lon": -118.1073,
      "lat": 33.67686,
      "px_area": 666,
      "peak_db": 23.47
     },
     {
      "lon": -118.14158,
      "lat": 33.68719,
      "px_area": 362,
      "peak_db": 21.67
     },
     {
      "lon": -118.1059,
      "lat": 33.60414,
      "px_area": 484,
      "peak_db": 19.38
     },
     {
      "lon": -118.126,
      "lat": 33.66635,
      "px_area": 298,
      "peak_db": 18.67
     },
     {
      "lon": -118.15288,
      "lat": 33.67872,
      "px_area": 478,
      "peak_db": 18.64
     },
     {
      "lon": -118.14961,
      "lat": 33.69535,
      "px_area": 358,
      "peak_db": 18.34
     },
     {
      "lon": -118.13391,
      "lat": 33.64724,
      "px_area": 283,
      "peak_db": 17.02
     },
     {
      "lon": -118.1371,
      "lat": 33.66186,
      "px_area": 398,
      "peak_db": 16.58
     },
     {
      "lon": -118.12887,
      "lat": 33.68697,
      "px_area": 176,
      "peak_db": 14.65
     },
     {
      "lon": -118.14136,
      "lat": 33.63626,
      "px_area": 247,
      "peak_db": 14.17
     },
     {
      "lon": -118.13336,
      "lat": 33.69735,
      "px_area": 256,
      "peak_db": 14.09
     },
     {
      "lon": -118.07698,
      "lat": 33.62567,
      "px_area": 595,
      "peak_db": 14.06
     },
     {
      "lon": -118.12606,
      "lat": 33.63806,
      "px_area": 570,
      "peak_db": 13.86
     },
     {
      "lon": -118.15955,
      "lat": 33.66708,
      "px_area": 257,
      "peak_db": 13.55
     },
     {
      "lon": -118.10981,
      "lat": 33.66617,
      "px_area": 424,
      "peak_db": 12.87
     },
     {
      "lon": -118.13641,
      "lat": 33.67957,
      "px_area": 273,
      "peak_db": 12.34
     },
     {
      "lon": -118.12305,
      "lat": 33.6963,
      "px_area": 90,
      "peak_db": 11.45
     },
     {
      "lon": -118.14164,
      "lat": 33.59581,
      "px_area": 161,
      "peak_db": 11.04
     },
     {
      "lon": -118.14492,
      "lat": 33.66726,
      "px_area": 274,
      "peak_db": 9.55
     },
     {
      "lon": -118.14743,
      "lat": 33.6479,
      "px_area": 182,
      "peak_db": 8.14
     },
     {
      "lon": -118.06748,
      "lat": 33.61622,
      "px_area": 302,
      "peak_db": 6.78
     },
     {
      "lon": -118.13975,
      "lat": 33.60536,
      "px_area": 87,
      "peak_db": 0.81
     },
     {
      "lon": -118.10256,
      "lat": 33.63571,
      "px_area": 48,
      "peak_db": 0.39
     },
     {
      "lon": -118.10514,
      "lat": 33.60092,
      "px_area": 86,
      "peak_db": -0.34
     },
     {
      "lon": -118.06958,
      "lat": 33.63882,
      "px_area": 10,
      "peak_db": -2.74
     },
     {
      "lon": -118.15758,
      "lat": 33.68253,
      "px_area": 20,
      "peak_db": -5.68
     },
     {
      "lon": -118.10712,
      "lat": 33.67867,
      "px_area": 4,
      "peak_db": -5.93
     },
     {
      "lon": -118.13465,
      "lat": 33.65387,
      "px_area": 14,
      "peak_db": -6.13
     },
     {
      "lon": -118.11139,
      "lat": 33.62773,
      "px_area": 7,
      "peak_db": -6.83
     },
     {
      "lon": -118.09635,
      "lat": 33.62463,
      "px_area": 10,
      "peak_db": -7.22
     },
     {
      "lon": -118.14913,
      "lat": 33.65205,
      "px_area": 9,
      "peak_db": -7.68
     },
     {
      "lon": -118.14164,
      "lat": 33.65847,
      "px_area": 13,
      "peak_db": -7.85
     },
     {
      "lon": -118.12208,
      "lat": 33.65203,
      "px_area": 7,
      "peak_db": -8.09
     },
     {
      "lon": -118.15856,
      "lat": 33.65617,
      "px_area": 25,
      "peak_db": -8.1
     },
     {
      "lon": -118.1423,
      "lat": 33.65842,
      "px_area": 9,
      "peak_db": -8.12
     },
     {
      "lon": -118.1079,
      "lat": 33.65393,
      "px_area": 8,
      "peak_db": -8.32
     },
     {
      "lon": -118.10792,
      "lat": 33.68854,
      "px_area": 15,
      "peak_db": -8.54
     },
     {
      "lon": -118.11195,
      "lat": 33.68239,
      "px_area": 7,
      "peak_db": -8.6
     },
     {
      "lon": -118.15152,
      "lat": 33.66398,
      "px_area": 4,
      "peak_db": -8.62
     },
     {
      "lon": -118.10319,
      "lat": 33.63609,
      "px_area": 7,
      "peak_db": -8.71
     },
     {
      "lon": -118.14089,
      "lat": 33.65863,
      "px_area": 6,
      "peak_db": -9.39
     },
     {
      "lon": -118.11408,
      "lat": 33.69294,
      "px_area": 5,
      "peak_db": -9.4
     },
     {
      "lon": -118.1597,
      "lat": 33.65603,
      "px_area": 4,
      "peak_db": -9.49
     }
    ],
    "vh_contrast_db": -0.022,
    "vh_mean_depth_db": 1.996,
    "solidity": 0.502,
    "mean_depth_db": 5.263
   }
  },
  {
   "type": "Feature",
   "geometry": {
    "type": "Polygon",
    "coordinates": [
     [
      [
       -118.15456,
       33.67788
      ],
      [
       -118.15545,
       33.67762
      ],
      [
       -118.15644,
       33.67806
      ],
      [
       -118.15725,
       33.67735
      ],
      [
       -118.15842,
       33.67744
      ],
      [
       -118.15896,
       33.67699
      ],
      [
       -118.15986,
       33.67717
      ],
      [
       -118.16048,
       33.67627
      ],
      [
       -118.15941,
       33.67654
      ],
      [
       -118.15896,
       33.67609
      ],
      [
       -118.15896,
       33.67546
      ],
      [
       -118.15959,
       33.6751
      ],
      [
       -118.16031,
       33.67555
      ],
      [
       -118.16066,
       33.67492
      ],
      [
       -118.16273,
       33.67465
      ],
      [
       -118.16264,
       33.6742
      ],
      [
       -118.16363,
       33.67375
      ],
      [
       -118.16417,
       33.67411
      ],
      [
       -118.16417,
       33.67447
      ],
      [
       -118.16363,
       33.67483
      ],
      [
       -118.16381,
       33.67555
      ],
      [
       -118.16336,
       33.67627
      ],
      [
       -118.16399,
       33.67645
      ],
      [
       -118.16462,
       33.67591
      ],
      [
       -118.16525,
       33.67618
      ],
      [
       -118.16578,
       33.67591
      ],
      [
       -118.16632,
       33.67609
      ],
      [
       -118.16668,
       33.67564
      ],
      [
       -118.16731,
       33.67564
      ],
      [
       -118.16785,
       33.6769
      ],
      [
       -118.16713,
       33.67744
      ],
      [
       -118.16722,
       33.67815
      ],
      [
       -118.16677,
       33.67851
      ],
      [
       -118.16587,
       33.6786
      ],
      [
       -118.16534,
       33.67824
      ],
      [
       -118.16507,
       33.67762
      ],
      [
       -118.16435,
       33.6778
      ],
      [
       -118.163,
       33.67726
      ],
      [
       -118.163,
       33.67869
      ],
      [
       -118.16246,
       33.67905
      ],
      [
       -118.16255,
       33.67959
      ],
      [
       -118.16228,
       33.67986
      ],
      [
       -118.1612,
       33.67995
      ],
      [
       -118.16057,
       33.68031
      ],
      [
       -118.16004,
       33.67995
      ],
      [
       -118.16004,
       33.67959
      ],
      [
       -118.15914,
       33.67932
      ],
      [
       -118.15851,
       33.67959
      ],
      [
       -118.15869,
       33.68013
      ],
      [
       -118.15797,
       33.68049
      ],
      [
       -118.15779,
       33.68121
      ],
      [
       -118.15878,
       33.68112
      ],
      [
       -118.15959,
       33.68049
      ],
      [
       -118.16174,
       33.68148
      ],
      [
       -118.16156,
       33.68049
      ],
      [
       -118.16237,
       33.67977
      ],
      [
       -118.16336,
       33.6795
      ],
      [
       -118.16399,
       33.67995
      ],
      [
       -118.16426,
       33.67968
      ],
      [
       -118.16381,
       33.67932
      ],
      [
       -118.16381,
       33.67869
      ],
      [
       -118.16435,
       33.67833
      ],
      [
       -118.16561,
       33.67869
      ],
      [
       -118.16596,
       33.67914
      ],
      [
       -118.16875,
       33.6786
      ],
      [
       -118.16938,
       33.67815
      ],
      [
       -118.16893,
       33.67762
      ],
      [
       -118.16857,
       33.67771
      ],
      [
       -118.16803,
       33.67735
      ],
      [
       -118.1683,
       33.67645
      ],
      [
       -118.16803,
       33.67555
      ],
      [
       -118.1683,
       33.67528
      ],
      [
       -118.16821,
       33.67483
      ],
      [
       -118.16866,
       33.67438
      ],
      [
       -118.1692,
       33.67438
      ],
      [
       -118.16938,
       33.67384
      ],
      [
       -118.17001,
       33.67348
      ],
      [
       -118.17001,
       33.67169
      ],
      [
       -118.16965,
       33.67223
      ],
      [
       -118.16911,
       33.67223
      ],
      [
       -118.16875,
       33.67187
      ],
      [
       -118.16821,
       33.67187
      ],
      [
       -118.16776,
       33.67133
      ],
      [
       -118.16776,
       33.67088
      ],
      [
       -118.16893,
       33.66917
      ],
      [
       -118.16947,
       33.66917
      ],
      [
       -118.17001,
       33.66971
      ],
      [
       -118.17001,
       33.66881
      ],
      [
       -118.16848,
       33.66899
      ],
      [
       -118.16776,
       33.66953
      ],
      [
       -118.1674,
       33.67133
      ],
      [
       -118.16686,
       33.67169
      ],
      [
       -118.1665,
       33.6716
      ],
      [
       -118.16587,
       33.67267
      ],
      [
       -118.16426,
       33.6733
      ],
      [
       -118.16345,
       33.67321
      ],
      [
       -118.16237,
       33.6742
      ],
      [
       -118.16138,
       33.67393
      ],
      [
       -118.16039,
       33.67429
      ],
      [
       -118.15959,
       33.67411
      ],
      [
       -118.15932,
       33.67348
      ],
      [
       -118.1586,
       33.67321
      ],
      [
       -118.15878,
       33.67267
      ],
      [
       -118.15725,
       33.67267
      ],
      [
       -118.15671,
       33.67223
      ],
      [
       -118.15563,
       33.67339
      ],
      [
       -118.15411,
       33.67348
      ],
      [
       -118.15527,
       33.6742
      ],
      [
       -118.15662,
       33.67348
      ],
      [
       -118.15716,
       33.67384
      ],
      [
       -118.15716,
       33.6742
      ],
      [
       -118.15653,
       33.67492
      ],
      [
       -118.15689,
       33.676
      ],
      [
       -118.15626,
       33.67672
      ],
      [
       -118.15554,
       33.67672
      ],
      [
       -118.15501,
       33.67627
      ],
      [
       -118.15501,
       33.67582
      ],
      [
       -118.15563,
       33.67501
      ],
      [
       -118.15492,
       33.67537
      ],
      [
       -118.15465,
       33.67645
      ],
      [
       -118.15483,
       33.67762
      ],
      [
       -118.15456,
       33.67788
      ]
     ]
    ]
   },
   "properties": {
    "id": "det-06",
    "classification": "lookalike",
    "confidence": 0.402,
    "area_km2": 0.557,
    "elongation": 1.58,
    "edge_gradient": 15.3123,
    "contrast_db": -1.82,
    "shape_class": "blob",
    "discharge_class": "acute",
    "centroid": [
     -118.16276,
     33.67541
    ],
    "ship_detections": [
     {
      "lon": -118.1073,
      "lat": 33.67686,
      "px_area": 666,
      "peak_db": 23.47
     },
     {
      "lon": -118.14158,
      "lat": 33.68719,
      "px_area": 362,
      "peak_db": 21.67
     },
     {
      "lon": -118.1059,
      "lat": 33.60414,
      "px_area": 484,
      "peak_db": 19.38
     },
     {
      "lon": -118.126,
      "lat": 33.66635,
      "px_area": 298,
      "peak_db": 18.67
     },
     {
      "lon": -118.15288,
      "lat": 33.67872,
      "px_area": 478,
      "peak_db": 18.64
     },
     {
      "lon": -118.14961,
      "lat": 33.69535,
      "px_area": 358,
      "peak_db": 18.34
     },
     {
      "lon": -118.13391,
      "lat": 33.64724,
      "px_area": 283,
      "peak_db": 17.02
     },
     {
      "lon": -118.1371,
      "lat": 33.66186,
      "px_area": 398,
      "peak_db": 16.58
     },
     {
      "lon": -118.12887,
      "lat": 33.68697,
      "px_area": 176,
      "peak_db": 14.65
     },
     {
      "lon": -118.14136,
      "lat": 33.63626,
      "px_area": 247,
      "peak_db": 14.17
     },
     {
      "lon": -118.13336,
      "lat": 33.69735,
      "px_area": 256,
      "peak_db": 14.09
     },
     {
      "lon": -118.07698,
      "lat": 33.62567,
      "px_area": 595,
      "peak_db": 14.06
     },
     {
      "lon": -118.12606,
      "lat": 33.63806,
      "px_area": 570,
      "peak_db": 13.86
     },
     {
      "lon": -118.15955,
      "lat": 33.66708,
      "px_area": 257,
      "peak_db": 13.55
     },
     {
      "lon": -118.10981,
      "lat": 33.66617,
      "px_area": 424,
      "peak_db": 12.87
     },
     {
      "lon": -118.13641,
      "lat": 33.67957,
      "px_area": 273,
      "peak_db": 12.34
     },
     {
      "lon": -118.12305,
      "lat": 33.6963,
      "px_area": 90,
      "peak_db": 11.45
     },
     {
      "lon": -118.14164,
      "lat": 33.59581,
      "px_area": 161,
      "peak_db": 11.04
     },
     {
      "lon": -118.14492,
      "lat": 33.66726,
      "px_area": 274,
      "peak_db": 9.55
     },
     {
      "lon": -118.14743,
      "lat": 33.6479,
      "px_area": 182,
      "peak_db": 8.14
     },
     {
      "lon": -118.06748,
      "lat": 33.61622,
      "px_area": 302,
      "peak_db": 6.78
     },
     {
      "lon": -118.13975,
      "lat": 33.60536,
      "px_area": 87,
      "peak_db": 0.81
     },
     {
      "lon": -118.10256,
      "lat": 33.63571,
      "px_area": 48,
      "peak_db": 0.39
     },
     {
      "lon": -118.10514,
      "lat": 33.60092,
      "px_area": 86,
      "peak_db": -0.34
     },
     {
      "lon": -118.06958,
      "lat": 33.63882,
      "px_area": 10,
      "peak_db": -2.74
     },
     {
      "lon": -118.15758,
      "lat": 33.68253,
      "px_area": 20,
      "peak_db": -5.68
     },
     {
      "lon": -118.10712,
      "lat": 33.67867,
      "px_area": 4,
      "peak_db": -5.93
     },
     {
      "lon": -118.13465,
      "lat": 33.65387,
      "px_area": 14,
      "peak_db": -6.13
     },
     {
      "lon": -118.11139,
      "lat": 33.62773,
      "px_area": 7,
      "peak_db": -6.83
     },
     {
      "lon": -118.09635,
      "lat": 33.62463,
      "px_area": 10,
      "peak_db": -7.22
     },
     {
      "lon": -118.14913,
      "lat": 33.65205,
      "px_area": 9,
      "peak_db": -7.68
     },
     {
      "lon": -118.14164,
      "lat": 33.65847,
      "px_area": 13,
      "peak_db": -7.85
     },
     {
      "lon": -118.12208,
      "lat": 33.65203,
      "px_area": 7,
      "peak_db": -8.09
     },
     {
      "lon": -118.15856,
      "lat": 33.65617,
      "px_area": 25,
      "peak_db": -8.1
     },
     {
      "lon": -118.1423,
      "lat": 33.65842,
      "px_area": 9,
      "peak_db": -8.12
     },
     {
      "lon": -118.1079,
      "lat": 33.65393,
      "px_area": 8,
      "peak_db": -8.32
     },
     {
      "lon": -118.10792,
      "lat": 33.68854,
      "px_area": 15,
      "peak_db": -8.54
     },
     {
      "lon": -118.11195,
      "lat": 33.68239,
      "px_area": 7,
      "peak_db": -8.6
     },
     {
      "lon": -118.15152,
      "lat": 33.66398,
      "px_area": 4,
      "peak_db": -8.62
     },
     {
      "lon": -118.10319,
      "lat": 33.63609,
      "px_area": 7,
      "peak_db": -8.71
     },
     {
      "lon": -118.14089,
      "lat": 33.65863,
      "px_area": 6,
      "peak_db": -9.39
     },
     {
      "lon": -118.11408,
      "lat": 33.69294,
      "px_area": 5,
      "peak_db": -9.4
     },
     {
      "lon": -118.1597,
      "lat": 33.65603,
      "px_area": 4,
      "peak_db": -9.49
     }
    ],
    "vh_contrast_db": -0.016,
    "vh_mean_depth_db": 1.649,
    "solidity": 0.373,
    "mean_depth_db": 5.479
   }
  },
  {
   "type": "Feature",
   "geometry": {
    "type": "Polygon",
    "coordinates": [
     [
      [
       -118.10982,
       33.69765
      ],
      [
       -118.11036,
       33.6981
      ],
      [
       -118.11009,
       33.69873
      ],
      [
       -118.11036,
       33.69926
      ],
      [
       -118.11099,
       33.69935
      ],
      [
       -118.11153,
       33.69998
      ],
      [
       -118.11341,
       33.69998
      ],
      [
       -118.11377,
       33.69944
      ],
      [
       -118.11422,
       33.69935
      ],
      [
       -118.11422,
       33.69819
      ],
      [
       -118.11467,
       33.69792
      ],
      [
       -118.11449,
       33.69711
      ],
      [
       -118.11503,
       33.69675
      ],
      [
       -118.11584,
       33.69684
      ],
      [
       -118.11611,
       33.69747
      ],
      [
       -118.11665,
       33.69738
      ],
      [
       -118.11719,
       33.69675
      ],
      [
       -118.11772,
       33.69711
      ],
      [
       -118.11772,
       33.69747
      ],
      [
       -118.1171,
       33.69774
      ],
      [
       -118.11719,
       33.69855
      ],
      [
       -118.11638,
       33.69926
      ],
      [
       -118.11602,
       33.69917
      ],
      [
       -118.11674,
       33.69998
      ],
      [
       -118.11844,
       33.69998
      ],
      [
       -118.11898,
       33.69944
      ],
      [
       -118.11952,
       33.69998
      ],
      [
       -118.12428,
       33.69998
      ],
      [
       -118.12455,
       33.69953
      ],
      [
       -118.12545,
       33.69926
      ],
      [
       -118.12608,
       33.69998
      ],
      [
       -118.12644,
       33.69846
      ],
      [
       -118.12806,
       33.69765
      ],
      [
       -118.12886,
       33.69774
      ],
      [
       -118.12877,
       33.69702
      ],
      [
       -118.12922,
       33.69657
      ],
      [
       -118.12976,
       33.69657
      ],
      [
       -118.13003,
       33.6972
      ],
      [
       -118.13066,
       33.69711
      ],
      [
       -118.13111,
       33.69738
      ],
      [
       -118.13201,
       33.69657
      ],
      [
       -118.13129,
       33.69594
      ],
      [
       -118.13138,
       33.69531
      ],
      [
       -118.13066,
       33.69459
      ],
      [
       -118.13093,
       33.69352
      ],
      [
       -118.13165,
       33.6928
      ],
      [
       -118.13354,
       33.69271
      ],
      [
       -118.13452,
       33.69459
      ],
      [
       -118.13524,
       33.69513
      ],
      [
       -118.13587,
       33.69522
      ],
      [
       -118.13641,
       33.69585
      ],
      [
       -118.1365,
       33.69513
      ],
      [
       -118.13533,
       33.69432
      ],
      [
       -118.13533,
       33.69379
      ],
      [
       -118.13587,
       33.69343
      ],
      [
       -118.13659,
       33.69396
      ],
      [
       -118.13659,
       33.69316
      ],
      [
       -118.1374,
       33.69253
      ],
      [
       -118.1383,
       33.69271
      ],
      [
       -118.13857,
       33.69298
      ],
      [
       -118.13839,
       33.69352
      ],
      [
       -118.13893,
       33.69396
      ],
      [
       -118.13955,
       33.69396
      ],
      [
       -118.13982,
       33.69459
      ],
      [
       -118.14027,
       33.69441
      ],
      [
       -118.14081,
       33.69495
      ],
      [
       -118.14207,
       33.69513
      ],
      [
       -118.14153,
       33.69477
      ],
      [
       -118.14189,
       33.69405
      ],
      [
       -118.14162,
       33.69343
      ],
      [
       -118.14252,
       33.69199
      ],
      [
       -118.1418,
       33.69208
      ],
      [
       -118.14126,
       33.69253
      ],
      [
       -118.1409,
       33.69244
      ],
      [
       -118.14036,
       33.69145
      ],
      [
       -118.14099,
       33.69109
      ],
      [
       -118.14108,
       33.69064
      ],
      [
       -118.14036,
       33.68956
      ],
      [
       -118.13964,
       33.68974
      ],
      [
       -118.13893,
       33.6892
      ],
      [
       -118.13803,
       33.68911
      ],
      [
       -118.13758,
       33.68875
      ],
      [
       -118.13749,
       33.68822
      ],
      [
       -118.13677,
       33.68849
      ],
      [
       -118.13614,
       33.68813
      ],
      [
       -118.13551,
       33.68866
      ],
      [
       -118.13497,
       33.68866
      ],
      [
       -118.13425,
       33.68947
      ],
      [
       -118.13372,
       33.68947
      ],
      [
       -118.133,
       33.68831
      ],
      [
       -118.133,
       33.68705
      ],
      [
       -118.13192,
       33.6875
      ],
      [
       -118.13084,
       33.6875
      ],
      [
       -118.13156,
       33.68822
      ],
      [
       -118.13192,
       33.68813
      ],
      [
       -118.13246,
       33.68849
      ],
      [
       -118.13255,
       33.68911
      ],
      [
       -118.13228,
       33.68938
      ],
      [
       -118.13147,
       33.68947
      ],
      [
       -118.13048,
       33.68893
      ],
      [
       -118.12913,
       33.68974
      ],
      [
       -118.12743,
       33.68974
      ],
      [
       -118.12743,
       33.69037
      ],
      [
       -118.12644,
       33.69091
      ],
      [
       -118.1259,
       33.69055
      ],
      [
       -118.1259,
       33.69019
      ],
      [
       -118.1268,
       33.68965
      ],
      [
       -118.12662,
       33.68911
      ],
      [
       -118.12689,
       33.68884
      ],
      [
       -118.12644,
       33.68849
      ],
      [
       -118.12635,
       33.68795
      ],
      [
       -118.12581,
       33.68804
      ],
      [
       -118.12527,
       33.68768
      ],
      [
       -118.12563,
       33.68696
      ],
      [
       -118.12644,
       33.68678
      ],
      [
       -118.12626,
       33.68651
      ],
      [
       -118.12554,
       33.68651
      ],
      [
       -118.12294,
       33.6892
      ],
      [
       -118.1232,
       33.68947
      ],
      [
       -118.1232,
       33.68911
      ],
      [
       -118.12392,
       33.68866
      ],
      [
       -118.12473,
       33.68929
      ],
      [
       -118.12455,
       33.68992
      ],
      [
       -118.12491,
       33.69064
      ],
      [
       -118.1241,
       33.69109
      ],
      [
       -118.12437,
       33.6919
      ],
      [
       -118.12383,
       33.69226
      ],
      [
       -118.12303,
       33.69208
      ],
      [
       -118.12455,
       33.69298
      ],
      [
       -118.12482,
       33.69379
      ],
      [
       -118.12446,
       33.69432
      ],
      [
       -118.12258,
       33.69468
      ],
      [
       -118.12177,
       33.69414
      ],
      [
       -118.12204,
       33.69352
      ],
      [
       -118.1232,
       33.69352
      ],
      [
       -118.12231,
       33.69271
      ],
      [
       -118.12195,
       33.6928
      ],
      [
       -118.12141,
       33.69244
      ],
      [
       -118.12141,
       33.69208
      ],
      [
       -118.12204,
       33.69181
      ],
      [
       -118.12222,
       33.69127
      ],
      [
       -118.12105,
       33.6919
      ],
      [
       -118.12123,
       33.69244
      ],
      [
       -118.12078,
       33.69298
      ],
      [
       -118.11988,
       33.69325
      ],
      [
       -118.11907,
       33.6928
      ],
      [
       -118.11961,
       33.69181
      ],
      [
       -118.11853,
       33.69163
      ],
      [
       -118.11826,
       33.6928
      ],
      [
       -118.11746,
       33.69334
      ],
      [
       -118.11862,
       33.69414
      ],
      [
       -118.11826,
       33.69486
      ],
      [
       -118.11835,
       33.69549
      ],
      [
       -118.11781,
       33.6963
      ],
      [
       -118.1171,
       33.69639
      ],
      [
       -118.11665,
       33.69594
      ],
      [
       -118.11683,
       33.69504
      ],
      [
       -118.11647,
       33.69513
      ],
      [
       -118.11593,
       33.69477
      ],
      [
       -118.11593,
       33.69405
      ],
      [
       -118.11692,
       33.69352
      ],
      [
       -118.11638,
       33.69307
      ],
      [
       -118.11602,
       33.69361
      ],
      [
       -118.11494,
       33.69379
      ],
      [
       -118.11548,
       33.69477
      ],
      [
       -118.11539,
       33.69585
      ],
      [
       -118.11512,
       33.69612
      ],
      [
       -118.1144,
       33.69621
      ],
      [
       -118.11395,
       33.69558
      ],
      [
       -118.11413,
       33.69486
      ],
      [
       -118.11386,
       33.69486
      ],
      [
       -118.11377,
       33.69549
      ],
      [
       -118.11323,
       33.69612
      ],
      [
       -118.11368,
       33.69648
      ],
      [
       -118.11368,
       33.69684
      ],
      [
       -118.11332,
       33.6972
      ],
      [
       -118.11278,
       33.6972
      ],
      [
       -118.11216,
       33.69657
      ],
      [
       -118.11234,
       33.69477
      ],
      [
       -118.11189,
       33.69477
      ],
      [
       -118.11126,
       33.69576
      ],
      [
       -118.11063,
       33.69567
      ],
      [
       -118.11081,
       33.69675
      ],
      [
       -118.10982,
       33.69765
      ]
     ]
    ]
   },
   "properties": {
    "id": "det-07",
    "classification": "lookalike",
    "confidence": 0.4,
    "area_km2": 1.505,
    "elongation": 2.68,
    "edge_gradient": 16.0146,
    "contrast_db": -1.8,
    "shape_class": "blob",
    "discharge_class": "acute",
    "centroid": [
     -118.12652,
     33.69404
    ],
    "ship_detections": [
     {
      "lon": -118.1073,
      "lat": 33.67686,
      "px_area": 666,
      "peak_db": 23.47
     },
     {
      "lon": -118.14158,
      "lat": 33.68719,
      "px_area": 362,
      "peak_db": 21.67
     },
     {
      "lon": -118.1059,
      "lat": 33.60414,
      "px_area": 484,
      "peak_db": 19.38
     },
     {
      "lon": -118.126,
      "lat": 33.66635,
      "px_area": 298,
      "peak_db": 18.67
     },
     {
      "lon": -118.15288,
      "lat": 33.67872,
      "px_area": 478,
      "peak_db": 18.64
     },
     {
      "lon": -118.14961,
      "lat": 33.69535,
      "px_area": 358,
      "peak_db": 18.34
     },
     {
      "lon": -118.13391,
      "lat": 33.64724,
      "px_area": 283,
      "peak_db": 17.02
     },
     {
      "lon": -118.1371,
      "lat": 33.66186,
      "px_area": 398,
      "peak_db": 16.58
     },
     {
      "lon": -118.12887,
      "lat": 33.68697,
      "px_area": 176,
      "peak_db": 14.65
     },
     {
      "lon": -118.14136,
      "lat": 33.63626,
      "px_area": 247,
      "peak_db": 14.17
     },
     {
      "lon": -118.13336,
      "lat": 33.69735,
      "px_area": 256,
      "peak_db": 14.09
     },
     {
      "lon": -118.07698,
      "lat": 33.62567,
      "px_area": 595,
      "peak_db": 14.06
     },
     {
      "lon": -118.12606,
      "lat": 33.63806,
      "px_area": 570,
      "peak_db": 13.86
     },
     {
      "lon": -118.15955,
      "lat": 33.66708,
      "px_area": 257,
      "peak_db": 13.55
     },
     {
      "lon": -118.10981,
      "lat": 33.66617,
      "px_area": 424,
      "peak_db": 12.87
     },
     {
      "lon": -118.13641,
      "lat": 33.67957,
      "px_area": 273,
      "peak_db": 12.34
     },
     {
      "lon": -118.12305,
      "lat": 33.6963,
      "px_area": 90,
      "peak_db": 11.45
     },
     {
      "lon": -118.14164,
      "lat": 33.59581,
      "px_area": 161,
      "peak_db": 11.04
     },
     {
      "lon": -118.14492,
      "lat": 33.66726,
      "px_area": 274,
      "peak_db": 9.55
     },
     {
      "lon": -118.14743,
      "lat": 33.6479,
      "px_area": 182,
      "peak_db": 8.14
     },
     {
      "lon": -118.06748,
      "lat": 33.61622,
      "px_area": 302,
      "peak_db": 6.78
     },
     {
      "lon": -118.13975,
      "lat": 33.60536,
      "px_area": 87,
      "peak_db": 0.81
     },
     {
      "lon": -118.10256,
      "lat": 33.63571,
      "px_area": 48,
      "peak_db": 0.39
     },
     {
      "lon": -118.10514,
      "lat": 33.60092,
      "px_area": 86,
      "peak_db": -0.34
     },
     {
      "lon": -118.06958,
      "lat": 33.63882,
      "px_area": 10,
      "peak_db": -2.74
     },
     {
      "lon": -118.15758,
      "lat": 33.68253,
      "px_area": 20,
      "peak_db": -5.68
     },
     {
      "lon": -118.10712,
      "lat": 33.67867,
      "px_area": 4,
      "peak_db": -5.93
     },
     {
      "lon": -118.13465,
      "lat": 33.65387,
      "px_area": 14,
      "peak_db": -6.13
     },
     {
      "lon": -118.11139,
      "lat": 33.62773,
      "px_area": 7,
      "peak_db": -6.83
     },
     {
      "lon": -118.09635,
      "lat": 33.62463,
      "px_area": 10,
      "peak_db": -7.22
     },
     {
      "lon": -118.14913,
      "lat": 33.65205,
      "px_area": 9,
      "peak_db": -7.68
     },
     {
      "lon": -118.14164,
      "lat": 33.65847,
      "px_area": 13,
      "peak_db": -7.85
     },
     {
      "lon": -118.12208,
      "lat": 33.65203,
      "px_area": 7,
      "peak_db": -8.09
     },
     {
      "lon": -118.15856,
      "lat": 33.65617,
      "px_area": 25,
      "peak_db": -8.1
     },
     {
      "lon": -118.1423,
      "lat": 33.65842,
      "px_area": 9,
      "peak_db": -8.12
     },
     {
      "lon": -118.1079,
      "lat": 33.65393,
      "px_area": 8,
      "peak_db": -8.32
     },
     {
      "lon": -118.10792,
      "lat": 33.68854,
      "px_area": 15,
      "peak_db": -8.54
     },
     {
      "lon": -118.11195,
      "lat": 33.68239,
      "px_area": 7,
      "peak_db": -8.6
     },
     {
      "lon": -118.15152,
      "lat": 33.66398,
      "px_area": 4,
      "peak_db": -8.62
     },
     {
      "lon": -118.10319,
      "lat": 33.63609,
      "px_area": 7,
      "peak_db": -8.71
     },
     {
      "lon": -118.14089,
      "lat": 33.65863,
      "px_area": 6,
      "peak_db": -9.39
     },
     {
      "lon": -118.11408,
      "lat": 33.69294,
      "px_area": 5,
      "peak_db": -9.4
     },
     {
      "lon": -118.1597,
      "lat": 33.65603,
      "px_area": 4,
      "peak_db": -9.49
     }
    ],
    "vh_contrast_db": 0.09,
    "vh_mean_depth_db": 2.46,
    "solidity": 0.487,
    "mean_depth_db": 5.428
   }
  },
  {
   "type": "Feature",
   "geometry": {
    "type": "Polygon",
    "coordinates": [
     [
      [
       -118.1082,
       33.69998
      ],
      [
       -118.10811,
       33.69953
      ],
      [
       -118.1073,
       33.69917
      ],
      [
       -118.10704,
       33.69792
      ],
      [
       -118.10766,
       33.69747
      ],
      [
       -118.10838,
       33.69756
      ],
      [
       -118.10955,
       33.6963
      ],
      [
       -118.1091,
       33.69585
      ],
      [
       -118.10946,
       33.69477
      ],
      [
       -118.10883,
       33.69423
      ],
      [
       -118.10856,
       33.6945
      ],
      [
       -118.10892,
       33.69495
      ],
      [
       -118.10883,
       33.69567
      ],
      [
       -118.1091,
       33.6963
      ],
      [
       -118.10874,
       33.69666
      ],
      [
       -118.10811,
       33.69666
      ],
      [
       -118.10784,
       33.69639
      ],
      [
       -118.10793,
       33.69585
      ],
      [
       -118.1073,
       33.69549
      ],
      [
       -118.10757,
       33.69468
      ],
      [
       -118.10695,
       33.69477
      ],
      [
       -118.10596,
       33.69414
      ],
      [
       -118.10641,
       33.69307
      ],
      [
       -118.10542,
       33.69307
      ],
      [
       -118.10596,
       33.69405
      ],
      [
       -118.10533,
       33.69468
      ],
      [
       -118.10515,
       33.69594
      ],
      [
       -118.10452,
       33.6963
      ],
      [
       -118.10407,
       33.69702
      ],
      [
       -118.10506,
       33.69612
      ],
      [
       -118.10605,
       33.69558
      ],
      [
       -118.10668,
       33.69558
      ],
      [
       -118.10695,
       33.6963
      ],
      [
       -118.10623,
       33.69675
      ],
      [
       -118.1065,
       33.69702
      ],
      [
       -118.1065,
       33.69747
      ],
      [
       -118.10614,
       33.69774
      ],
      [
       -118.10623,
       33.69837
      ],
      [
       -118.10704,
       33.69873
      ],
      [
       -118.10704,
       33.69998
      ],
      [
       -118.1082,
       33.69998
      ]
     ]
    ]
   },
   "properties": {
    "id": "det-08",
    "classification": "lookalike",
    "confidence": 0.396,
    "area_km2": 0.104,
    "elongation": 1.34,
    "edge_gradient": 16.3664,
    "contrast_db": -1.76,
    "shape_class": "blob",
    "discharge_class": "acute",
    "centroid": [
     -118.10705,
     33.69639
    ],
    "ship_detections": [
     {
      "lon": -118.1073,
      "lat": 33.67686,
      "px_area": 666,
      "peak_db": 23.47
     },
     {
      "lon": -118.14158,
      "lat": 33.68719,
      "px_area": 362,
      "peak_db": 21.67
     },
     {
      "lon": -118.1059,
      "lat": 33.60414,
      "px_area": 484,
      "peak_db": 19.38
     },
     {
      "lon": -118.126,
      "lat": 33.66635,
      "px_area": 298,
      "peak_db": 18.67
     },
     {
      "lon": -118.15288,
      "lat": 33.67872,
      "px_area": 478,
      "peak_db": 18.64
     },
     {
      "lon": -118.14961,
      "lat": 33.69535,
      "px_area": 358,
      "peak_db": 18.34
     },
     {
      "lon": -118.13391,
      "lat": 33.64724,
      "px_area": 283,
      "peak_db": 17.02
     },
     {
      "lon": -118.1371,
      "lat": 33.66186,
      "px_area": 398,
      "peak_db": 16.58
     },
     {
      "lon": -118.12887,
      "lat": 33.68697,
      "px_area": 176,
      "peak_db": 14.65
     },
     {
      "lon": -118.14136,
      "lat": 33.63626,
      "px_area": 247,
      "peak_db": 14.17
     },
     {
      "lon": -118.13336,
      "lat": 33.69735,
      "px_area": 256,
      "peak_db": 14.09
     },
     {
      "lon": -118.07698,
      "lat": 33.62567,
      "px_area": 595,
      "peak_db": 14.06
     },
     {
      "lon": -118.12606,
      "lat": 33.63806,
      "px_area": 570,
      "peak_db": 13.86
     },
     {
      "lon": -118.15955,
      "lat": 33.66708,
      "px_area": 257,
      "peak_db": 13.55
     },
     {
      "lon": -118.10981,
      "lat": 33.66617,
      "px_area": 424,
      "peak_db": 12.87
     },
     {
      "lon": -118.13641,
      "lat": 33.67957,
      "px_area": 273,
      "peak_db": 12.34
     },
     {
      "lon": -118.12305,
      "lat": 33.6963,
      "px_area": 90,
      "peak_db": 11.45
     },
     {
      "lon": -118.14164,
      "lat": 33.59581,
      "px_area": 161,
      "peak_db": 11.04
     },
     {
      "lon": -118.14492,
      "lat": 33.66726,
      "px_area": 274,
      "peak_db": 9.55
     },
     {
      "lon": -118.14743,
      "lat": 33.6479,
      "px_area": 182,
      "peak_db": 8.14
     },
     {
      "lon": -118.06748,
      "lat": 33.61622,
      "px_area": 302,
      "peak_db": 6.78
     },
     {
      "lon": -118.13975,
      "lat": 33.60536,
      "px_area": 87,
      "peak_db": 0.81
     },
     {
      "lon": -118.10256,
      "lat": 33.63571,
      "px_area": 48,
      "peak_db": 0.39
     },
     {
      "lon": -118.10514,
      "lat": 33.60092,
      "px_area": 86,
      "peak_db": -0.34
     },
     {
      "lon": -118.06958,
      "lat": 33.63882,
      "px_area": 10,
      "peak_db": -2.74
     },
     {
      "lon": -118.15758,
      "lat": 33.68253,
      "px_area": 20,
      "peak_db": -5.68
     },
     {
      "lon": -118.10712,
      "lat": 33.67867,
      "px_area": 4,
      "peak_db": -5.93
     },
     {
      "lon": -118.13465,
      "lat": 33.65387,
      "px_area": 14,
      "peak_db": -6.13
     },
     {
      "lon": -118.11139,
      "lat": 33.62773,
      "px_area": 7,
      "peak_db": -6.83
     },
     {
      "lon": -118.09635,
      "lat": 33.62463,
      "px_area": 10,
      "peak_db": -7.22
     },
     {
      "lon": -118.14913,
      "lat": 33.65205,
      "px_area": 9,
      "peak_db": -7.68
     },
     {
      "lon": -118.14164,
      "lat": 33.65847,
      "px_area": 13,
      "peak_db": -7.85
     },
     {
      "lon": -118.12208,
      "lat": 33.65203,
      "px_area": 7,
      "peak_db": -8.09
     },
     {
      "lon": -118.15856,
      "lat": 33.65617,
      "px_area": 25,
      "peak_db": -8.1
     },
     {
      "lon": -118.1423,
      "lat": 33.65842,
      "px_area": 9,
      "peak_db": -8.12
     },
     {
      "lon": -118.1079,
      "lat": 33.65393,
      "px_area": 8,
      "peak_db": -8.32
     },
     {
      "lon": -118.10792,
      "lat": 33.68854,
      "px_area": 15,
      "peak_db": -8.54
     },
     {
      "lon": -118.11195,
      "lat": 33.68239,
      "px_area": 7,
      "peak_db": -8.6
     },
     {
      "lon": -118.15152,
      "lat": 33.66398,
      "px_area": 4,
      "peak_db": -8.62
     },
     {
      "lon": -118.10319,
      "lat": 33.63609,
      "px_area": 7,
      "peak_db": -8.71
     },
     {
      "lon": -118.14089,
      "lat": 33.65863,
      "px_area": 6,
      "peak_db": -9.39
     },
     {
      "lon": -118.11408,
      "lat": 33.69294,
      "px_area": 5,
      "peak_db": -9.4
     },
     {
      "lon": -118.1597,
      "lat": 33.65603,
      "px_area": 4,
      "peak_db": -9.49
     }
    ],
    "vh_contrast_db": -0.214,
    "vh_mean_depth_db": 1.658,
    "solidity": 0.388,
    "mean_depth_db": 5.071
   }
  },
  {
   "type": "Feature",
   "geometry": {
    "type": "Polygon",
    "coordinates": [
     [
      [
       -118.1338,
       33.67959
      ],
      [
       -118.13416,
       33.67905
      ],
      [
       -118.1338,
       33.6778
      ],
      [
       -118.13327,
       33.67735
      ],
      [
       -118.13264,
       33.67735
      ],
      [
       -118.13201,
       33.67663
      ],
      [
       -118.13156,
       33.67663
      ],
      [
       -118.1312,
       33.67582
      ],
      [
       -118.13093,
       33.67699
      ],
      [
       -118.13102,
       33.67788
      ],
      [
       -118.13138,
       33.67824
      ],
      [
       -118.1312,
       33.67905
      ],
      [
       -118.13174,
       33.67914
      ],
      [
       -118.13174,
       33.67878
      ],
      [
       -118.13237,
       33.67842
      ],
      [
       -118.13345,
       33.67905
      ],
      [
       -118.1338,
       33.67959
      ]
     ]
    ]
   },
   "properties": {
    "id": "det-09",
    "classification": "lookalike",
    "confidence": 0.392,
    "area_km2": 0.058,
    "elongation": 1.74,
    "edge_gradient": 15.985,
    "contrast_db": -1.7,
    "shape_class": "blob",
    "discharge_class": "acute",
    "centroid": [
     -118.13238,
     33.67791
    ],
    "ship_detections": [
     {
      "lon": -118.1073,
      "lat": 33.67686,
      "px_area": 666,
      "peak_db": 23.47
     },
     {
      "lon": -118.14158,
      "lat": 33.68719,
      "px_area": 362,
      "peak_db": 21.67
     },
     {
      "lon": -118.1059,
      "lat": 33.60414,
      "px_area": 484,
      "peak_db": 19.38
     },
     {
      "lon": -118.126,
      "lat": 33.66635,
      "px_area": 298,
      "peak_db": 18.67
     },
     {
      "lon": -118.15288,
      "lat": 33.67872,
      "px_area": 478,
      "peak_db": 18.64
     },
     {
      "lon": -118.14961,
      "lat": 33.69535,
      "px_area": 358,
      "peak_db": 18.34
     },
     {
      "lon": -118.13391,
      "lat": 33.64724,
      "px_area": 283,
      "peak_db": 17.02
     },
     {
      "lon": -118.1371,
      "lat": 33.66186,
      "px_area": 398,
      "peak_db": 16.58
     },
     {
      "lon": -118.12887,
      "lat": 33.68697,
      "px_area": 176,
      "peak_db": 14.65
     },
     {
      "lon": -118.14136,
      "lat": 33.63626,
      "px_area": 247,
      "peak_db": 14.17
     },
     {
      "lon": -118.13336,
      "lat": 33.69735,
      "px_area": 256,
      "peak_db": 14.09
     },
     {
      "lon": -118.07698,
      "lat": 33.62567,
      "px_area": 595,
      "peak_db": 14.06
     },
     {
      "lon": -118.12606,
      "lat": 33.63806,
      "px_area": 570,
      "peak_db": 13.86
     },
     {
      "lon": -118.15955,
      "lat": 33.66708,
      "px_area": 257,
      "peak_db": 13.55
     },
     {
      "lon": -118.10981,
      "lat": 33.66617,
      "px_area": 424,
      "peak_db": 12.87
     },
     {
      "lon": -118.13641,
      "lat": 33.67957,
      "px_area": 273,
      "peak_db": 12.34
     },
     {
      "lon": -118.12305,
      "lat": 33.6963,
      "px_area": 90,
      "peak_db": 11.45
     },
     {
      "lon": -118.14164,
      "lat": 33.59581,
      "px_area": 161,
      "peak_db": 11.04
     },
     {
      "lon": -118.14492,
      "lat": 33.66726,
      "px_area": 274,
      "peak_db": 9.55
     },
     {
      "lon": -118.14743,
      "lat": 33.6479,
      "px_area": 182,
      "peak_db": 8.14
     },
     {
      "lon": -118.06748,
      "lat": 33.61622,
      "px_area": 302,
      "peak_db": 6.78
     },
     {
      "lon": -118.13975,
      "lat": 33.60536,
      "px_area": 87,
      "peak_db": 0.81
     },
     {
      "lon": -118.10256,
      "lat": 33.63571,
      "px_area": 48,
      "peak_db": 0.39
     },
     {
      "lon": -118.10514,
      "lat": 33.60092,
      "px_area": 86,
      "peak_db": -0.34
     },
     {
      "lon": -118.06958,
      "lat": 33.63882,
      "px_area": 10,
      "peak_db": -2.74
     },
     {
      "lon": -118.15758,
      "lat": 33.68253,
      "px_area": 20,
      "peak_db": -5.68
     },
     {
      "lon": -118.10712,
      "lat": 33.67867,
      "px_area": 4,
      "peak_db": -5.93
     },
     {
      "lon": -118.13465,
      "lat": 33.65387,
      "px_area": 14,
      "peak_db": -6.13
     },
     {
      "lon": -118.11139,
      "lat": 33.62773,
      "px_area": 7,
      "peak_db": -6.83
     },
     {
      "lon": -118.09635,
      "lat": 33.62463,
      "px_area": 10,
      "peak_db": -7.22
     },
     {
      "lon": -118.14913,
      "lat": 33.65205,
      "px_area": 9,
      "peak_db": -7.68
     },
     {
      "lon": -118.14164,
      "lat": 33.65847,
      "px_area": 13,
      "peak_db": -7.85
     },
     {
      "lon": -118.12208,
      "lat": 33.65203,
      "px_area": 7,
      "peak_db": -8.09
     },
     {
      "lon": -118.15856,
      "lat": 33.65617,
      "px_area": 25,
      "peak_db": -8.1
     },
     {
      "lon": -118.1423,
      "lat": 33.65842,
      "px_area": 9,
      "peak_db": -8.12
     },
     {
      "lon": -118.1079,
      "lat": 33.65393,
      "px_area": 8,
      "peak_db": -8.32
     },
     {
      "lon": -118.10792,
      "lat": 33.68854,
      "px_area": 15,
      "peak_db": -8.54
     },
     {
      "lon": -118.11195,
      "lat": 33.68239,
      "px_area": 7,
      "peak_db": -8.6
     },
     {
      "lon": -118.15152,
      "lat": 33.66398,
      "px_area": 4,
      "peak_db": -8.62
     },
     {
      "lon": -118.10319,
      "lat": 33.63609,
      "px_area": 7,
      "peak_db": -8.71
     },
     {
      "lon": -118.14089,
      "lat": 33.65863,
      "px_area": 6,
      "peak_db": -9.39
     },
     {
      "lon": -118.11408,
      "lat": 33.69294,
      "px_area": 5,
      "peak_db": -9.4
     },
     {
      "lon": -118.1597,
      "lat": 33.65603,
      "px_area": 4,
      "peak_db": -9.49
     }
    ],
    "vh_contrast_db": -0.043,
    "vh_mean_depth_db": 3.161,
    "solidity": 0.75,
    "mean_depth_db": 5.062
   }
  }
 ]
}