{"type": "FeatureCollection", "features": [{"type": "Feature", "geometry": {"type": "LineString", "coordinates": [[-118.31, 33.37], [-118.32242, 33.35247], [-118.32157, 33.35449], [-118.32087, 33.35686], [-118.31901, 33.35903], [-118.31642, 33.36158], [-118.31454, 33.36339], [-118.31153, 33.36611], [-118.30715, 33.37033], [-118.30237, 33.37498], [-118.29903, 33.37806], [-118.29422, 33.38262], [-118.2909, 33.38572], [-118.28601, 33.39037], [-118.28091, 33.39527], [-118.27418, 33.40154], [-118.26906, 33.40645], [-118.22452, 33.4496], [-118.21817, 33.45677], [-118.21627, 33.45893], [-118.21423, 33.46128], [-118.21121, 33.4633], [-118.20798, 33.46527], [-118.20536, 33.46789], [-118.15, 33.52], [-118.20075, 33.47228], [-118.19774, 33.47516], [-118.19011, 33.48224], [-118.18809, 33.48416], [-118.18206, 33.48993], [-118.1775, 33.49424], [-118.17325, 33.49815], [-118.15424, 33.51615], [-118.14488, 33.52497], [-118.13979, 33.52972], [-118.13486, 33.53441], [-118.12823, 33.54076], [-118.1222, 33.54641], [-118.10536, 33.56221], [-118.10024, 33.56703], [-118.09514, 33.57183], [-118.08836, 33.57831], [-118.08326, 33.58309], [-118.07642, 33.58948], [-118.0696, 33.59596], [-118.06458, 33.60078], [-118.05923, 33.60546], [-118.04808, 33.61447], [-118.04238, 33.6188], [-118.03425, 33.62547], [-118.0238, 33.63412], [-118.01, 33.64], [-118.01417, 33.64303], [-118.01421, 33.64306], [-118.01366, 33.64283], [-118.01367, 33.64283], [-118.01368, 33.64284], [-118.01368, 33.64283], [-118.01368, 33.64282], [-118.01369, 33.64282], [-118.0137, 33.64279], [-118.0137, 33.64278], [-118.01372, 33.64276], [-118.01372, 33.64277], [-118.01373, 33.64278], [-118.01372, 33.64276], [-118.01372, 33.64276], [-118.01372, 33.64276], [-118.01374, 33.64275], [-118.01372, 33.64278], [-118.01372, 33.6428], [-118.01372, 33.64281], [-118.01, 33.64], [-118.0137, 33.6428], [-118.01376, 33.64275], [-118.01376, 33.64275], [-118.01374, 33.64277], [-118.01374, 33.64276], [-118.01375, 33.64276], [-118.01376, 33.64276], [-118.01372, 33.64277], [-118.01373, 33.64279], [-118.01373, 33.64279], [-118.01371, 33.64281]]}, "properties": {"mmsi": "368117160", "name": "GOOD JUJU", "vessel_type": "other", "n_points": 84, "n_points_full": 134, "max_gap_minutes": 20.5}}, {"type": "Feature", "geometry": {"type": "LineString", "coordinates": [[-118.21385, 33.57605], [-118.19404, 33.51977], [-118.1752, 33.47324]]}, "properties": {"mmsi": "372914000", "name": "MORNING CONDUCTOR", "vessel_type": "cargo", "n_points": 3, "n_points_full": 96, "max_gap_minutes": 175.3}}, {"type": "Feature", "geometry": {"type": "LineString", "coordinates": [[-118.20126, 33.65696], [-118.19888, 33.65423], [-118.19617, 33.65164], [-118.19338, 33.64842], [-118.1908, 33.64574], [-118.188, 33.64258], [-118.18533, 33.63934], [-118.18297, 33.6365], [-118.18074, 33.6337], [-118.17827, 33.63081], [-118.17603, 33.62796], [-118.17395, 33.62553], [-118.17136, 33.62222], [-118.16894, 33.61943], [-118.16677, 33.61643], [-118.13, 33.58], [-118.1658, 33.6153], [-118.16354, 33.61236], [-118.16112, 33.60958], [-118.15895, 33.60666], [-118.15664, 33.60392], [-118.15414, 33.60056], [-118.15193, 33.59776], [-118.14887, 33.59571], [-118.1454, 33.5939], [-118.14217, 33.59196], [-118.13872, 33.59014], [-118.13485, 33.58812], [-118.13128, 33.58652], [-118.12831, 33.5843], [-118.12778, 33.58385], [-118.12794, 33.58371], [-118.12791, 33.5837], [-118.12793, 33.58373], [-118.1279, 33.5837], [-118.1279, 33.58369], [-118.12793, 33.58366], [-118.12787, 33.58368], [-118.12789, 33.58366], [-118.12792, 33.58367], [-118.12789, 33.58371], [-118.12788, 33.58371], [-118.12793, 33.58368], [-118.12788, 33.58371], [-118.12789, 33.58369], [-118.12795, 33.58364], [-118.12786, 33.58367], [-118.12751, 33.58366], [-118.12671, 33.5832], [-118.12586, 33.58214], [-118.12582, 33.58209], [-118.12592, 33.58241], [-118.12686, 33.58227], [-118.12804, 33.58199], [-118.12828, 33.58236], [-118.12817, 33.58234], [-118.12824, 33.58223], [-118.12844, 33.58241], [-118.12846, 33.58242], [-118.12843, 33.58239], [-118.12841, 33.58241], [-118.12841, 33.58241], [-118.12838, 33.58239], [-118.12844, 33.58239], [-118.1284, 33.58239], [-118.12841, 33.58241], [-118.13, 33.58], [-118.12842, 33.58239], [-118.12842, 33.58238], [-118.12842, 33.58241], [-118.12843, 33.58238], [-118.12842, 33.58243], [-118.12842, 33.58238], [-118.1284, 33.58239], [-118.12843, 33.58239], [-118.12843, 33.58235], [-118.12843, 33.58238], [-118.1284, 33.58238], [-118.12842, 33.58238], [-118.12843, 33.58238], [-118.12842, 33.58238], [-118.12842, 33.58238], [-118.12841, 33.58237], [-118.12841, 33.58238], [-118.12843, 33.58238], [-118.1284, 33.58238], [-118.12842, 33.58237], [-118.27401, 33.72802], [-118.1284, 33.58238], [-118.12844, 33.58234], [-118.12843, 33.58237], [-118.12842, 33.58235], [-118.12843, 33.58237], [-118.12842, 33.58238], [-118.12838, 33.58239], [-118.12841, 33.58239], [-118.1284, 33.5824], [-118.12842, 33.5824], [-118.1284, 33.5824], [-118.12841, 33.58239], [-118.12842, 33.5824], [-118.12841, 33.58239], [-118.12838, 33.5824], [-118.12841, 33.58239], [-118.1284, 33.58239], [-118.12841, 33.58237], [-118.12841, 33.58241], [-118.12841, 33.58239], [-118.12842, 33.58239], [-118.1284, 33.5824], [-118.12842, 33.58238], [-118.1284, 33.58236], [-118.12839, 33.5824], [-118.12841, 33.5824], [-118.12842, 33.58241], [-118.12841, 33.58239], [-118.12842, 33.58239], [-118.12842, 33.58241], [-118.12842, 33.58239], [-118.12843, 33.58239], [-118.13, 33.58], [-118.12841, 33.58238], [-118.12842, 33.58237], [-118.1284, 33.58236], [-118.12842, 33.58241], [-118.12839, 33.58232], [-118.1284, 33.58242], [-118.12841, 33.58239], [-118.12841, 33.58239], [-118.12839, 33.58241], [-118.12842, 33.58239], [-118.12842, 33.58242], [-118.12841, 33.5824], [-118.12841, 33.58238], [-118.1284, 33.58237], [-118.12842, 33.58239], [-118.12841, 33.5824], [-118.12842, 33.5824], [-118.12842, 33.5824], [-118.12842, 33.58238], [-118.12842, 33.58237], [-118.12839, 33.58239], [-118.12841, 33.58235], [-118.12843, 33.58242], [-118.12842, 33.58241], [-118.12841, 33.58237], [-118.12843, 33.58238], [-118.1284, 33.58239], [-118.12843, 33.58242], [-118.12841, 33.5824], [-118.1284, 33.58239], [-118.12842, 33.58238], [-118.12843, 33.58241], [-118.12844, 33.5824], [-118.1284, 33.5824], [-118.12842, 33.58241], [-118.1284, 33.58242], [-118.27402, 33.72803], [-118.12844, 33.58242], [-118.12844, 33.58241], [-118.12842, 33.58245], [-118.12841, 33.58243], [-118.12846, 33.58241], [-118.12842, 33.58238], [-118.12843, 33.58241], [-118.12842, 33.58238], [-118.12843, 33.58238], [-118.12842, 33.58236], [-118.12842, 33.58235], [-118.12841, 33.58235], [-118.12842, 33.58234], [-118.12838, 33.58238], [-118.12843, 33.58236], [-118.12839, 33.58238], [-118.13, 33.58], [-118.12841, 33.5824], [-118.12843, 33.58238], [-118.12842, 33.58239], [-118.12842, 33.58239], [-118.12843, 33.5824], [-118.12844, 33.58239], [-118.12844, 33.58238], [-118.12842, 33.58239], [-118.12842, 33.58238], [-118.12845, 33.58244], [-118.12838, 33.58238], [-118.12842, 33.58239], [-118.1284, 33.58238], [-118.12841, 33.5824], [-118.12843, 33.58239], [-118.12837, 33.58238], [-118.12839, 33.5824], [-118.12843, 33.58238], [-118.12839, 33.58239], [-118.12844, 33.58239], [-118.12838, 33.58241], [-118.12841, 33.5824], [-118.1284, 33.58239], [-118.12841, 33.58241], [-118.12839, 33.5824], [-118.12844, 33.58237], [-118.12842, 33.5824], [-118.12843, 33.5824], [-118.12841, 33.5824], [-118.1284, 33.5824], [-118.12837, 33.58241], [-118.12847, 33.58239], [-118.12845, 33.58238], [-118.12849, 33.58236], [-118.12842, 33.5824], [-118.12843, 33.5824], [-118.12841, 33.58241], [-118.12841, 33.58241], [-118.12844, 33.5824], [-118.12844, 33.58239], [-118.12841, 33.58241], [-118.12841, 33.58241], [-118.12842, 33.5824], [-118.12841, 33.5824], [-118.12842, 33.58241], [-118.12841, 33.58241], [-118.12842, 33.5824], [-118.12839, 33.58241], [-118.12843, 33.58239], [-118.12842, 33.5824]]}, "properties": {"mmsi": "367492920", "name": "WYATT M", "vessel_type": "other", "n_points": 225, "n_points_full": 592, "max_gap_minutes": 59.9}}, {"type": "Feature", "geometry": {"type": "LineString", "coordinates": [[-118.28093, 33.72465], [-118.28093, 33.72466], [-118.28093, 33.72466], [-118.28091, 33.72465], [-118.28091, 33.72465], [-118.28091, 33.72465], [-118.28093, 33.72465], [-118.28093, 33.72465], [-118.28093, 33.72466], [-118.28093, 33.72466], [-118.28093, 33.72466], [-118.28093, 33.72466], [-118.22, 33.66], [-118.28093, 33.72466], [-118.28093, 33.72466], [-118.28093, 33.72465], [-118.28093, 33.72466], [-118.28095, 33.72465], [-118.28108, 33.72392], [-118.28044, 33.72239], [-118.27976, 33.72054], [-118.27905, 33.71893], [-118.27828, 33.71712], [-118.27757, 33.71553], [-118.27607, 33.71413], [-118.2732, 33.7132], [-118.27211, 33.71346], [-118.27209, 33.71356], [-118.27209, 33.71356], [-118.27207, 33.71356], [-118.27209, 33.71357], [-118.27209, 33.71357], [-118.27211, 33.71356], [-118.27211, 33.71357], [-118.27211, 33.71357], [-118.27225, 33.71338], [-118.26992, 33.71328], [-118.26664, 33.71277], [-118.26385, 33.71232], [-118.26063, 33.71178], [-118.25731, 33.71124], [-118.25453, 33.71079], [-118.25161, 33.70964], [-118.19, 33.6], [-118.2166, 33.65576], [-118.2154, 33.65362], [-118.21405, 33.6511], [-118.21267, 33.6486], [-118.21133, 33.64605], [-118.20993, 33.64354], [-118.20877, 33.64137], [-118.20768, 33.63878], [-118.20656, 33.63617], [-118.20669, 33.63397], [-118.20841, 33.63167], [-118.21025, 33.62947], [-118.21132, 33.62698], [-118.21156, 33.62437], [-118.20996, 33.62196], [-118.20825, 33.61954], [-118.20689, 33.61745], [-118.20484, 33.61521], [-118.20303, 33.61334], [-118.20089, 33.61118], [-118.19885, 33.60906], [-118.19675, 33.60692], [-118.19495, 33.60503], [-118.1926, 33.60258], [-118.19053, 33.60041], [-118.19092, 33.59996], [-118.19075, 33.60088], [-118.19064, 33.60043], [-118.19216, 33.60042], [-118.19152, 33.60045], [-118.19107, 33.60039], [-118.19104, 33.60036], [-118.19109, 33.60035], [-118.19115, 33.60034], [-118.19116, 33.60033], [-118.19121, 33.60033], [-118.19123, 33.60032], [-118.19128, 33.60031], [-118.19131, 33.60029], [-118.19133, 33.60028], [-118.19137, 33.60024], [-118.19188, 33.60012], [-118.19203, 33.6003], [-118.19168, 33.60038], [-118.18928, 33.59866], [-118.18647, 33.59819], [-118.18569, 33.59857], [-118.18677, 33.59822], [-118.18773, 33.59893], [-118.18721, 33.59874], [-118.18708, 33.59786], [-118.18665, 33.59826], [-118.18652, 33.59835], [-118.19, 33.6], [-118.18652, 33.59834], [-118.18657, 33.59828], [-118.18663, 33.59821], [-118.18667, 33.59816], [-118.18669, 33.5981], [-118.18671, 33.59807], [-118.18672, 33.59805], [-118.18672, 33.59803], [-118.18673, 33.59802], [-118.18679, 33.59804], [-118.1868, 33.59802], [-118.18691, 33.59795], [-118.18703, 33.60011], [-118.18757, 33.59983], [-118.1874, 33.59908], [-118.18739, 33.59908], [-118.18735, 33.599], [-118.18736, 33.59895], [-118.18739, 33.5989], [-118.18744, 33.59886], [-118.18749, 33.59882], [-118.18752, 33.59879], [-118.18755, 33.59876], [-118.18759, 33.59874], [-118.18761, 33.59872], [-118.18765, 33.59869], [-118.18769, 33.59867], [-118.18773, 33.59864], [-118.18776, 33.59862], [-118.18777, 33.59859], [-118.18781, 33.59856], [-118.18787, 33.59851], [-118.18792, 33.59849], [-118.18799, 33.59849], [-118.18799, 33.59832], [-118.18588, 33.59642], [-118.18317, 33.59463], [-118.18009, 33.59265], [-118.17744, 33.59093], [-118.17472, 33.58916], [-118.17241, 33.58766], [-118.16975, 33.58593], [-118.16709, 33.58425], [-118.16441, 33.58255], [-118.16169, 33.58083], [-118.15901, 33.57912], [-118.15635, 33.57744], [-118.15367, 33.57574], [-118.151, 33.57404], [-118.14835, 33.5724], [-118.14556, 33.57082], [-118.14, 33.57], [-118.14293, 33.57164], [-118.1404, 33.57268], [-118.13975, 33.57274], [-118.13967, 33.57262], [-118.13967, 33.57255], [-118.13972, 33.5725], [-118.13973, 33.57248], [-118.13976, 33.57245], [-118.13979, 33.57241], [-118.13981, 33.57238], [-118.13985, 33.57236], [-118.13988, 33.57234], [-118.13993, 33.57233], [-118.13997, 33.57232], [-118.14003, 33.57232], [-118.14008, 33.5723], [-118.14012, 33.57228], [-118.14013, 33.57225], [-118.14017, 33.57225], [-118.14023, 33.57226], [-118.14025, 33.57225], [-118.14027, 33.57224], [-118.14031, 33.57222], [-118.14035, 33.57222], [-118.14039, 33.57222], [-118.14043, 33.57222], [-118.14045, 33.57222], [-118.14048, 33.57226], [-118.14049, 33.57229], [-118.14049, 33.57232], [-118.14047, 33.57234], [-118.14043, 33.57235], [-118.14039, 33.57237], [-118.14035, 33.57239], [-118.14032, 33.5724], [-118.14027, 33.57241], [-118.14024, 33.57241], [-118.1402, 33.5724], [-118.14016, 33.5724], [-118.14009, 33.57239], [-118.13967, 33.57251], [-118.13967, 33.57048], [-118.13927, 33.56869], [-118.14027, 33.56858], [-118.14031, 33.56865], [-118.14027, 33.56866], [-118.14024, 33.56868], [-118.1402, 33.56871], [-118.14013, 33.56872], [-118.14005, 33.56872]]}, "properties": {"mmsi": "368014440", "name": "MONTE CARLO", "vessel_type": "fishing", "n_points": 200, "n_points_full": 359, "max_gap_minutes": 45.5}}, {"type": "Feature", "geometry": {"type": "LineString", "coordinates": [[-118.38357, 33.70573], [-118.37925, 33.70322], [-118.37498, 33.70076], [-118.37067, 33.69837], [-118.36617, 33.69619], [-118.3617, 33.69398], [-118.35733, 33.69176], [-118.3529, 33.68949], [-118.34832, 33.68739], [-118.34373, 33.68524], [-118.33927, 33.68314], [-118.33458, 33.68096], [-118.15, 33.62], [-118.33002, 33.67897], [-118.32525, 33.67682], [-118.32063, 33.67479], [-118.31434, 33.67192], [-118.30957, 33.66981], [-118.30487, 33.66774], [-118.29704, 33.6643], [-118.29212, 33.6624], [-118.28737, 33.66052], [-118.28233, 33.65853], [-118.2775, 33.65661], [-118.27253, 33.65483], [-118.26753, 33.65304], [-118.26267, 33.6513], [-118.02, 33.59], [-118.13224, 33.60969], [-118.12722, 33.60809], [-118.12228, 33.60657], [-118.11705, 33.60497], [-118.11204, 33.60344], [-118.10705, 33.60188], [-118.10204, 33.6003], [-118.09704, 33.59875], [-118.09198, 33.59723], [-118.08696, 33.59585], [-118.08186, 33.59432], [-118.07694, 33.59319], [-118.07168, 33.59211], [-118.06653, 33.59104], [-118.06123, 33.59011], [-118.05771, 33.58952], [-118.04883, 33.58823], [-118.04348, 33.58744], [-118.03986, 33.58701], [-118.03453, 33.58634], [-118.02912, 33.58577], [-118.02556, 33.58546], [-118.01847, 33.58489], [-118.01488, 33.5847], [-118.01115, 33.58449], [-118.00586, 33.58426], [-118.00033, 33.58407], [-117.99496, 33.58389], [-117.98964, 33.58366], [-117.98405, 33.5835], [-117.97869, 33.58335], [-117.9749, 33.58324], [-117.96949, 33.58315], [-117.96386, 33.58299], [-117.95849, 33.5829], [-117.95298, 33.58292], [-117.94925, 33.58279], [-117.94376, 33.58264], [-117.93835, 33.58255], [-117.933, 33.58249], [-117.92747, 33.58243], [-117.92199, 33.58248], [-117.91, 33.58], [-117.92012, 33.58255], [-117.91472, 33.5828], [-117.9092, 33.58307], [-117.9038, 33.58342], [-117.89837, 33.58382], [-117.8949, 33.58408], [-117.8916, 33.5845], [-117.89132, 33.60256], [-117.89393, 33.60305], [-117.89644, 33.60366], [-117.89826, 33.6046], [-117.90007, 33.60594], [-117.90224, 33.60717], [-117.90455, 33.60802], [-117.91097, 33.60824], [-117.91414, 33.60906], [-117.91488, 33.60929], [-117.91652, 33.60981], [-117.92166, 33.61124], [-117.92328, 33.61254], [-117.92428, 33.61369], [-117.92465, 33.61359], [-117.92465, 33.61359], [-117.92, 33.61], [-117.92464, 33.61359], [-117.92465, 33.61359], [-117.92465, 33.6136], [-117.92465, 33.61362], [-117.92465, 33.6136], [-117.92465, 33.61361], [-117.92463, 33.6136], [-117.92465, 33.61359], [-117.92465, 33.61362], [-117.92465, 33.61362], [-117.92464, 33.61361], [-117.92465, 33.6136]]}, "properties": {"mmsi": "338120738", "name": "PER AMORE", "vessel_type": "passenger", "n_points": 107, "n_points_full": 169, "max_gap_minutes": 60.0}}, {"type": "Feature", "geometry": {"type": "LineString", "coordinates": [[-118.12, 33.5], [-117.89411, 33.58183], [-117.90208, 33.57841], [-117.90793, 33.57658], [-117.91604, 33.57423], [-117.92157, 33.57267], [-117.92972, 33.56979], [-117.93779, 33.56686], [-117.94555, 33.5632], [-117.95087, 33.56073], [-117.95613, 33.55835], [-117.96391, 33.55492], [-117.97152, 33.55142], [-117.9771, 33.54888], [-117.98532, 33.54514], [-117.99119, 33.54248], [-117.99812, 33.53941], [-118.00342, 33.53803], [-118.00858, 33.53728], [-118.01346, 33.53607], [-118.01671, 33.53503], [-118.02157, 33.5333], [-118.02606, 33.53131], [-118.03071, 33.52929], [-118.03531, 33.52735], [-118.03851, 33.526], [-118.04177, 33.52468], [-118.04629, 33.52284], [-118.05094, 33.52084], [-118.05563, 33.51893], [-118.06037, 33.51688], [-118.06734, 33.51404], [-118.07484, 33.51092], [-118.08325, 33.50781], [-118.09113, 33.50441], [-118.09757, 33.50171], [-118.10214, 33.49975], [-118.10846, 33.49796], [-118.11392, 33.49621], [-118.12034, 33.49438], [-118.12505, 33.49279], [-118.1299, 33.49103], [-118.37, 33.39], [-118.13686, 33.48877], [-118.14168, 33.48711], [-118.14868, 33.48421], [-118.15374, 33.48216], [-118.16085, 33.47932], [-118.16822, 33.47635], [-118.17552, 33.47337], [-118.1805, 33.47136], [-118.18764, 33.46845], [-118.19749, 33.46451], [-118.20483, 33.4616], [-118.21204, 33.45871], [-118.2171, 33.45676], [-118.22437, 33.45387], [-118.23172, 33.45095], [-118.24014, 33.44772], [-118.24904, 33.44423], [-118.25551, 33.44165], [-118.26395, 33.43847], [-118.27281, 33.4351], [-118.27877, 33.43286], [-118.28772, 33.42943], [-118.29668, 33.42603], [-118.30524, 33.42227], [-118.31425, 33.41885], [-118.32273, 33.41522], [-118.33133, 33.4117], [-118.33723, 33.40923], [-118.34543, 33.40575], [-118.35376, 33.40168], [-118.3618, 33.3971], [-118.36619, 33.39463], [-118.36756, 33.39417], [-118.36782, 33.39442], [-118.36785, 33.39439], [-118.36802, 33.39438], [-118.36815, 33.39401], [-118.36806, 33.39408], [-118.36802, 33.39408], [-118.36804, 33.39398]]}, "properties": {"mmsi": "338181167", "name": "BUCKET LIST", "vessel_type": "passenger", "n_points": 83, "n_points_full": 84, "max_gap_minutes": 60.0}}, {"type": "Feature", "geometry": {"type": "LineString", "coordinates": [[-118.12392, 33.56987], [-118.13, 33.58], [-118.12637, 33.5734], [-118.12741, 33.57743], [-118.12828, 33.58093], [-118.12857, 33.58147], [-118.12866, 33.58163], [-118.12879, 33.58177], [-118.12877, 33.58174], [-118.12868, 33.58161], [-118.12865, 33.5816], [-118.12877, 33.58172], [-118.12875, 33.58175], [-118.12862, 33.58195], [-118.12888, 33.58208], [-118.12979, 33.58138], [-118.13152, 33.58365], [-118.13368, 33.58736], [-118.13399, 33.5879], [-118.13411, 33.58817], [-118.13415, 33.58839], [-118.13416, 33.58846], [-118.13409, 33.58848], [-118.13407, 33.5885], [-118.13406, 33.58854], [-118.13409, 33.58857], [-118.13422, 33.58888], [-118.13471, 33.58915], [-118.13492, 33.58921], [-118.13504, 33.58929], [-118.13509, 33.58937], [-118.13513, 33.58945], [-118.13513, 33.58955], [-118.13509, 33.58959], [-118.13508, 33.58963], [-118.13508, 33.58969], [-118.13526, 33.58972], [-118.13895, 33.59159], [-118.14226, 33.59515], [-118.14232, 33.59639], [-118.14231, 33.59644], [-118.14232, 33.5965], [-118.14232, 33.59655], [-118.14231, 33.59661], [-118.14195, 33.59641], [-118.14195, 33.59654], [-118.14427, 33.59922], [-118.14769, 33.60261], [-118.15108, 33.60626], [-118.15472, 33.60977], [-118.15817, 33.61315], [-118.16173, 33.6167], [-118.16513, 33.62026], [-118.16821, 33.62345], [-118.27, 33.73], [-118.16966, 33.6251], [-118.17325, 33.62845], [-118.17667, 33.63198], [-118.18021, 33.63543], [-118.18366, 33.63893], [-118.18672, 33.64218], [-118.19049, 33.64545], [-118.19384, 33.64899], [-118.19731, 33.6525], [-118.20057, 33.65608], [-118.20419, 33.6594], [-118.20753, 33.66311], [-118.21102, 33.66703], [-118.21404, 33.67088], [-118.21713, 33.67415], [-118.22015, 33.67782], [-118.22289, 33.68174], [-118.22593, 33.68544], [-118.22928, 33.689], [-118.2326, 33.69257], [-118.23671, 33.69615], [-118.24043, 33.70004], [-118.2441, 33.70348], [-118.24754, 33.70707], [-118.25158, 33.71019], [-118.25582, 33.71252], [-118.26041, 33.71516], [-118.26435, 33.71782], [-118.26801, 33.72138], [-118.26935, 33.72378], [-118.27034, 33.72619], [-118.27115, 33.72857], [-118.27161, 33.7312], [-118.27118, 33.7335], [-118.27103, 33.73463], [-118.27074, 33.73504], [-118.27074, 33.73506], [-118.27081, 33.73506], [-118.27073, 33.73505], [-118.27073, 33.73507], [-118.27074, 33.73505], [-118.27075, 33.73508], [-118.27072, 33.73506], [-118.27074, 33.73504], [-118.27077, 33.73506], [-118.27072, 33.73506], [-118.27074, 33.73506], [-118.27075, 33.73504], [-118.27072, 33.73503], [-118.27072, 33.73504], [-118.27073, 33.73504], [-118.27072, 33.73502], [-118.27073, 33.73502], [-118.27074, 33.73504], [-118.27, 33.74], [-118.27072, 33.73505], [-118.27072, 33.73504], [-118.27073, 33.73504], [-118.27074, 33.73505], [-118.27075, 33.73508], [-118.27074, 33.73507], [-118.27074, 33.73506], [-118.27075, 33.73505], [-118.27071, 33.73507], [-118.27072, 33.73508], [-118.27071, 33.73506], [-118.27072, 33.73505], [-118.27072, 33.73505], [-118.27073, 33.73504], [-118.27071, 33.73505], [-118.27073, 33.73505], [-118.27074, 33.73507], [-118.27071, 33.73505], [-118.27073, 33.73505], [-118.27072, 33.73505], [-118.27072, 33.73505], [-118.27073, 33.73505], [-118.27074, 33.73503], [-118.27073, 33.73507], [-118.27071, 33.73505], [-118.27072, 33.73506], [-118.27071, 33.73505], [-118.27073, 33.73505], [-118.27074, 33.73504], [-118.2707, 33.73506], [-118.27072, 33.73508], [-118.27074, 33.73505], [-118.27076, 33.73504], [-118.27072, 33.73506], [-118.27073, 33.73507], [-118.27073, 33.73507], [-118.27071, 33.73506], [-118.13031, 33.58579], [-118.27073, 33.73505], [-118.27075, 33.73506], [-118.27075, 33.73507], [-118.27075, 33.73507], [-118.27074, 33.73505], [-118.27074, 33.73506], [-118.27073, 33.73505], [-118.27073, 33.73505], [-118.27073, 33.73506], [-118.27074, 33.73506], [-118.27073, 33.73505], [-118.27073, 33.73506], [-118.27074, 33.73506], [-118.27075, 33.73506], [-118.27, 33.74], [-118.27075, 33.73506], [-118.27076, 33.73506], [-118.27074, 33.73506], [-118.27074, 33.73508], [-118.27074, 33.73505], [-118.27074, 33.73504], [-118.27073, 33.73506], [-118.27078, 33.73506], [-118.27073, 33.73505], [-118.20763, 33.66313], [-118.27073, 33.73506], [-118.27076, 33.73506], [-118.2707, 33.73507], [-118.27073, 33.73506], [-118.27071, 33.73506], [-118.27074, 33.73506], [-118.27074, 33.73506], [-118.27072, 33.73505], [-118.27073, 33.73505], [-118.27073, 33.73506], [-118.27072, 33.73505], [-118.27074, 33.73505], [-118.27071, 33.73505], [-118.27074, 33.73505], [-118.27074, 33.73506], [-118.27073, 33.73506], [-118.27075, 33.73505], [-118.27075, 33.73505], [-118.27074, 33.73506], [-118.27072, 33.73508], [-118.27073, 33.73505], [-118.27079, 33.73505], [-118.27075, 33.73506], [-118.27074, 33.73506], [-118.27075, 33.73505], [-118.27073, 33.73505], [-118.27073, 33.73503], [-118.27073, 33.73505], [-118.27074, 33.73505], [-118.27071, 33.73506], [-118.25451, 33.71162], [-118.27073, 33.73508], [-118.27076, 33.73504], [-118.27075, 33.73506], [-118.27075, 33.73506], [-118.27073, 33.73506], [-118.27074, 33.73508], [-118.27075, 33.73506], [-118.27074, 33.73508], [-118.27075, 33.73503], [-118.27071, 33.73506]]}, "properties": {"mmsi": "367393270", "name": "NICHOLAS L", "vessel_type": "passenger", "n_points": 214, "n_points_full": 601, "max_gap_minutes": 53.6}}]}