{
 "type": "FeatureCollection",
 "features": [
  {
   "type": "Feature",
   "geometry": {
    "type": "MultiPolygon",
    "coordinates": [
     [
      [
       [
        72.23714,
        18.57717
       ],
       [
        72.23783,
        18.57717
       ],
       [
        72.23783,
        18.57442
       ],
       [
        72.23714,
        18.57442
       ],
       [
        72.23714,
        18.57373
       ],
       [
        72.23645,
        18.57373
       ],
       [
        72.23645,
        18.5703
       ],
       [
        72.23577,
        18.5703
       ],
       [
        72.23577,
        18.56824
       ],
       [
        72.23508,
        18.56824
       ],
       [
        72.23508,
        18.56755
       ],
       [
        72.23439,
        18.56755
       ],
       [
        72.23439,
        18.56687
       ],
       [
        72.23371,
        18.56687
       ],
       [
        72.23371,
        18.56412
       ],
       [
        72.23302,
        18.56412
       ],
       [
        72.23302,
        18.56343
       ],
       [
        72.23233,
        18.56343
       ],
       [
        72.23233,
        18.56206
       ],
       [
        72.23165,
        18.56206
       ],
       [
        72.23165,
        18.56
       ],
       [
        72.23096,
        18.56
       ],
       [
        72.23096,
        18.55931
       ],
       [
        72.23027,
        18.55931
       ],
       [
        72.23027,
        18.55725
       ],
       [
        72.22959,
        18.55725
       ],
       [
        72.22959,
        18.55588
       ],
       [
        72.2289,
        18.55588
       ],
       [
        72.2289,
        18.55519
       ],
       [
        72.22821,
        18.55519
       ],
       [
        72.22821,
        18.55382
       ],
       [
        72.22684,
        18.55382
       ],
       [
        72.22684,
        18.55313
       ],
       [
        72.22753,
        18.55313
       ],
       [
        72.22753,
        18.55245
       ],
       [
        72.22615,
        18.55245
       ],
       [
        72.22615,
        18.55176
       ],
       [
        72.22547,
        18.55176
       ],
       [
        72.22547,
        18.55245
       ],
       [
        72.22409,
        18.55245
       ],
       [
        72.22409,
        18.55176
       ],
       [
        72.22478,
        18.55176
       ],
       [
        72.22478,
        18.55107
       ],
       [
        72.22409,
        18.55107
       ],
       [
        72.22409,
        18.55039
       ],
       [
        72.22478,
        18.55039
       ],
       [
        72.22478,
        18.5497
       ],
       [
        72.22547,
        18.5497
       ],
       [
        72.22547,
        18.54833
       ],
       [
        72.22341,
        18.54833
       ],
       [
        72.22341,
        18.54695
       ],
       [
        72.22272,
        18.54695
       ],
       [
        72.22272,
        18.54558
       ],
       [
        72.22203,
        18.54558
       ],
       [
        72.22203,
        18.54489
       ],
       [
        72.22066,
        18.54489
       ],
       [
        72.22066,
        18.54421
       ],
       [
        72.22135,
        18.54421
       ],
       [
        72.22135,
        18.54352
       ],
       [
        72.22066,
        18.54352
       ],
       [
        72.22066,
        18.54146
       ],
       [
        72.21929,
        18.54146
       ],
       [
        72.21929,
        18.54078
       ],
       [
        72.21723,
        18.54078
       ],
       [
        72.21723,
        18.53871
       ],
       [
        72.21654,
        18.53871
       ],
       [
        72.21654,
        18.53803
       ],
       [
        72.21585,
        18.53803
       ],
       [
        72.21585,
        18.53734
       ],
       [
        72.21517,
        18.53734
       ],
       [
        72.21517,
        18.53665
       ],
       [
        72.21448,
        18.53665
       ],
       [
        72.21448,
        18.53391
       ],
       [
        72.21379,
        18.53391
       ],
       [
        72.21379,
        18.53047
       ],
       [
        72.21311,
        18.53047
       ],
       [
        72.21311,
        18.52979
       ],
       [
        72.21173,
        18.52979
       ],
       [
        72.21173,
        18.52704
       ],
       [
        72.21105,
        18.52704
       ],
       [
        72.21105,
        18.52567
       ],
       [
        72.21036,
        18.52567
       ],
       [
        72.21036,
        18.52429
       ],
       [
        72.20967,
        18.52429
       ],
       [
        72.20967,
        18.52361
       ],
       [
        72.20693,
        18.52361
       ],
       [
        72.20693,
        18.52292
       ],
       [
        72.20555,
        18.52292
       ],
       [
        72.20555,
        18.52498
       ],
       [
        72.20418,
        18.52498
       ],
       [
        72.20418,
        18.52429
       ],
       [
        72.20349,
        18.52429
       ],
       [
        72.20349,
        18.52361
       ],
       [
        72.20281,
        18.52361
       ],
       [
        72.20281,
        18.52498
       ],
       [
        72.20212,
        18.52498
       ],
       [
        72.20212,
        18.52429
       ],
       [
        72.20143,
        18.52429
       ],
       [
        72.20143,
        18.52361
       ],
       [
        72.20075,
        18.52361
       ],
       [
        72.20075,
        18.52292
       ],
       [
        72.20006,
        18.52292
       ],
       [
        72.20006,
        18.52223
       ],
       [
        72.20143,
        18.52223
       ],
       [
        72.20143,
        18.52086
       ],
       [
        72.20212,
        18.52086
       ],
       [
        72.20212,
        18.51949
       ],
       [
        72.20143,
        18.51949
       ],
       [
        72.20143,
        18.51812
       ],
       [
        72.20006,
        18.51812
       ],
       [
        72.20006,
        18.5188
       ],
       [
        72.19869,
        18.5188
       ],
       [
        72.19869,
        18.51949
       ],
       [
        72.19731,
        18.51949
       ],
       [
        72.19731,
        18.52086
       ],
       [
        72.19663,
        18.52086
       ],
       [
        72.19663,
        18.52155
       ],
       [
        72.19594,
        18.52155
       ],
       [
        72.19594,
        18.52223
       ],
       [
        72.19526,
        18.52223
       ],
       [
        72.19526,
        18.52292
       ],
       [
        72.19457,
        18.52292
       ],
       [
        72.19457,
        18.52361
       ],
       [
        72.1932,
        18.52361
       ],
       [
        72.1932,
        18.52429
       ],
       [
        72.19114,
        18.52429
       ],
       [
        72.19114,
        18.52498
       ],
       [
        72.19045,
        18.52498
       ],
       [
        72.19045,
        18.52429
       ],
       [
        72.18976,
        18.52429
       ],
       [
        72.18976,
        18.52498
       ],
       [
        72.18839,
        18.52498
       ],
       [
        72.18839,
        18.52567
       ],
       [
        72.1877,
        18.52567
       ],
       [
        72.1877,
        18.52635
       ],
       [
        72.18702,
        18.52635
       ],
       [
        72.18702,
        18.52841
       ],
       [
        72.18633,
        18.52841
       ],
       [
        72.18633,
        18.5291
       ],
       [
        72.1877,
        18.5291
       ],
       [
        72.1877,
        18.52979
       ],
       [
        72.18839,
        18.52979
       ],
       [
        72.18839,
        18.53047
       ],
       [
        72.18908,
        18.53047
       ],
       [
        72.18908,
        18.53185
       ],
       [
        72.19526,
        18.53185
       ],
       [
        72.19526,
        18.53253
       ],
       [
        72.19663,
        18.53253
       ],
       [
        72.19663,
        18.53322
       ],
       [
        72.19731,
        18.53322
       ],
       [
        72.19731,
        18.53391
       ],
       [
        72.19869,
        18.53391
       ],
       [
        72.19869,
        18.53322
       ],
       [
        72.19937,
        18.53322
       ],
       [
        72.19937,
        18.53253
       ],
       [
        72.20006,
        18.53253
       ],
       [
        72.20006,
        18.53185
       ],
       [
        72.20075,
        18.53185
       ],
       [
        72.20075,
        18.53253
       ],
       [
        72.20281,
        18.53253
       ],
       [
        72.20281,
        18.53185
       ],
       [
        72.20349,
        18.53185
       ],
       [
        72.20349,
        18.53391
       ],
       [
        72.20281,
        18.53391
       ],
       [
        72.20281,
        18.53528
       ],
       [
        72.20212,
        18.53528
       ],
       [
        72.20212,
        18.53734
       ],
       [
        72.20281,
        18.53734
       ],
       [
        72.20281,
        18.53803
       ],
       [
        72.20349,
        18.53803
       ],
       [
        72.20349,
        18.53871
       ],
       [
        72.20418,
        18.53871
       ],
       [
        72.20418,
        18.5394
       ],
       [
        72.20487,
        18.5394
       ],
       [
        72.20487,
        18.54009
       ],
       [
        72.20555,
        18.54009
       ],
       [
        72.20555,
        18.54215
       ],
       [
        72.20418,
        18.54215
       ],
       [
        72.20418,
        18.54283
       ],
       [
        72.20555,
        18.54283
       ],
       [
        72.20555,
        18.54352
       ],
       [
        72.20693,
        18.54352
       ],
       [
        72.20693,
        18.54421
       ],
       [
        72.20761,
        18.54421
       ],
       [
        72.20761,
        18.54489
       ],
       [
        72.20967,
        18.54489
       ],
       [
        72.20967,
        18.54558
       ],
       [
        72.21036,
        18.54558
       ],
       [
        72.21036,
        18.54489
       ],
       [
        72.21105,
        18.54489
       ],
       [
        72.21105,
        18.54558
       ],
       [
        72.21173,
        18.54558
       ],
       [
        72.21173,
        18.54627
       ],
       [
        72.21242,
        18.54627
       ],
       [
        72.21242,
        18.54695
       ],
       [
        72.21379,
        18.54695
       ],
       [
        72.21379,
        18.54627
       ],
       [
        72.21517,
        18.54627
       ],
       [
        72.21517,
        18.54558
       ],
       [
        72.21654,
        18.54558
       ],
       [
        72.21654,
        18.54695
       ],
       [
        72.21723,
        18.54695
       ],
       [
        72.21723,
        18.54833
       ],
       [
        72.21585,
        18.54833
       ],
       [
        72.21585,
        18.54901
       ],
       [
        72.21723,
        18.54901
       ],
       [
        72.21723,
        18.55176
       ],
       [
        72.21791,
        18.55176
       ],
       [
        72.21791,
        18.55245
       ],
       [
        72.2186,
        18.55245
       ],
       [
        72.2186,
        18.55313
       ],
       [
        72.22066,
        18.55313
       ],
       [
        72.22066,
        18.55382
       ],
       [
        72.22135,
        18.55382
       ],
       [
        72.22135,
        18.55519
       ],
       [
        72.22203,
        18.55519
       ],
       [
        72.22203,
        18.55588
       ],
       [
        72.22341,
        18.55588
       ],
       [
        72.22341,
        18.55657
       ],
       [
        72.22409,
        18.55657
       ],
       [
        72.22409,
        18.55863
       ],
       [
        72.22478,
        18.55863
       ],
       [
        72.22478,
        18.56
       ],
       [
        72.22547,
        18.56
       ],
       [
        72.22547,
        18.56069
       ],
       [
        72.22615,
        18.56069
       ],
       [
        72.22615,
        18.56137
       ],
       [
        72.22684,
        18.56137
       ],
       [
        72.22684,
        18.56206
       ],
       [
        72.22753,
        18.56206
       ],
       [
        72.22753,
        18.56275
       ],
       [
        72.22821,
        18.56275
       ],
       [
        72.22821,
        18.56343
       ],
       [
        72.2289,
        18.56343
       ],
       [
        72.2289,
        18.56412
       ],
       [
        72.22959,
        18.56412
       ],
       [
        72.22959,
        18.56481
       ],
       [
        72.23027,
        18.56481
       ],
       [
        72.23027,
        18.56618
       ],
       [
        72.23096,
        18.56618
       ],
       [
        72.23096,
        18.56687
       ],
       [
        72.23165,
        18.56687
       ],
       [
        72.23165,
        18.56824
       ],
       [
        72.23233,
        18.56824
       ],
       [
        72.23233,
        18.56961
       ],
       [
        72.23302,
        18.56961
       ],
       [
        72.23302,
        18.5703
       ],
       [
        72.23439,
        18.5703
       ],
       [
        72.23439,
        18.57236
       ],
       [
        72.23508,
        18.57236
       ],
       [
        72.23508,
        18.57305
       ],
       [
        72.23577,
        18.57305
       ],
       [
        72.23577,
        18.57442
       ],
       [
        72.23645,
        18.57442
       ],
       [
        72.23645,
        18.57511
       ],
       [
        72.23714,
        18.57511
       ],
       [
        72.23714,
        18.57717
       ]
      ],
      [
       [
        72.2186,
        18.55107
       ],
       [
        72.2186,
        18.5497
       ],
       [
        72.21929,
        18.5497
       ],
       [
        72.21929,
        18.54833
       ],
       [
        72.22135,
        18.54833
       ],
       [
        72.22135,
        18.54695
       ],
       [
        72.22203,
        18.54695
       ],
       [
        72.22203,
        18.5497
       ],
       [
        72.22066,
        18.5497
       ],
       [
        72.22066,
        18.55107
       ],
       [
        72.2186,
        18.55107
       ]
      ],
      [
       [
        72.21723,
        18.54558
       ],
       [
        72.21723,
        18.54489
       ],
       [
        72.21791,
        18.54489
       ],
       [
        72.21791,
        18.54558
       ],
       [
        72.21723,
        18.54558
       ]
      ],
      [
       [
        72.21173,
        18.54078
       ],
       [
        72.21173,
        18.53871
       ],
       [
        72.21105,
        18.53871
       ],
       [
        72.21105,
        18.53803
       ],
       [
        72.21036,
        18.53803
       ],
       [
        72.21036,
        18.53734
       ],
       [
        72.21105,
        18.53734
       ],
       [
        72.21105,
        18.53665
       ],
       [
        72.21173,
        18.53665
       ],
       [
        72.21173,
        18.53734
       ],
       [
        72.21242,
        18.53734
       ],
       [
        72.21242,
        18.53803
       ],
       [
        72.21379,
        18.53803
       ],
       [
        72.21379,
        18.54009
       ],
       [
        72.21311,
        18.54009
       ],
       [
        72.21311,
        18.54078
       ],
       [
        72.21173,
        18.54078
       ]
      ],
      [
       [
        72.20967,
        18.54146
       ],
       [
        72.20967,
        18.5394
       ],
       [
        72.21105,
        18.5394
       ],
       [
        72.21105,
        18.54078
       ],
       [
        72.21036,
        18.54078
       ],
       [
        72.21036,
        18.54146
       ],
       [
        72.20967,
        18.54146
       ]
      ],
      [
       [
        72.20693,
        18.53047
       ],
       [
        72.20693,
        18.5291
       ],
       [
        72.20624,
        18.5291
       ],
       [
        72.20624,
        18.52635
       ],
       [
        72.20761,
        18.52635
       ],
       [
        72.20761,
        18.52704
       ],
       [
        72.20899,
        18.52704
       ],
       [
        72.20899,
        18.52841
       ],
       [
        72.2083,
        18.52841
       ],
       [
        72.2083,
        18.5291
       ],
       [
        72.20899,
        18.5291
       ],
       [
        72.20899,
        18.53047
       ],
       [
        72.20693,
        18.53047
       ]
      ],
      [
       [
        72.19937,
        18.52429
       ],
       [
        72.19937,
        18.52361
       ],
       [
        72.20006,
        18.52361
       ],
       [
        72.20006,
        18.52429
       ],
       [
        72.19937,
        18.52429
       ]
      ],
      [
       [
        72.19869,
        18.52635
       ],
       [
        72.19869,
        18.52567
       ],
       [
        72.19937,
        18.52567
       ],
       [
        72.19937,
        18.52635
       ],
       [
        72.19869,
        18.52635
       ]
      ]
     ],
     [
      [
       [
        72.20281,
        18.51949
       ],
       [
        72.20418,
        18.51949
       ],
       [
        72.20418,
        18.51812
       ],
       [
        72.20212,
        18.51812
       ],
       [
        72.20212,
        18.5188
       ],
       [
        72.20281,
        18.5188
       ],
       [
        72.20281,
        18.51949
       ]
      ]
     ],
     [
      [
       [
        72.20212,
        18.52223
       ],
       [
        72.20281,
        18.52223
       ],
       [
        72.20281,
        18.52155
       ],
       [
        72.20212,
        18.52155
       ],
       [
        72.20212,
        18.52223
       ]
      ]
     ],
     [
      [
       [
        72.19388,
        18.49546
       ],
       [
        72.19457,
        18.49546
       ],
       [
        72.19457,
        18.49408
       ],
       [
        72.19388,
        18.49408
       ],
       [
        72.19388,
        18.49546
       ]
      ]
     ],
     [
      [
       [
        72.19114,
        18.49202
       ],
       [
        72.19251,
        18.49202
       ],
       [
        72.19251,
        18.48996
       ],
       [
        72.19182,
        18.48996
       ],
       [
        72.19182,
        18.49065
       ],
       [
        72.19114,
        18.49065
       ],
       [
        72.19114,
        18.49202
       ]
      ]
     ],
     [
      [
       [
        72.16779,
        18.46868
       ],
       [
        72.16916,
        18.46868
       ],
       [
        72.16916,
        18.46456
       ],
       [
        72.16985,
        18.46456
       ],
       [
        72.16985,
        18.46387
       ],
       [
        72.17191,
        18.46387
       ],
       [
        72.17191,
        18.46799
       ],
       [
        72.17328,
        18.46799
       ],
       [
        72.17328,
        18.4673
       ],
       [
        72.1726,
        18.4673
       ],
       [
        72.1726,
        18.46456
       ],
       [
        72.17328,
        18.46456
       ],
       [
        72.17328,
        18.46387
       ],
       [
        72.1774,
        18.46387
       ],
       [
        72.1774,
        18.46318
       ],
       [
        72.17603,
        18.46318
       ],
       [
        72.17603,
        18.4625
       ],
       [
        72.17466,
        18.4625
       ],
       [
        72.17466,
        18.46318
       ],
       [
        72.17328,
        18.46318
       ],
       [
        72.17328,
        18.4625
       ],
       [
        72.1726,
        18.4625
       ],
       [
        72.1726,
        18.46181
       ],
       [
        72.17191,
        18.46181
       ],
       [
        72.17191,
        18.46044
       ],
       [
        72.16985,
        18.46044
       ],
       [
        72.16985,
        18.45975
       ],
       [
        72.16573,
        18.45975
       ],
       [
        72.16573,
        18.46044
       ],
       [
        72.1623,
        18.46044
       ],
       [
        72.1623,
        18.46181
       ],
       [
        72.16573,
        18.46181
       ],
       [
        72.16573,
        18.4625
       ],
       [
        72.16642,
        18.4625
       ],
       [
        72.16642,
        18.46799
       ],
       [
        72.16779,
        18.46799
       ],
       [
        72.16779,
        18.46868
       ]
      ]
     ],
     [
      [
       [
        72.1774,
        18.46387
       ],
       [
        72.1774,
        18.46456
       ],
       [
        72.17878,
        18.46456
       ],
       [
        72.17878,
        18.46387
       ],
       [
        72.1774,
        18.46387
       ]
      ]
     ],
     [
      [
       [
        72.17328,
        18.46799
       ],
       [
        72.17328,
        18.47074
       ],
       [
        72.1726,
        18.47074
       ],
       [
        72.1726,
        18.47211
       ],
       [
        72.17466,
        18.47211
       ],
       [
        72.17466,
        18.47142
       ],
       [
        72.17534,
        18.47142
       ],
       [
        72.17534,
        18.47211
       ],
       [
        72.17672,
        18.47211
       ],
       [
        72.17672,
        18.4728
       ],
       [
        72.1774,
        18.4728
       ],
       [
        72.1774,
        18.47417
       ],
       [
        72.17809,
        18.47417
       ],
       [
        72.17809,
        18.47623
       ],
       [
        72.17878,
        18.47623
       ],
       [
        72.17878,
        18.47692
       ],
       [
        72.17946,
        18.47692
       ],
       [
        72.17946,
        18.4776
       ],
       [
        72.18084,
        18.4776
       ],
       [
        72.18084,
        18.47829
       ],
       [
        72.18152,
        18.47829
       ],
       [
        72.18152,
        18.47898
       ],
       [
        72.1829,
        18.47898
       ],
       [
        72.1829,
        18.47966
       ],
       [
        72.18358,
        18.47966
       ],
       [
        72.18358,
        18.48035
       ],
       [
        72.18427,
        18.48035
       ],
       [
        72.18427,
        18.48241
       ],
       [
        72.18496,
        18.48241
       ],
       [
        72.18496,
        18.48378
       ],
       [
        72.18564,
        18.48378
       ],
       [
        72.18564,
        18.48447
       ],
       [
        72.18633,
        18.48447
       ],
       [
        72.18633,
        18.48584
       ],
       [
        72.18702,
        18.48584
       ],
       [
        72.18702,
        18.48653
       ],
       [
        72.1877,
        18.48653
       ],
       [
        72.1877,
        18.48722
       ],
       [
        72.18839,
        18.48722
       ],
       [
        72.18839,
        18.48859
       ],
       [
        72.19045,
        18.48859
       ],
       [
        72.19045,
        18.4879
       ],
       [
        72.19114,
        18.4879
       ],
       [
        72.19114,
        18.48653
       ],
       [
        72.19045,
        18.48653
       ],
       [
        72.19045,
        18.48584
       ],
       [
        72.18908,
        18.48584
       ],
       [
        72.18908,
        18.48516
       ],
       [
        72.18839,
        18.48516
       ],
       [
        72.18839,
        18.48447
       ],
       [
        72.1877,
        18.48447
       ],
       [
        72.1877,
        18.48172
       ],
       [
        72.18633,
        18.48172
       ],
       [
        72.18633,
        18.47966
       ],
       [
        72.18496,
        18.47966
       ],
       [
        72.18496,
        18.47898
       ],
       [
        72.18358,
        18.47898
       ],
       [
        72.18358,
        18.47692
       ],
       [
        72.1829,
        18.47692
       ],
       [
        72.1829,
        18.47623
       ],
       [
        72.18084,
        18.47623
       ],
       [
        72.18084,
        18.47554
       ],
       [
        72.18015,
        18.47554
       ],
       [
        72.18015,
        18.47486
       ],
       [
        72.17946,
        18.47486
       ],
       [
        72.17946,
        18.47211
       ],
       [
        72.17878,
        18.47211
       ],
       [
        72.17878,
        18.47142
       ],
       [
        72.1774,
        18.47142
       ],
       [
        72.1774,
        18.47074
       ],
       [
        72.17603,
        18.47074
       ],
       [
        72.17603,
        18.47005
       ],
       [
        72.17534,
        18.47005
       ],
       [
        72.17534,
        18.46936
       ],
       [
        72.17397,
        18.46936
       ],
       [
        72.17397,
        18.46799
       ],
       [
        72.17328,
        18.46799
       ]
      ]
     ],
     [
      [
       [
        72.13895,
        18.46456
       ],
       [
        72.13964,
        18.46456
       ],
       [
        72.13964,
        18.46387
       ],
       [
        72.13895,
        18.46387
       ],
       [
        72.13895,
        18.46456
       ]
      ]
     ],
     [
      [
       [
        72.13964,
        18.46387
       ],
       [
        72.14101,
        18.46387
       ],
       [
        72.14101,
        18.46456
       ],
       [
        72.14238,
        18.46456
       ],
       [
        72.14238,
        18.46387
       ],
       [
        72.14444,
        18.46387
       ],
       [
        72.14444,
        18.46456
       ],
       [
        72.14856,
        18.46456
       ],
       [
        72.14856,
        18.46387
       ],
       [
        72.15406,
        18.46387
       ],
       [
        72.15406,
        18.46318
       ],
       [
        72.1568,
        18.46318
       ],
       [
        72.1568,
        18.4625
       ],
       [
        72.15062,
        18.4625
       ],
       [
        72.15062,
        18.46181
       ],
       [
        72.14994,
        18.46181
       ],
       [
        72.14994,
        18.4625
       ],
       [
        72.14444,
        18.4625
       ],
       [
        72.14444,
        18.46181
       ],
       [
        72.14376,
        18.46181
       ],
       [
        72.14376,
        18.4625
       ],
       [
        72.14238,
        18.4625
       ],
       [
        72.14238,
        18.46181
       ],
       [
        72.1417,
        18.46181
       ],
       [
        72.1417,
        18.4625
       ],
       [
        72.13826,
        18.4625
       ],
       [
        72.13826,
        18.46318
       ],
       [
        72.13964,
        18.46318
       ],
       [
        72.13964,
        18.46387
       ]
      ]
     ],
     [
      [
       [
        72.152,
        18.47966
       ],
       [
        72.15337,
        18.47966
       ],
       [
        72.15337,
        18.47829
       ],
       [
        72.15268,
        18.47829
       ],
       [
        72.15268,
        18.47898
       ],
       [
        72.152,
        18.47898
       ],
       [
        72.152,
        18.47966
       ]
      ]
     ],
     [
      [
       [
        72.1211,
        18.44876
       ],
       [
        72.12178,
        18.44876
       ],
       [
        72.12178,
        18.44808
       ],
       [
        72.1211,
        18.44808
       ],
       [
        72.1211,
        18.44876
       ]
      ]
     ],
     [
      [
       [
        72.11835,
        18.43434
       ],
       [
        72.11904,
        18.43434
       ],
       [
        72.11904,
        18.43297
       ],
       [
        72.11835,
        18.43297
       ],
       [
        72.11835,
        18.43434
       ]
      ]
     ],
     [
      [
       [
        72.11629,
        18.43297
       ],
       [
        72.11766,
        18.43297
       ],
       [
        72.11766,
        18.43229
       ],
       [
        72.11629,
        18.43229
       ],
       [
        72.11629,
        18.43297
       ]
      ]
     ]
    ]
   },
   "properties": {
    "id": 3612640,
    "slick_timestamp": "2023-09-03T01:03:33",
    "s1_scene_id": "S1A_IW_GRDH_1SDV_20230903T010333_20230903T010358_050156_06095B_9215",
    "length": 20553.00525826,
    "area": 7736354.824115425,
    "perimeter": 59391.3906122516,
    "machine_confidence": 0.9281184077262878,
    "polsby_popper": 0.027561271927906236,
    "fill_factor": 0.09928716381629007,
    "linearity": 1981.1393787854918,
    "source": "SkyTruth Cerulean, public API (api.cerulean.skytruth.org)",
    "note": "Reference polygon from an operational detector. NOT ground truth and NOT a NAAP detection \u2014 Cerulean state plainly that SAR alone cannot definitively identify oil. Source attribution deliberately omitted (Master Plan Part 16)."
   }
  },
  {
   "type": "Feature",
   "geometry": {
    "type": "LineString",
    "coordinates": [
     [
      72.18667,
      18.52893
     ],
     [
      72.18743,
      18.52862
     ],
     [
      72.19003,
      18.52801
     ],
     [
      72.19136,
      18.5281
     ],
     [
      72.20039,
      18.52689
     ],
     [
      72.20349,
      18.5292
     ],
     [
      72.20674,
      18.53332
     ],
     [
      72.20933,
      18.53813
     ],
     [
      72.21066,
      18.53953
     ],
     [
      72.21658,
      18.54431
     ],
     [
      72.22051,
      18.54918
     ],
     [
      72.22187,
      18.55051
     ],
     [
      72.22456,
      18.55396
     ],
     [
      72.23186,
      18.56495
     ],
     [
      72.23507,
      18.57078
     ],
     [
      72.23691,
      18.5746
     ],
     [
      72.23741,
      18.57676
     ],
     [
      72.23769,
      18.57701
     ]
    ]
   },
   "properties": {
    "role": "centerline",
    "index": 0,
    "area": 8374915.224098312,
    "length": 8373.170842173386
   }
  },
  {
   "type": "Feature",
   "geometry": {
    "type": "LineString",
    "coordinates": [
     [
      72.13795,
      18.46179
     ],
     [
      72.1401,
      18.46335
     ],
     [
      72.14422,
      18.46421
     ],
     [
      72.15023,
      18.46624
     ],
     [
      72.15591,
      18.46912
     ],
     [
      72.16422,
      18.46701
     ],
     [
      72.16675,
      18.46666
     ],
     [
      72.16877,
      18.46671
     ],
     [
      72.17244,
      18.46782
     ],
     [
      72.18498,
      18.48071
     ],
     [
      72.18772,
      18.48496
     ],
     [
      72.18963,
      18.48739
     ],
     [
      72.19198,
      18.49142
     ],
     [
      72.19389,
      18.49428
     ],
     [
      72.19433,
      18.49584
     ]
    ]
   },
   "properties": {
    "role": "centerline",
    "index": 1,
    "area": 6486091.134297369,
    "length": 7787.562422249115
   }
  }
 ]
}
