{
 "type": "FeatureCollection",
 "ship_detections": [
  {
   "lon": 72.23009,
   "lat": 18.54611,
   "px_area": 448,
   "peak_db": 17.17
  },
  {
   "lon": 72.23986,
   "lat": 18.58363,
   "px_area": 982,
   "peak_db": 16.66
  },
  {
   "lon": 72.263,
   "lat": 18.6066,
   "px_area": 157,
   "peak_db": 16.32
  },
  {
   "lon": 72.24543,
   "lat": 18.49057,
   "px_area": 129,
   "peak_db": 14.68
  },
  {
   "lon": 72.24903,
   "lat": 18.56161,
   "px_area": 327,
   "peak_db": 12.57
  },
  {
   "lon": 72.24156,
   "lat": 18.52213,
   "px_area": 243,
   "peak_db": 10.95
  },
  {
   "lon": 72.20195,
   "lat": 18.52294,
   "px_area": 66,
   "peak_db": 9.17
  },
  {
   "lon": 72.17598,
   "lat": 18.55073,
   "px_area": 48,
   "peak_db": 7.09
  },
  {
   "lon": 72.25012,
   "lat": 18.49746,
   "px_area": 121,
   "peak_db": 6.2
  },
  {
   "lon": 72.2332,
   "lat": 18.60431,
   "px_area": 88,
   "peak_db": 4.48
  },
  {
   "lon": 72.2571,
   "lat": 18.53859,
   "px_area": 85,
   "peak_db": 3.68
  },
  {
   "lon": 72.21249,
   "lat": 18.50165,
   "px_area": 71,
   "peak_db": 2.98
  },
  {
   "lon": 72.2539,
   "lat": 18.53266,
   "px_area": 132,
   "peak_db": 2.47
  },
  {
   "lon": 72.25191,
   "lat": 18.48564,
   "px_area": 100,
   "peak_db": 1.99
  },
  {
   "lon": 72.22398,
   "lat": 18.56928,
   "px_area": 86,
   "peak_db": 1.97
  },
  {
   "lon": 72.21323,
   "lat": 18.5957,
   "px_area": 62,
   "peak_db": 1.79
  },
  {
   "lon": 72.18158,
   "lat": 18.52576,
   "px_area": 46,
   "peak_db": 1.45
  },
  {
   "lon": 72.2654,
   "lat": 18.50185,
   "px_area": 92,
   "peak_db": 1.24
  },
  {
   "lon": 72.24126,
   "lat": 18.57668,
   "px_area": 24,
   "peak_db": -0.93
  },
  {
   "lon": 72.25362,
   "lat": 18.58456,
   "px_area": 6,
   "peak_db": -6.69
  },
  {
   "lon": 72.23216,
   "lat": 18.40541,
   "px_area": 8,
   "peak_db": -6.94
  }
 ],
 "features": [
  {
   "type": "Feature",
   "geometry": {
    "type": "Polygon",
    "coordinates": [
     [
      [
       72.19324,
       18.49303
      ],
      [
       72.19181,
       18.49303
      ],
      [
       72.19073,
       18.49195
      ],
      [
       72.19091,
       18.49106
      ],
      [
       72.19145,
       18.49043
      ],
      [
       72.19145,
       18.48998
      ],
      [
       72.19073,
       18.48926
      ],
      [
       72.1892,
       18.48926
      ],
      [
       72.18848,
       18.48971
      ],
      [
       72.18794,
       18.48962
      ],
      [
       72.18857,
       18.48944
      ],
      [
       72.1892,
       18.48881
      ],
      [
       72.1892,
       18.48845
      ],
      [
       72.18848,
       18.48773
      ],
      [
       72.1874,
       18.48773
      ],
      [
       72.18785,
       18.48621
      ],
      [
       72.18597,
       18.48558
      ],
      [
       72.18642,
       18.48504
      ],
      [
       72.18624,
       18.48423
      ],
      [
       72.1857,
       18.48387
      ],
      [
       72.18516,
       18.48405
      ],
      [
       72.1848,
       18.4836
      ],
      [
       72.18444,
       18.48198
      ],
      [
       72.18345,
       18.48135
      ],
      [
       72.18354,
       18.48082
      ],
      [
       72.18228,
       18.47947
      ],
      [
       72.18228,
       18.47893
      ],
      [
       72.18183,
       18.47839
      ],
      [
       72.18129,
       18.47839
      ],
      [
       72.18022,
       18.47749
      ],
      [
       72.17968,
       18.47785
      ],
      [
       72.17851,
       18.47677
      ],
      [
       72.1777,
       18.47668
      ],
      [
       72.17698,
       18.47713
      ],
      [
       72.17698,
       18.47677
      ],
      [
       72.17635,
       18.47641
      ],
      [
       72.17779,
       18.47534
      ],
      [
       72.17779,
       18.47462
      ],
      [
       72.17725,
       18.47426
      ],
      [
       72.17752,
       18.47399
      ],
      [
       72.17752,
       18.47336
      ],
      [
       72.17698,
       18.473
      ],
      [
       72.17635,
       18.47336
      ],
      [
       72.17582,
       18.47282
      ],
      [
       72.17501,
       18.47291
      ],
      [
       72.17438,
       18.47246
      ],
      [
       72.17303,
       18.47255
      ],
      [
       72.17249,
       18.47183
      ],
      [
       72.17258,
       18.47031
      ],
      [
       72.17303,
       18.47004
      ],
      [
       72.17348,
       18.46878
      ],
      [
       72.17087,
       18.46671
      ],
      [
       72.17132,
       18.46626
      ],
      [
       72.17168,
       18.46483
      ],
      [
       72.17016,
       18.46429
      ],
      [
       72.16863,
       18.46563
      ],
      [
       72.16872,
       18.46707
      ],
      [
       72.16935,
       18.46761
      ],
      [
       72.16872,
       18.46923
      ],
      [
       72.168,
       18.46842
      ],
      [
       72.1671,
       18.46878
      ],
      [
       72.16674,
       18.46779
      ],
      [
       72.16602,
       18.46779
      ],
      [
       72.16602,
       18.46626
      ],
      [
       72.16629,
       18.46599
      ],
      [
       72.1662,
       18.46527
      ],
      [
       72.16656,
       18.46447
      ],
      [
       72.16647,
       18.46357
      ],
      [
       72.1671,
       18.46339
      ],
      [
       72.16746,
       18.46267
      ],
      [
       72.16674,
       18.46222
      ],
      [
       72.1653,
       18.46249
      ],
      [
       72.1653,
       18.46213
      ],
      [
       72.16477,
       18.46177
      ],
      [
       72.16378,
       18.46204
      ],
      [
       72.16315,
       18.46276
      ],
      [
       72.16315,
       18.46321
      ],
      [
       72.16279,
       18.46321
      ],
      [
       72.16315,
       18.46168
      ],
      [
       72.16234,
       18.46105
      ],
      [
       72.16288,
       18.46024
      ],
      [
       72.16306,
       18.46069
      ],
      [
       72.16378,
       18.46114
      ],
      [
       72.16423,
       18.46087
      ],
      [
       72.16513,
       18.46096
      ],
      [
       72.16629,
       18.46015
      ],
      [
       72.16692,
       18.46051
      ],
      [
       72.16764,
       18.45997
      ],
      [
       72.16836,
       18.4606
      ],
      [
       72.1689,
       18.46015
      ],
      [
       72.16989,
       18.4606
      ],
      [
       72.17087,
       18.45997
      ],
      [
       72.17096,
       18.46087
      ],
      [
       72.1715,
       18.46159
      ],
      [
       72.17258,
       18.46168
      ],
      [
       72.17375,
       18.46276
      ],
      [
       72.17429,
       18.46285
      ],
      [
       72.17483,
       18.4624
      ],
      [
       72.17608,
       18.46303
      ],
      [
       72.17671,
       18.46294
      ],
      [
       72.17869,
       18.46348
      ],
      [
       72.17932,
       18.46294
      ],
      [
       72.17968,
       18.4633
      ],
      [
       72.17968,
       18.46447
      ],
      [
       72.17914,
       18.46483
      ],
      [
       72.17833,
       18.46483
      ],
      [
       72.17788,
       18.46545
      ],
      [
       72.17653,
       18.46545
      ],
      [
       72.17608,
       18.46501
      ],
      [
       72.17626,
       18.46429
      ],
      [
       72.17573,
       18.46393
      ],
      [
       72.17492,
       18.46447
      ],
      [
       72.17411,
       18.46402
      ],
      [
       72.17348,
       18.46411
      ],
      [
       72.17267,
       18.46527
      ],
      [
       72.17303,
       18.46743
      ],
      [
       72.17375,
       18.46797
      ],
      [
       72.17366,
       18.46869
      ],
      [
       72.17456,
       18.46959
      ],
      [
       72.17662,
       18.47084
      ],
      [
       72.17725,
       18.47031
      ],
      [
       72.17806,
       18.47183
      ],
      [
       72.17905,
       18.47174
      ],
      [
       72.17887,
       18.47237
      ],
      [
       72.17977,
       18.47318
      ],
      [
       72.17941,
       18.47354
      ],
      [
       72.17941,
       18.47408
      ],
      [
       72.18013,
       18.47471
      ],
      [
       72.17986,
       18.47534
      ],
      [
       72.18067,
       18.4757
      ],
      [
       72.18147,
       18.4765
      ],
      [
       72.18273,
       18.47623
      ],
      [
       72.18327,
       18.4774
      ],
      [
       72.18309,
       18.4783
      ],
      [
       72.18354,
       18.47884
      ],
      [
       72.18426,
       18.47884
      ],
      [
       72.18498,
       18.47812
      ],
      [
       72.18489,
       18.47875
      ],
      [
       72.18543,
       18.4792
      ],
      [
       72.18534,
       18.47983
      ],
      [
       72.18615,
       18.48028
      ],
      [
       72.18668,
       18.48243
      ],
      [
       72.18749,
       18.48297
      ],
      [
       72.18794,
       18.48441
      ],
      [
       72.18893,
       18.48558
      ],
      [
       72.19037,
       18.48648
      ],
      [
       72.191,
       18.48773
      ],
      [
       72.19046,
       18.48836
      ],
      [
       72.19046,
       18.4889
      ],
      [
       72.19091,
       18.48935
      ],
      [
       72.19154,
       18.48935
      ],
      [
       72.19145,
       18.49007
      ],
      [
       72.1919,
       18.49034
      ],
      [
       72.19181,
       18.49124
      ],
      [
       72.19351,
       18.49195
      ],
      [
       72.19324,
       18.49303
      ]
     ]
    ]
   },
   "properties": {
    "id": "det-01",
    "classification": "oil",
    "confidence": 0.67,
    "area_km2": 1.476,
    "elongation": 3.07,
    "edge_gradient": 15.7022,
    "contrast_db": -5.04,
    "shape_class": "linear",
    "discharge_class": "unknown",
    "centroid": [
     72.17679,
     18.47204
    ],
    "vh_contrast_db": -0.566,
    "vh_mean_depth_db": 6.985,
    "solidity": 0.36,
    "mean_depth_db": 7.488
   }
  },
  {
   "type": "Feature",
   "geometry": {
    "type": "Polygon",
    "coordinates": [
     [
      [
       72.23924,
       18.57918
      ],
      [
       72.23843,
       18.57909
      ],
      [
       72.23699,
       18.57756
      ],
      [
       72.23717,
       18.57685
      ],
      [
       72.23645,
       18.57577
      ],
      [
       72.23537,
       18.57577
      ],
      [
       72.23582,
       18.57433
      ],
      [
       72.23519,
       18.57307
      ],
      [
       72.2343,
       18.57235
      ],
      [
       72.2343,
       18.5719
      ],
      [
       72.2334,
       18.57146
      ],
      [
       72.23268,
       18.57199
      ],
      [
       72.23313,
       18.57101
      ],
      [
       72.23259,
       18.57065
      ],
      [
       72.23196,
       18.57092
      ],
      [
       72.2325,
       18.56993
      ],
      [
       72.23196,
       18.56957
      ],
      [
       72.23097,
       18.56948
      ],
      [
       72.23106,
       18.56705
      ],
      [
       72.23052,
       18.56607
      ],
      [
       72.22909,
       18.56508
      ],
      [
       72.22855,
       18.56544
      ],
      [
       72.22774,
       18.56535
      ],
      [
       72.22828,
       18.56427
      ],
      [
       72.22819,
       18.56328
      ],
      [
       72.22666,
       18.56247
      ],
      [
       72.22666,
       18.56193
      ],
      [
       72.2263,
       18.56157
      ],
      [
       72.22585,
       18.56157
      ],
      [
       72.2254,
       18.56077
      ],
      [
       72.22459,
       18.56077
      ],
      [
       72.22531,
       18.55942
      ],
      [
       72.22477,
       18.55906
      ],
      [
       72.22432,
       18.55924
      ],
      [
       72.22396,
       18.55798
      ],
      [
       72.22307,
       18.55726
      ],
      [
       72.22172,
       18.55708
      ],
      [
       72.22172,
       18.55636
      ],
      [
       72.22037,
       18.55484
      ],
      [
       72.22037,
       18.55394
      ],
      [
       72.22001,
       18.55358
      ],
      [
       72.21956,
       18.55349
      ],
      [
       72.21858,
       18.55403
      ],
      [
       72.21849,
       18.55331
      ],
      [
       72.21777,
       18.55304
      ],
      [
       72.21777,
       18.55241
      ],
      [
       72.21714,
       18.55187
      ],
      [
       72.21732,
       18.55035
      ],
      [
       72.21705,
       18.55008
      ],
      [
       72.21561,
       18.55008
      ],
      [
       72.21561,
       18.54954
      ],
      [
       72.21507,
       18.54918
      ],
      [
       72.21408,
       18.54954
      ],
      [
       72.2139,
       18.54927
      ],
      [
       72.21471,
       18.54846
      ],
      [
       72.21444,
       18.54774
      ],
      [
       72.21516,
       18.54792
      ],
      [
       72.21597,
       18.54873
      ],
      [
       72.21651,
       18.54837
      ],
      [
       72.2166,
       18.54765
      ],
      [
       72.21606,
       18.54729
      ],
      [
       72.21615,
       18.54666
      ],
      [
       72.21588,
       18.54639
      ],
      [
       72.21534,
       18.54639
      ],
      [
       72.21507,
       18.54675
      ],
      [
       72.21426,
       18.54666
      ],
      [
       72.21399,
       18.54693
      ],
      [
       72.21417,
       18.54765
      ],
      [
       72.21363,
       18.54783
      ],
      [
       72.21301,
       18.54738
      ],
      [
       72.21247,
       18.54747
      ],
      [
       72.21184,
       18.54675
      ],
      [
       72.21184,
       18.54639
      ],
      [
       72.21067,
       18.54531
      ],
      [
       72.20914,
       18.54567
      ],
      [
       72.20851,
       18.54522
      ],
      [
       72.20735,
       18.54621
      ],
      [
       72.20753,
       18.54549
      ],
      [
       72.20708,
       18.54496
      ],
      [
       72.20627,
       18.54505
      ],
      [
       72.20573,
       18.54567
      ],
      [
       72.20564,
       18.54531
      ],
      [
       72.20609,
       18.54496
      ],
      [
       72.20609,
       18.5446
      ],
      [
       72.2051,
       18.54424
      ],
      [
       72.20456,
       18.5446
      ],
      [
       72.20465,
       18.54505
      ],
      [
       72.20393,
       18.5454
      ],
      [
       72.20321,
       18.54514
      ],
      [
       72.20267,
       18.54549
      ],
      [
       72.2025,
       18.54514
      ],
      [
       72.20303,
       18.54505
      ],
      [
       72.2033,
       18.54442
      ],
      [
       72.20276,
       18.54334
      ],
      [
       72.20187,
       18.54325
      ],
      [
       72.20267,
       18.54289
      ],
      [
       72.20267,
       18.54226
      ],
      [
       72.20205,
       18.5419
      ],
      [
       72.20196,
       18.54127
      ],
      [
       72.20205,
       18.54091
      ],
      [
       72.2025,
       18.54091
      ],
      [
       72.20276,
       18.54037
      ],
      [
       72.20348,
       18.53992
      ],
      [
       72.20348,
       18.53903
      ],
      [
       72.20276,
       18.53822
      ],
      [
       72.20214,
       18.53822
      ],
      [
       72.20169,
       18.53867
      ],
      [
       72.20205,
       18.54001
      ],
      [
       72.2007,
       18.5401
      ],
      [
       72.20088,
       18.53876
      ],
      [
       72.20034,
       18.5384
      ],
      [
       72.19971,
       18.53849
      ],
      [
       72.20007,
       18.53741
      ],
      [
       72.19989,
       18.5366
      ],
      [
       72.20106,
       18.53696
      ],
      [
       72.2016,
       18.53588
      ],
      [
       72.20061,
       18.53489
      ],
      [
       72.1998,
       18.53445
      ],
      [
       72.19917,
       18.5348
      ],
      [
       72.19881,
       18.53427
      ],
      [
       72.19818,
       18.534
      ],
      [
       72.19746,
       18.53471
      ],
      [
       72.19648,
       18.53373
      ],
      [
       72.19414,
       18.53418
      ],
      [
       72.19396,
       18.53382
      ],
      [
       72.19432,
       18.534
      ],
      [
       72.19504,
       18.53355
      ],
      [
       72.19513,
       18.53301
      ],
      [
       72.19486,
       18.53274
      ],
      [
       72.19423,
       18.53274
      ],
      [
       72.19378,
       18.53328
      ],
      [
       72.19315,
       18.53319
      ],
      [
       72.19315,
       18.53283
      ],
      [
       72.19261,
       18.53247
      ],
      [
       72.19163,
       18.53301
      ],
      [
       72.19118,
       18.53274
      ],
      [
       72.19037,
       18.53292
      ],
      [
       72.1901,
       18.53238
      ],
      [
       72.18929,
       18.53211
      ],
      [
       72.18938,
       18.53139
      ],
      [
       72.18884,
       18.53103
      ],
      [
       72.1883,
       18.53139
      ],
      [
       72.18812,
       18.53229
      ],
      [
       72.18722,
       18.53202
      ],
      [
       72.18749,
       18.53121
      ],
      [
       72.18794,
       18.53094
      ],
      [
       72.1874,
       18.52986
      ],
      [
       72.18749,
       18.52932
      ],
      [
       72.18588,
       18.52834
      ],
      [
       72.18606,
       18.5278
      ],
      [
       72.18668,
       18.52744
      ],
      [
       72.18677,
       18.5269
      ],
      [
       72.18633,
       18.52501
      ],
      [
       72.18722,
       18.52447
      ],
      [
       72.18722,
       18.52376
      ],
      [
       72.18677,
       18.52331
      ],
      [
       72.1874,
       18.52331
      ],
      [
       72.18785,
       18.52277
      ],
      [
       72.18821,
       18.52304
      ],
      [
       72.18812,
       18.52358
      ],
      [
       72.18884,
       18.52456
      ],
      [
       72.18938,
       18.52474
      ],
      [
       72.19055,
       18.52438
      ],
      [
       72.19118,
       18.52465
      ],
      [
       72.19172,
       18.52429
      ],
      [
       72.19163,
       18.52367
      ],
      [
       72.19234,
       18.52322
      ],
      [
       72.19225,
       18.52268
      ],
      [
       72.19154,
       18.52214
      ],
      [
       72.19154,
       18.52187
      ],
      [
       72.1919,
       18.52187
      ],
      [
       72.19198,
       18.52232
      ],
      [
       72.19243,
       18.52259
      ],
      [
       72.19279,
       18.52385
      ],
      [
       72.1936,
       18.52411
      ],
      [
       72.19396,
       18.5234
      ],
      [
       72.19468,
       18.52349
      ],
      [
       72.19495,
       18.52322
      ],
      [
       72.19486,
       18.52277
      ],
      [
       72.19612,
       18.52178
      ],
      [
       72.19567,
       18.52097
      ],
      [
       72.19648,
       18.52079
      ],
      [
       72.1972,
       18.52016
      ],
      [
       72.19764,
       18.52034
      ],
      [
       72.19818,
       18.51998
      ],
      [
       72.19809,
       18.51908
      ],
      [
       72.19926,
       18.51872
      ],
      [
       72.20016,
       18.51926
      ],
      [
       72.2007,
       18.5189
      ],
      [
       72.2016,
       18.51881
      ],
      [
       72.20196,
       18.51926
      ],
      [
       72.2025,
       18.51926
      ],
      [
       72.20321,
       18.51819
      ],
      [
       72.20384,
       18.51783
      ],
      [
       72.20384,
       18.51711
      ],
      [
       72.20474,
       18.51675
      ],
      [
       72.20474,
       18.5163
      ],
      [
       72.20402,
       18.51585
      ],
      [
       72.20402,
       18.51558
      ],
      [
       72.20528,
       18.51666
      ],
      [
       72.20456,
       18.51711
      ],
      [
       72.20456,
       18.51747
      ],
      [
       72.20492,
       18.51774
      ],
      [
       72.20474,
       18.51837
      ],
      [
       72.20546,
       18.5189
      ],
      [
       72.20483,
       18.51935
      ],
      [
       72.20483,
       18.51971
      ],
      [
       72.20393,
       18.52025
      ],
      [
       72.20339,
       18.51998
      ],
      [
       72.20259,
       18.52043
      ],
      [
       72.20196,
       18.52016
      ],
      [
       72.20142,
       18.52052
      ],
      [
       72.20169,
       18.52115
      ],
      [
       72.20223,
       18.52115
      ],
      [
       72.20276,
       18.52169
      ],
      [
       72.20366,
       18.52151
      ],
      [
       72.20375,
       18.52241
      ],
      [
       72.20348,
       18.52259
      ],
      [
       72.20321,
       18.52214
      ],
      [
       72.20223,
       18.52223
      ],
      [
       72.20169,
       18.52187
      ],
      [
       72.20052,
       18.52295
      ],
      [
       72.20052,
       18.52331
      ],
      [
       72.20133,
       18.52367
      ],
      [
       72.2016,
       18.52465
      ],
      [
       72.20259,
       18.52528
      ],
      [
       72.20321,
       18.52483
      ],
      [
       72.20303,
       18.52385
      ],
      [
       72.20366,
       18.52402
      ],
      [
       72.20528,
       18.52322
      ],
      [
       72.20573,
       18.52349
      ],
      [
       72.20636,
       18.52331
      ],
      [
       72.20744,
       18.52393
      ],
      [
       72.20824,
       18.5234
      ],
      [
       72.20851,
       18.52232
      ],
      [
       72.20833,
       18.52358
      ],
      [
       72.20887,
       18.52393
      ],
      [
       72.21004,
       18.52385
      ],
      [
       72.21067,
       18.52537
      ],
      [
       72.21139,
       18.52582
      ],
      [
       72.2113,
       18.52699
      ],
      [
       72.21202,
       18.52807
      ],
      [
       72.21184,
       18.52888
      ],
      [
       72.2131,
       18.53013
      ],
      [
       72.2131,
       18.53094
      ],
      [
       72.21399,
       18.5322
      ],
      [
       72.21363,
       18.53319
      ],
      [
       72.21408,
       18.53355
      ],
      [
       72.21372,
       18.53382
      ],
      [
       72.21354,
       18.53462
      ],
      [
       72.21552,
       18.53723
      ],
      [
       72.21543,
       18.53768
      ],
      [
       72.21597,
       18.53804
      ],
      [
       72.21597,
       18.53849
      ],
      [
       72.21633,
       18.53885
      ],
      [
       72.21696,
       18.53885
      ],
      [
       72.21723,
       18.5384
      ],
      [
       72.21786,
       18.5393
      ],
      [
       72.21768,
       18.54091
      ],
      [
       72.21822,
       18.54136
      ],
      [
       72.21983,
       18.54136
      ],
      [
       72.22073,
       18.54217
      ],
      [
       72.22136,
       18.54181
      ],
      [
       72.22136,
       18.54145
      ],
      [
       72.22181,
       18.54145
      ],
      [
       72.22127,
       18.54271
      ],
      [
       72.22181,
       18.54307
      ],
      [
       72.22253,
       18.5428
      ],
      [
       72.22217,
       18.54343
      ],
      [
       72.22154,
       18.54307
      ],
      [
       72.221,
       18.54343
      ],
      [
       72.221,
       18.5446
      ],
      [
       72.22154,
       18.54496
      ],
      [
       72.2219,
       18.54487
      ],
      [
       72.22271,
       18.54621
      ],
      [
       72.22343,
       18.54621
      ],
      [
       72.22316,
       18.54792
      ],
      [
       72.22495,
       18.54927
      ],
      [
       72.22495,
       18.54999
      ],
      [
       72.22522,
       18.55026
      ],
      [
       72.22594,
       18.55035
      ],
      [
       72.22621,
       18.55205
      ],
      [
       72.22684,
       18.5525
      ],
      [
       72.22765,
       18.5525
      ],
      [
       72.22837,
       18.55349
      ],
      [
       72.22774,
       18.55403
      ],
      [
       72.22774,
       18.55439
      ],
      [
       72.22837,
       18.55466
      ],
      [
       72.22828,
       18.55556
      ],
      [
       72.229,
       18.55591
      ],
      [
       72.22935,
       18.55681
      ],
      [
       72.23061,
       18.55699
      ],
      [
       72.23034,
       18.55789
      ],
      [
       72.23178,
       18.56059
      ],
      [
       72.23187,
       18.56166
      ],
      [
       72.23259,
       18.5622
      ],
      [
       72.23277,
       18.5631
      ],
      [
       72.23421,
       18.56409
      ],
      [
       72.23358,
       18.56454
      ],
      [
       72.23358,
       18.5649
      ],
      [
       72.23483,
       18.56598
      ],
      [
       72.23483,
       18.56732
      ],
      [
       72.23519,
       18.56768
      ],
      [
       72.23564,
       18.56768
      ],
      [
       72.23546,
       18.56903
      ],
      [
       72.23609,
       18.56948
      ],
      [
       72.23636,
       18.57092
      ],
      [
       72.23681,
       18.57119
      ],
      [
       72.23672,
       18.57173
      ],
      [
       72.23726,
       18.57208
      ],
      [
       72.23672,
       18.5728
      ],
      [
       72.23672,
       18.57334
      ],
      [
       72.23771,
       18.57442
      ],
      [
       72.23834,
       18.5746
      ],
      [
       72.23834,
       18.5755
      ],
      [
       72.23798,
       18.57586
      ],
      [
       72.23816,
       18.57685
      ],
      [
       72.23879,
       18.5772
      ],
      [
       72.23915,
       18.57783
      ],
      [
       72.23969,
       18.57783
      ],
      [
       72.23987,
       18.5781
      ],
      [
       72.23924,
       18.57918
      ]
     ]
    ]
   },
   "properties": {
    "id": "det-02",
    "classification": "oil",
    "confidence": 0.638,
    "area_km2": 7.606,
    "elongation": 4.13,
    "edge_gradient": 15.2933,
    "contrast_db": -4.65,
    "shape_class": "linear",
    "discharge_class": "unknown",
    "centroid": [
     72.21062,
     18.54023
    ],
    "vh_contrast_db": -1.392,
    "vh_mean_depth_db": 7.238,
    "solidity": 0.595,
    "mean_depth_db": 7.178
   }
  },
  {
   "type": "Feature",
   "geometry": {
    "type": "Polygon",
    "coordinates": [
     [
      [
       72.12344,
       18.44812
      ],
      [
       72.12308,
       18.44911
      ],
      [
       72.12237,
       18.44902
      ],
      [
       72.12183,
       18.44937
      ],
      [
       72.12021,
       18.44866
      ],
      [
       72.1194,
       18.44911
      ],
      [
       72.11868,
       18.44911
      ],
      [
       72.11823,
       18.44848
      ],
      [
       72.11913,
       18.44803
      ],
      [
       72.11967,
       18.44866
      ],
      [
       72.12066,
       18.44794
      ],
      [
       72.12147,
       18.44821
      ],
      [
       72.12174,
       18.44794
      ],
      [
       72.12183,
       18.44695
      ],
      [
       72.12237,
       18.44767
      ],
      [
       72.12317,
       18.44767
      ],
      [
       72.12344,
       18.44812
      ]
     ]
    ]
   },
   "properties": {
    "id": "det-03",
    "classification": "lookalike",
    "confidence": 0.523,
    "area_km2": 0.06,
    "elongation": 2.21,
    "edge_gradient": 14.938,
    "contrast_db": -3.27,
    "shape_class": "blob",
    "discharge_class": "acute",
    "centroid": [
     72.12139,
     18.44844
    ],
    "vh_contrast_db": -2.105,
    "vh_mean_depth_db": 7.775,
    "solidity": 0.62,
    "mean_depth_db": 5.577
   }
  },
  {
   "type": "Feature",
   "geometry": {
    "type": "Polygon",
    "coordinates": [
     [
      [
       72.15713,
       18.46258
      ],
      [
       72.15686,
       18.46303
      ],
      [
       72.15587,
       18.46321
      ],
      [
       72.15497,
       18.4642
      ],
      [
       72.15399,
       18.46429
      ],
      [
       72.15372,
       18.46456
      ],
      [
       72.1539,
       18.46581
      ],
      [
       72.15318,
       18.4659
      ],
      [
       72.15291,
       18.46527
      ],
      [
       72.15336,
       18.4642
      ],
      [
       72.15273,
       18.46375
      ],
      [
       72.15174,
       18.46447
      ],
      [
       72.15156,
       18.4651
      ],
      [
       72.14985,
       18.46402
      ],
      [
       72.14815,
       18.46438
      ],
      [
       72.14707,
       18.46519
      ],
      [
       72.14689,
       18.46581
      ],
      [
       72.14617,
       18.46572
      ],
      [
       72.14617,
       18.46536
      ],
      [
       72.14545,
       18.46492
      ],
      [
       72.14617,
       18.4651
      ],
      [
       72.14707,
       18.46456
      ],
      [
       72.1468,
       18.46393
      ],
      [
       72.14581,
       18.46357
      ],
      [
       72.14527,
       18.46402
      ],
      [
       72.14437,
       18.46402
      ],
      [
       72.14357,
       18.46357
      ],
      [
       72.14285,
       18.46402
      ],
      [
       72.14231,
       18.46402
      ],
      [
       72.14186,
       18.46465
      ],
      [
       72.14078,
       18.46483
      ],
      [
       72.14006,
       18.46554
      ],
      [
       72.13988,
       18.46438
      ],
      [
       72.13898,
       18.4633
      ],
      [
       72.13764,
       18.46375
      ],
      [
       72.1371,
       18.46312
      ],
      [
       72.13871,
       18.4624
      ],
      [
       72.13979,
       18.46285
      ],
      [
       72.1406,
       18.46213
      ],
      [
       72.14114,
       18.46258
      ],
      [
       72.14168,
       18.46222
      ],
      [
       72.14195,
       18.46123
      ],
      [
       72.14141,
       18.46087
      ],
      [
       72.14069,
       18.46168
      ],
      [
       72.14006,
       18.46105
      ],
      [
       72.13952,
       18.46168
      ],
      [
       72.1388,
       18.4615
      ],
      [
       72.13862,
       18.46123
      ],
      [
       72.13925,
       18.46033
      ],
      [
       72.14015,
       18.46105
      ],
      [
       72.14078,
       18.46069
      ],
      [
       72.14078,
       18.46033
      ],
      [
       72.14141,
       18.46069
      ],
      [
       72.1424,
       18.46033
      ],
      [
       72.14276,
       18.46078
      ],
      [
       72.14222,
       18.46186
      ],
      [
       72.14285,
       18.46258
      ],
      [
       72.14384,
       18.46294
      ],
      [
       72.14473,
       18.4624
      ],
      [
       72.14554,
       18.46258
      ],
      [
       72.14662,
       18.46222
      ],
      [
       72.14734,
       18.46294
      ],
      [
       72.14788,
       18.46258
      ],
      [
       72.14788,
       18.46213
      ],
      [
       72.14878,
       18.46267
      ],
      [
       72.14931,
       18.46231
      ],
      [
       72.14931,
       18.46114
      ],
      [
       72.14967,
       18.46195
      ],
      [
       72.1503,
       18.46195
      ],
      [
       72.15057,
       18.46159
      ],
      [
       72.15147,
       18.46186
      ],
      [
       72.15138,
       18.4624
      ],
      [
       72.15192,
       18.46276
      ],
      [
       72.15318,
       18.46258
      ],
      [
       72.15354,
       18.46177
      ],
      [
       72.15399,
       18.46186
      ],
      [
       72.15453,
       18.4615
      ],
      [
       72.15506,
       18.46222
      ],
      [
       72.15587,
       18.46213
      ],
      [
       72.15623,
       18.46258
      ],
      [
       72.15713,
       18.46258
      ]
     ]
    ]
   },
   "properties": {
    "id": "det-04",
    "classification": "oil",
    "confidence": 0.519,
    "area_km2": 0.47,
    "elongation": 3.68,
    "edge_gradient": 15.0289,
    "contrast_db": -3.23,
    "shape_class": "linear",
    "discharge_class": "unknown",
    "centroid": [
     72.14702,
     18.46322
    ],
    "vh_contrast_db": -0.404,
    "vh_mean_depth_db": 6.808,
    "solidity": 0.466,
    "mean_depth_db": 5.359
   }
  },
  {
   "type": "Feature",
   "geometry": {
    "type": "Polygon",
    "coordinates": [
     [
      [
       72.12021,
       18.43464
      ],
      [
       72.11985,
       18.43491
      ],
      [
       72.11931,
       18.43437
      ],
      [
       72.11877,
       18.43491
      ],
      [
       72.11868,
       18.4341
      ],
      [
       72.11832,
       18.43374
      ],
      [
       72.11769,
       18.43374
      ],
      [
       72.11716,
       18.43338
      ],
      [
       72.11635,
       18.43347
      ],
      [
       72.11581,
       18.43303
      ],
      [
       72.11518,
       18.43329
      ],
      [
       72.11446,
       18.43267
      ],
      [
       72.11581,
       18.43258
      ],
      [
       72.11787,
       18.4315
      ],
      [
       72.11796,
       18.43204
      ],
      [
       72.11877,
       18.43276
      ],
      [
       72.11976,
       18.43285
      ],
      [
       72.11958,
       18.43374
      ],
      [
       72.12021,
       18.43419
      ],
      [
       72.12021,
       18.43464
      ]
     ]
    ]
   },
   "properties": {
    "id": "det-05",
    "classification": "lookalike",
    "confidence": 0.508,
    "area_km2": 0.09,
    "elongation": 2.32,
    "edge_gradient": 15.4719,
    "contrast_db": -3.09,
    "shape_class": "blob",
    "discharge_class": "acute",
    "centroid": [
     72.11775,
     18.4331
    ],
    "vh_contrast_db": 0.564,
    "vh_mean_depth_db": 5.799,
    "solidity": 0.668,
    "mean_depth_db": 4.827
   }
  },
  {
   "type": "Feature",
   "geometry": {
    "type": "Polygon",
    "coordinates": [
     [
      [
       72.19414,
       18.49717
      ],
      [
       72.19414,
       18.49636
      ],
      [
       72.19369,
       18.49609
      ],
      [
       72.19342,
       18.4951
      ],
      [
       72.19252,
       18.49465
      ],
      [
       72.19378,
       18.49402
      ],
      [
       72.19432,
       18.49447
      ],
      [
       72.19486,
       18.49411
      ],
      [
       72.19531,
       18.49438
      ],
      [
       72.19567,
       18.4942
      ],
      [
       72.19585,
       18.4951
      ],
      [
       72.19531,
       18.49546
      ],
      [
       72.1954,
       18.49627
      ],
      [
       72.19468,
       18.49636
      ],
      [
       72.19414,
       18.49717
      ]
     ]
    ]
   },
   "properties": {
    "id": "det-06",
    "classification": "lookalike",
    "confidence": 0.503,
    "area_km2": 0.059,
    "elongation": 1.12,
    "edge_gradient": 12.6563,
    "contrast_db": -3.03,
    "shape_class": "blob",
    "discharge_class": "acute",
    "centroid": [
     72.19443,
     18.49526
    ],
    "vh_contrast_db": 0.678,
    "vh_mean_depth_db": 5.993,
    "solidity": 0.753,
    "mean_depth_db": 5.142
   }
  },
  {
   "type": "Feature",
   "geometry": {
    "type": "Polygon",
    "coordinates": [
     [
      [
       72.16872,
       18.49142
      ],
      [
       72.1698,
       18.48971
      ],
      [
       72.17078,
       18.48998
      ],
      [
       72.1715,
       18.48962
      ],
      [
       72.17222,
       18.49016
      ],
      [
       72.17312,
       18.48962
      ],
      [
       72.17312,
       18.48917
      ],
      [
       72.17231,
       18.48872
      ],
      [
       72.17294,
       18.48881
      ],
      [
       72.17375,
       18.48827
      ],
      [
       72.17501,
       18.48854
      ],
      [
       72.17662,
       18.48746
      ],
      [
       72.1777,
       18.48845
      ],
      [
       72.17608,
       18.48971
      ],
      [
       72.17438,
       18.4898
      ],
      [
       72.17339,
       18.49088
      ],
      [
       72.1724,
       18.49115
      ],
      [
       72.17177,
       18.49213
      ],
      [
       72.17078,
       18.4916
      ],
      [
       72.17025,
       18.49213
      ],
      [
       72.16962,
       18.49195
      ],
      [
       72.17052,
       18.49151
      ],
      [
       72.17043,
       18.49097
      ],
      [
       72.16989,
       18.49061
      ],
      [
       72.16926,
       18.49097
      ],
      [
       72.16917,
       18.49142
      ],
      [
       72.16872,
       18.49142
      ]
     ]
    ]
   },
   "properties": {
    "id": "det-07",
    "classification": "lookalike",
    "confidence": 0.477,
    "area_km2": 0.161,
    "elongation": 3.7,
    "edge_gradient": 16.4919,
    "contrast_db": -2.73,
    "shape_class": "linear",
    "discharge_class": "unknown",
    "centroid": [
     72.17329,
     18.48981
    ],
    "vh_contrast_db": -1.769,
    "vh_mean_depth_db": 7.33,
    "solidity": 0.662,
    "mean_depth_db": 5.006
   }
  },
  {
   "type": "Feature",
   "geometry": {
    "type": "Polygon",
    "coordinates": [
     [
      [
       72.26008,
       18.58161
      ],
      [
       72.26017,
       18.58107
      ],
      [
       72.25945,
       18.5808
      ],
      [
       72.25918,
       18.57999
      ],
      [
       72.25963,
       18.57963
      ],
      [
       72.25963,
       18.57909
      ],
      [
       72.26035,
       18.57873
      ],
      [
       72.26035,
       18.57828
      ],
      [
       72.25945,
       18.57765
      ],
      [
       72.2599,
       18.57685
      ],
      [
       72.26062,
       18.57658
      ],
      [
       72.26071,
       18.57586
      ],
      [
       72.26035,
       18.5746
      ],
      [
       72.2616,
       18.57505
      ],
      [
       72.2616,
       18.5755
      ],
      [
       72.26214,
       18.57586
      ],
      [
       72.2634,
       18.57451
      ],
      [
       72.26466,
       18.57415
      ],
      [
       72.26529,
       18.57316
      ],
      [
       72.26583,
       18.57379
      ],
      [
       72.26699,
       18.57397
      ],
      [
       72.26708,
       18.57433
      ],
      [
       72.26655,
       18.57469
      ],
      [
       72.26663,
       18.57523
      ],
      [
       72.26583,
       18.57541
      ],
      [
       72.26556,
       18.57613
      ],
      [
       72.26646,
       18.57685
      ],
      [
       72.2678,
       18.57712
      ],
      [
       72.26726,
       18.57747
      ],
      [
       72.26672,
       18.57855
      ],
      [
       72.26601,
       18.57846
      ],
      [
       72.26547,
       18.57882
      ],
      [
       72.26502,
       18.57972
      ],
      [
       72.2652,
       18.58026
      ],
      [
       72.26484,
       18.58107
      ],
      [
       72.26151,
       18.58071
      ],
      [
       72.26062,
       18.58116
      ],
      [
       72.26053,
       18.58188
      ],
      [
       72.26008,
       18.58161
      ]
     ]
    ]
   },
   "properties": {
    "id": "det-08",
    "classification": "lookalike",
    "confidence": 0.473,
    "area_km2": 0.444,
    "elongation": 1.42,
    "edge_gradient": 13.5299,
    "contrast_db": -2.67,
    "shape_class": "blob",
    "discharge_class": "acute",
    "centroid": [
     72.26334,
     18.57763
    ],
    "vh_contrast_db": -0.202,
    "vh_mean_depth_db": 7.408,
    "solidity": 0.696,
    "mean_depth_db": 5.12
   }
  },
  {
   "type": "Feature",
   "geometry": {
    "type": "Polygon",
    "coordinates": [
     [
      [
       72.15129,
       18.47875
      ],
      [
       72.15129,
       18.47821
      ],
      [
       72.1521,
       18.47848
      ],
      [
       72.15336,
       18.47785
      ],
      [
       72.15345,
       18.47677
      ],
      [
       72.15417,
       18.47659
      ],
      [
       72.1547,
       18.47704
      ],
      [
       72.15542,
       18.47686
      ],
      [
       72.15569,
       18.47659
      ],
      [
       72.1556,
       18.47614
      ],
      [
       72.15596,
       18.47588
      ],
      [
       72.15641,
       18.4765
      ],
      [
       72.15677,
       18.4765
      ],
      [
       72.1574,
       18.47794
      ],
      [
       72.15686,
       18.47812
      ],
      [
       72.15587,
       18.47713
      ],
      [
       72.15497,
       18.47722
      ],
      [
       72.15282,
       18.47911
      ],
      [
       72.15282,
       18.47992
      ],
      [
       72.15219,
       18.47956
      ],
      [
       72.15192,
       18.47893
      ],
      [
       72.15129,
       18.47875
      ]
     ]
    ]
   },
   "properties": {
    "id": "det-09",
    "classification": "lookalike",
    "confidence": 0.472,
    "area_km2": 0.074,
    "elongation": 1.91,
    "edge_gradient": 15.7728,
    "contrast_db": -2.66,
    "shape_class": "blob",
    "discharge_class": "acute",
    "centroid": [
     72.15426,
     18.47774
    ],
    "vh_contrast_db": -2.279,
    "vh_mean_depth_db": 7.89,
    "solidity": 0.453,
    "mean_depth_db": 4.579
   }
  },
  {
   "type": "Feature",
   "geometry": {
    "type": "Polygon",
    "coordinates": [
     [
      [
       72.1309,
       18.44767
      ],
      [
       72.13252,
       18.44569
      ],
      [
       72.13404,
       18.44614
      ],
      [
       72.13467,
       18.44551
      ],
      [
       72.13548,
       18.44533
      ],
      [
       72.13485,
       18.44614
      ],
      [
       72.13485,
       18.44659
      ],
      [
       72.13557,
       18.44695
      ],
      [
       72.13539,
       18.44758
      ],
      [
       72.13485,
       18.44695
      ],
      [
       72.13413,
       18.44713
      ],
      [
       72.13359,
       18.44686
      ],
      [
       72.13198,
       18.44839
      ],
      [
       72.1309,
       18.44767
      ]
     ]
    ]
   },
   "properties": {
    "id": "det-10",
    "classification": "lookalike",
    "confidence": 0.459,
    "area_km2": 0.074,
    "elongation": 2.02,
    "edge_gradient": 15.6988,
    "contrast_db": -2.5,
    "shape_class": "blob",
    "discharge_class": "acute",
    "centroid": [
     72.13314,
     18.44676
    ],
    "vh_contrast_db": -0.631,
    "vh_mean_depth_db": 6.996,
    "solidity": 0.626,
    "mean_depth_db": 4.585
   }
  },
  {
   "type": "Feature",
   "geometry": {
    "type": "Polygon",
    "coordinates": [
     [
      [
       72.24202,
       18.52106
      ],
      [
       72.24229,
       18.52025
      ],
      [
       72.24301,
       18.51944
      ],
      [
       72.24346,
       18.51962
      ],
      [
       72.24508,
       18.51855
      ],
      [
       72.24579,
       18.51863
      ],
      [
       72.24642,
       18.51783
      ],
      [
       72.24732,
       18.51792
      ],
      [
       72.24741,
       18.51819
      ],
      [
       72.24669,
       18.51846
      ],
      [
       72.24633,
       18.51917
      ],
      [
       72.24508,
       18.51917
      ],
      [
       72.24481,
       18.51944
      ],
      [
       72.24508,
       18.52016
      ],
      [
       72.24418,
       18.52016
      ],
      [
       72.24382,
       18.52061
      ],
      [
       72.24391,
       18.52115
      ],
      [
       72.24202,
       18.52106
      ]
     ]
    ]
   },
   "properties": {
    "id": "det-11",
    "classification": "lookalike",
    "confidence": 0.442,
    "area_km2": 0.066,
    "elongation": 3.92,
    "edge_gradient": 15.3444,
    "contrast_db": -2.31,
    "shape_class": "linear",
    "discharge_class": "unknown",
    "centroid": [
     72.24437,
     18.51964
    ],
    "vh_contrast_db": 0.491,
    "vh_mean_depth_db": 8.358,
    "solidity": 0.703,
    "mean_depth_db": 4.252
   }
  },
  {
   "type": "Feature",
   "geometry": {
    "type": "Polygon",
    "coordinates": [
     [
      [
       72.26628,
       18.59652
      ],
      [
       72.26574,
       18.59616
      ],
      [
       72.2661,
       18.5958
      ],
      [
       72.26646,
       18.59436
      ],
      [
       72.26592,
       18.594
      ],
      [
       72.26547,
       18.59427
      ],
      [
       72.26538,
       18.59346
      ],
      [
       72.26484,
       18.59293
      ],
      [
       72.2643,
       18.59293
      ],
      [
       72.26376,
       18.59346
      ],
      [
       72.26313,
       18.59266
      ],
      [
       72.2643,
       18.59221
      ],
      [
       72.26484,
       18.59293
      ],
      [
       72.26556,
       18.59302
      ],
      [
       72.26646,
       18.59221
      ],
      [
       72.26726,
       18.59203
      ],
      [
       72.2678,
       18.59239
      ],
      [
       72.26771,
       18.59284
      ],
      [
       72.2669,
       18.59275
      ],
      [
       72.26637,
       18.59311
      ],
      [
       72.26699,
       18.59445
      ],
      [
       72.26646,
       18.59499
      ],
      [
       72.26637,
       18.5958
      ],
      [
       72.26663,
       18.59616
      ],
      [
       72.26628,
       18.59652
      ]
     ]
    ]
   },
   "properties": {
    "id": "det-12",
    "classification": "lookalike",
    "confidence": 0.439,
    "area_km2": 0.061,
    "elongation": 1.19,
    "edge_gradient": 16.0202,
    "contrast_db": -2.27,
    "shape_class": "blob",
    "discharge_class": "acute",
    "centroid": [
     72.26585,
     18.59356
    ],
    "vh_contrast_db": -0.324,
    "vh_mean_depth_db": 7.382,
    "solidity": 0.421,
    "mean_depth_db": 4.404
   }
  },
  {
   "type": "Feature",
   "geometry": {
    "type": "Polygon",
    "coordinates": [
     [
      [
       72.17303,
       18.48603
      ],
      [
       72.17204,
       18.48531
      ],
      [
       72.17123,
       18.48423
      ],
      [
       72.17231,
       18.48369
      ],
      [
       72.17294,
       18.48279
      ],
      [
       72.17411,
       18.48225
      ],
      [
       72.17438,
       18.48441
      ],
      [
       72.17357,
       18.48477
      ],
      [
       72.17303,
       18.48603
      ]
     ]
    ]
   },
   "properties": {
    "id": "det-13",
    "classification": "lookalike",
    "confidence": 0.426,
    "area_km2": 0.07,
    "elongation": 1.59,
    "edge_gradient": 16.3728,
    "contrast_db": -2.11,
    "shape_class": "blob",
    "discharge_class": "acute",
    "centroid": [
     72.173,
     18.48413
    ],
    "vh_contrast_db": 0.873,
    "vh_mean_depth_db": 5.274,
    "solidity": 0.859,
    "mean_depth_db": 4.554
   }
  }
 ]
}