{"type": "FeatureCollection", "features": [{"type": "Feature", "geometry": {"type": "LineString", "coordinates": [[71.7, 18.61], [71.89, 18.83], [71.96, 18.88], [72.28, 18.84], [72.32, 18.84]]}, "properties": {"mmsi": "636019523", "name": "LISA", "vessel_type": "cargo", "n_points": 5, "n_points_full": 5, "max_gap_minutes": 60.0}}, {"type": "Feature", "geometry": {"type": "LineString", "coordinates": [[72.3, 18.86], [71.97, 18.9], [71.78, 18.83], [71.59, 18.84]]}, "properties": {"mmsi": "477636200", "name": "MAERSK GIBRALTAR", "vessel_type": "cargo", "n_points": 4, "n_points_full": 6, "max_gap_minutes": 2280.0}}, {"type": "Feature", "geometry": {"type": "LineString", "coordinates": [[71.57, 18.9], [71.72, 18.89], [71.95, 18.88], [72.16, 18.87], [72.31, 18.89], [72.32, 18.88]]}, "properties": {"mmsi": "353728000", "name": "MSC MADELEINE", "vessel_type": "cargo", "n_points": 6, "n_points_full": 6, "max_gap_minutes": 420.0}}, {"type": "Feature", "geometry": {"type": "LineString", "coordinates": [[72.19, 18.89], [71.96, 18.9], [71.55, 18.53], [71.52, 18.52]]}, "properties": {"mmsi": "248712000", "name": "APL CALIFORNIA", "vessel_type": "cargo", "n_points": 4, "n_points_full": 4, "max_gap_minutes": 60.0}}, {"type": "Feature", "geometry": {"type": "LineString", "coordinates": [[72.27, 18.87], [71.87, 18.9], [71.86, 18.9], [71.59, 18.89]]}, "properties": {"mmsi": "636093155", "name": "DALIAN EXPRESS", "vessel_type": "cargo", "n_points": 4, "n_points_full": 4, "max_gap_minutes": 60.0}}, {"type": "Feature", "geometry": {"type": "LineString", "coordinates": [[72.13, 18.9], [71.99, 18.9], [71.48, 18.88]]}, "properties": {"mmsi": "352002350", "name": "D QUEENS", "vessel_type": "cargo", "n_points": 3, "n_points_full": 3, "max_gap_minutes": 120.0}}, {"type": "Feature", "geometry": {"type": "LineString", "coordinates": [[72.2, 18.88], [71.99, 18.9], [71.86, 18.89], [71.64, 18.89]]}, "properties": {"mmsi": "636017816", "name": "AL JIMI", "vessel_type": "cargo", "n_points": 4, "n_points_full": 4, "max_gap_minutes": 60.0}}, {"type": "Feature", "geometry": {"type": "LineString", "coordinates": [[71.57, 19.28], [71.7, 19.16], [71.71, 19.15], [71.86, 18.99], [71.89, 18.95], [72.01, 18.8], [72.02, 18.79], [72.13, 18.67]]}, "properties": {"mmsi": "419767000", "name": "GREATSHIP AHALYA", "vessel_type": "other", "n_points": 8, "n_points_full": 13, "max_gap_minutes": 60.0}}, {"type": "Feature", "geometry": {"type": "LineString", "coordinates": [[71.65, 18.59], [71.69, 18.63], [71.94, 18.88], [72.05, 18.88]]}, "properties": {"mmsi": "352823000", "name": "GENIUS ACE", "vessel_type": "cargo", "n_points": 4, "n_points_full": 4, "max_gap_minutes": 60.0}}, {"type": "Feature", "geometry": {"type": "LineString", "coordinates": [[72.31, 18.86], [72.13, 18.9], [71.92, 18.9], [71.58, 18.89]]}, "properties": {"mmsi": "255803480", "name": "MSC RIDA VIII", "vessel_type": "cargo", "n_points": 4, "n_points_full": 4, "max_gap_minutes": 60.0}}, {"type": "Feature", "geometry": {"type": "LineString", "coordinates": [[72.14, 18.9], [71.92, 18.9], [71.69, 18.89]]}, "properties": {"mmsi": "563168100", "name": "X-PRESS ANTARES", "vessel_type": "cargo", "n_points": 3, "n_points_full": 3, "max_gap_minutes": 60.0}}, {"type": "Feature", "geometry": {"type": "LineString", "coordinates": [[72.2, 18.92], [72.14, 18.93], [72.01, 18.94], [71.92, 18.94], [71.79, 18.95], [71.62, 18.97], [71.62, 18.97], [71.63, 18.97], [71.57, 18.96]]}, "properties": {"mmsi": "419001555", "name": "OLYMPUS", "vessel_type": "other", "n_points": 9, "n_points_full": 9, "max_gap_minutes": 60.0}}, {"type": "Feature", "geometry": {"type": "LineString", "coordinates": [[72.02, 18.9], [71.89, 18.9], [71.72, 18.89]]}, "properties": {"mmsi": "564538000", "name": "VIYADA NAREE", "vessel_type": "cargo", "n_points": 3, "n_points_full": 3, "max_gap_minutes": 60.0}}, {"type": "Feature", "geometry": {"type": "LineString", "coordinates": [[71.98, 18.93], [71.96, 18.94], [72.04, 18.91], [72.07, 18.92], [72.13, 18.88], [72.18, 18.83], [72.2, 18.76], [72.2, 18.65], [72.21, 18.58], [72.18, 18.56], [72.17, 18.53], [72.18, 18.52], [72.23, 18.55], [72.28, 18.6], [72.31, 18.69], [72.32, 18.72], [72.31, 18.72], [72.25, 18.71], [72.22, 18.7], [72.22, 18.7], [72.21, 18.69], [72.2, 18.68], [72.24, 18.71], [72.28, 18.73], [72.31, 18.87], [72.25, 18.94], [72.25, 18.95], [72.21, 19.03], [72.13, 19.12], [72.12, 19.14], [72.05, 19.15], [72.01, 19.17], [71.96, 19.18], [71.84, 19.22], [71.82, 19.22], [71.75, 19.23], [71.68, 19.25], [71.66, 19.25], [71.6, 19.26], [71.59, 19.26], [71.52, 19.25], [71.51, 19.24], [71.46, 19.24]]}, "properties": {"mmsi": "419001628", "name": "SAGAR ENERGY", "vessel_type": "other", "n_points": 43, "n_points_full": 48, "max_gap_minutes": 420.0}}]}