{
 "type": "FeatureCollection",
 "ship_detections": [
  {
   "lon": 36.58535,
   "lat": 35.26323,
   "px_area": 65,
   "peak_db": 0.69
  },
  {
   "lon": 36.5843,
   "lat": 35.26311,
   "px_area": 16,
   "peak_db": -1.34
  },
  {
   "lon": 36.68817,
   "lat": 35.14928,
   "px_area": 14,
   "peak_db": -2.49
  },
  {
   "lon": 36.57505,
   "lat": 35.25776,
   "px_area": 17,
   "peak_db": -3.4
  },
  {
   "lon": 36.57962,
   "lat": 35.24,
   "px_area": 13,
   "peak_db": -3.41
  },
  {
   "lon": 36.59608,
   "lat": 35.2583,
   "px_area": 11,
   "peak_db": -4.04
  },
  {
   "lon": 36.58345,
   "lat": 35.26495,
   "px_area": 12,
   "peak_db": -4.17
  },
  {
   "lon": 36.56719,
   "lat": 35.2326,
   "px_area": 9,
   "peak_db": -4.46
  },
  {
   "lon": 36.56796,
   "lat": 35.25578,
   "px_area": 10,
   "peak_db": -4.74
  },
  {
   "lon": 36.60205,
   "lat": 35.25932,
   "px_area": 6,
   "peak_db": -4.77
  },
  {
   "lon": 36.60919,
   "lat": 35.17869,
   "px_area": 8,
   "peak_db": -5.11
  },
  {
   "lon": 36.51026,
   "lat": 35.28483,
   "px_area": 5,
   "peak_db": -5.13
  },
  {
   "lon": 36.51232,
   "lat": 35.28482,
   "px_area": 14,
   "peak_db": -5.16
  },
  {
   "lon": 36.60838,
   "lat": 35.2633,
   "px_area": 10,
   "peak_db": -5.31
  },
  {
   "lon": 36.60699,
   "lat": 35.25868,
   "px_area": 7,
   "peak_db": -5.46
  },
  {
   "lon": 36.59829,
   "lat": 35.18683,
   "px_area": 10,
   "peak_db": -5.48
  },
  {
   "lon": 36.5741,
   "lat": 35.26335,
   "px_area": 19,
   "peak_db": -5.84
  },
  {
   "lon": 36.58902,
   "lat": 35.21135,
   "px_area": 6,
   "peak_db": -5.87
  },
  {
   "lon": 36.60218,
   "lat": 35.26382,
   "px_area": 4,
   "peak_db": -5.91
  },
  {
   "lon": 36.68272,
   "lat": 35.15429,
   "px_area": 7,
   "peak_db": -5.92
  },
  {
   "lon": 36.52852,
   "lat": 35.14537,
   "px_area": 6,
   "peak_db": -5.98
  },
  {
   "lon": 36.57635,
   "lat": 35.23956,
   "px_area": 6,
   "peak_db": -6.05
  },
  {
   "lon": 36.60497,
   "lat": 35.2604,
   "px_area": 4,
   "peak_db": -6.2
  },
  {
   "lon": 36.58315,
   "lat": 35.26395,
   "px_area": 6,
   "peak_db": -6.33
  },
  {
   "lon": 36.57614,
   "lat": 35.26718,
   "px_area": 11,
   "peak_db": -6.39
  },
  {
   "lon": 36.61215,
   "lat": 35.25277,
   "px_area": 4,
   "peak_db": -6.41
  },
  {
   "lon": 36.56293,
   "lat": 35.14261,
   "px_area": 5,
   "peak_db": -6.49
  },
  {
   "lon": 36.56221,
   "lat": 35.2675,
   "px_area": 4,
   "peak_db": -6.53
  },
  {
   "lon": 36.61938,
   "lat": 35.31554,
   "px_area": 4,
   "peak_db": -6.54
  },
  {
   "lon": 36.57296,
   "lat": 35.2612,
   "px_area": 19,
   "peak_db": -6.54
  },
  {
   "lon": 36.59023,
   "lat": 35.17919,
   "px_area": 4,
   "peak_db": -6.59
  }
 ],
 "features": []
}